amphoe_name,province_name,pm25_mean,pm25_std,pm25_min,pm25_max,data_points,latitude,longitude,air_quality_category,air_quality_color,Unnamed: 11,longitude_original,latitude_original
หนองบุนนาก,นครราชสีมา,23.55,10.77,10.9,55.24,366,19.954544789242394,99.20836226702644,Moderate,#ffff00,หนองบุนนาก|นครราชสีมา,11043824.37,2267646.91
สุไหงโกลก,นราธิวาส,15.11,3.56,9.73,24.76,366,17.60981141495307,100.53378020550768,Moderate,#ffff00,สุไหงโกลก|นราธิวาส,11191369.22,1991927.76
เมืองบึงกาฬ,บึงกาฬ,20.41,16.01,5.47,86.86,366,19.698959249755834,101.02749329751293,Moderate,#ffff00,เมืองบึงกาฬ|บึงกาฬ,11246329.11,2237402.41
ป่าพะยอม,พัทลุง,14.25,3.69,9.5,24.95,366,18.787333757228097,101.01891914762061,Moderate,#ffff00,ป่าพะยอม|พัทลุง,11245374.64,2129913.84
หว้านใหญ่,มุกดาหาร,25.99,14.48,9.75,67.3,366,19.937109920111965,100.95257604860558,Unhealthy for Sensitive,#ff7e00,หว้านใหญ่|มุกดาหาร,11237989.36,2265582.22
กรงปินัง,ยะลา,15.49,2.93,8.83,23.88,366,17.308127385816615,99.87576650567833,Moderate,#ffff00,กรงปินัง|ยะลา,11118119.47,1956722.57
ดอนตูม,นครปฐม,23.18,10.47,10.19,53.86,366,20.364088605329183,99.91152008280697,Moderate,#ffff00,ดอนตูม|นครปฐม,11122099.54,2316212.467
นครชัยศรี,นครปฐม,23.66,10.3,10.54,54.2,366,20.280231902971195,100.14166495516879,Moderate,#ffff00,นครชัยศรี|นครปฐม,11147719.15,2306257.959
ท่าอุเทน,นครพนม,24.19,14.06,8.17,66.51,366,20.25090480296334,99.65985930174911,Moderate,#ffff00,ท่าอุเทน|นครพนม,11094084.79,2302777.853
กำแพงแสน,นครปฐม,23.33,10.39,10.56,53.71,366,20.162669704651957,99.84750586616603,Moderate,#ffff00,กำแพงแสน|นครปฐม,11114973.51,2292311.376
ปากพลี,นครนายก,21.17,8.79,9.42,56.59,366,20.151851147871326,100.34359230715195,Moderate,#ffff00,ปากพลี|นครนายก,11170197.6,2291028.483
เรณูนคร,นครพนม,24.25,13.71,8.32,64.09,366,20.13844551496234,100.15217596264522,Moderate,#ffff00,เรณูนคร|นครพนม,11148889.23,2289438.931
ธาตุพนม,นครพนม,24.58,13.7,8.66,63.74,366,20.01687020091484,100.05924866010113,Moderate,#ffff00,ธาตุพนม|นครพนม,11138544.61,2275029.541
เมืองนครพนม,นครพนม,25.31,15.56,7.51,79.16,366,20.005195040440107,100.47227588177056,Unhealthy for Sensitive,#ff7e00,เมืองนครพนม|นครพนม,11184522.59,2273646.361
คง,นครราชสีมา,23.88,11.53,10.24,54.19,366,20.00082330481334,99.32785975938116,Moderate,#ffff00,คง|นครราชสีมา,11057126.77,2273128.459
วังเจ้า,ตาก,26.17,17.28,7.62,73.64,366,19.91630711529881,99.77327151653766,Unhealthy for Sensitive,#ff7e00,วังเจ้า|ตาก,11106709.78,2263118.987
เสิงสาง,นครราชสีมา,22.45,10.43,10.13,54.06,366,19.88547381492526,99.16253525179626,Moderate,#ffff00,เสิงสาง|นครราชสีมา,11038722.93,2259468.652
พุทธมณฑล,นครปฐม,24.22,9.9,11.19,54.17,366,19.8788983516099,100.15327765650966,Moderate,#ffff00,พุทธมณฑล|นครปฐม,11149011.87,2258690.279
ปลาปาก,นครพนม,23.74,13.68,7.85,64.34,366,19.87567507340464,100.27948161144951,Moderate,#ffff00,ปลาปาก|นครพนม,11163060.83,2258308.734
เมืองนครนายก,นครนายก,20.28,8.68,8.36,63.62,366,19.86675543954772,99.99259303719876,Moderate,#ffff00,เมืองนครนายก|นครนายก,11131124.54,2257252.942
บ้านแพง,นครพนม,23.41,13.28,8.66,61.49,366,19.7756267394956,99.69869158501949,Moderate,#ffff00,บ้านแพง|นครพนม,11098407.58,2246469.691
บางเลน,นครปฐม,23.44,10.1,10.67,53.52,366,19.69333169609718,99.47446562223321,Moderate,#ffff00,บางเลน|นครปฐม,11073446.86,2236737.024
บ้านนา,นครนายก,22.24,9.15,10.46,53.35,366,19.693204204282072,100.19693658780164,Moderate,#ffff00,บ้านนา|นครนายก,11153871.96,2236721.95
พิมาย,นครราชสีมา,23.44,11.37,10.05,55.82,366,19.680831060989522,99.17265989386898,Moderate,#ffff00,พิมาย|นครราชสีมา,11039850.0,2235259.068
เมืองร้อยเอ็ด,ร้อยเอ็ด,25.65,13.77,9.56,61.82,366,19.627878376439174,100.36535911530687,Unhealthy for Sensitive,#ff7e00,เมืองร้อยเอ็ด|ร้อยเอ็ด,11172620.67,2228999.725
ปักธงชัย,นครราชสีมา,23.84,10.48,11.36,54.77,366,19.588828221572353,98.66288842801326,Moderate,#ffff00,ปักธงชัย|นครราชสีมา,10983102.5,2224385.071
นาหม่อม,สงขลา,16.41,2.1,12.41,23.52,366,19.584587239419562,98.19629125235372,Moderate,#ffff00,นาหม่อม|สงขลา,10931161.14,2223883.971
องครักษ์,นครนายก,22.7,9.33,10.69,53.04,366,19.56019392315113,99.75086088581862,Moderate,#ffff00,องครักษ์|นครนายก,11104215.04,2221001.996
สามง่าม,พิจิตร,26.21,16.39,7.65,64.85,366,19.50639920500892,101.13238876475582,Unhealthy for Sensitive,#ff7e00,สามง่าม|พิจิตร,11258006.02,2214647.9
เมืองนครปฐม,นครปฐม,22.4,11.27,8.29,54.13,366,19.50624550182985,99.97820436196692,Moderate,#ffff00,เมืองนครปฐม|นครปฐม,11129522.8,2214629.748
โพนสวรรค์,นครพนม,23.51,13.54,7.83,63.26,366,19.50538217193244,98.9099854081017,Moderate,#ffff00,โพนสวรรค์|นครพนม,11010609.21,2214527.791
ธารโต,ยะลา,13.68,2.69,9.38,21.35,366,19.478541387811394,100.350216304394,Moderate,#ffff00,ธารโต|ยะลา,11170934.98,2211358.236
ศรีนครินทร์,พัทลุง,13.77,3.44,9.22,24.71,366,19.466084596949475,100.91759493278974,Moderate,#ffff00,ศรีนครินทร์|พัทลุง,11234095.28,2209887.426
บางมูลนาก,พิจิตร,25.41,13.87,9.31,57.73,366,19.404951975922533,100.66435976436492,Unhealthy for Sensitive,#ff7e00,บางมูลนาก|พิจิตร,11205905.27,2202670.954
บันนังสตา,ยะลา,14.96,2.93,9.51,23.27,366,19.36782177326353,100.14343562442532,Moderate,#ffff00,บันนังสตา|ยะลา,11147916.26,2198289.2
กระแสสินธุ์,สงขลา,15.68,3.54,10.55,25.0,366,19.325978481565194,98.41914449955433,Moderate,#ffff00,กระแสสินธุ์|สงขลา,10955969.05,2193352.448
เกษตรวิสัย,ร้อยเอ็ด,23.65,12.83,8.58,59.95,366,19.32018652064993,99.96774545677697,Moderate,#ffff00,เกษตรวิสัย|ร้อยเอ็ด,11128358.52,2192669.201
เมืองพิจิตร,พิจิตร,26.07,16.71,6.31,70.31,366,19.301878603274222,100.89028695663626,Unhealthy for Sensitive,#ff7e00,เมืองพิจิตร|พิจิตร,11231055.37,2190509.672
บ้านเหลื่อม,นครราชสีมา,23.67,12.1,9.31,61.31,366,19.29380730855962,99.21828290169816,Moderate,#ffff00,บ้านเหลื่อม|นครราชสีมา,11044928.73,2189557.691
สามพราน,นครปฐม,24.66,10.16,11.21,55.13,366,19.28495143771737,99.43591585911967,Moderate,#ffff00,สามพราน|นครปฐม,11069155.52,2188513.226
สะบ้าย้อย,สงขลา,15.4,2.96,10.66,23.83,366,19.265178792474867,98.00502052475454,Moderate,#ffff00,สะบ้าย้อย|สงขลา,10909868.98,2186181.436
กาบัง,ยะลา,15.06,2.94,10.17,23.33,366,19.18862970109635,100.38330979030331,Moderate,#ffff00,กาบัง|ยะลา,11174618.93,2177156.643
วังยาง,นครพนม,22.66,12.73,7.52,58.28,366,19.180676480144836,98.85075355253882,Moderate,#ffff00,วังยาง|นครพนม,11004015.55,2176219.235
ป่าบอน,พัทลุง,15.4,2.93,10.86,23.94,366,19.16543825563243,100.9933269536598,Moderate,#ffff00,ป่าบอน|พัทลุง,11242525.73,2174423.305
เบตง,ยะลา,11.61,2.2,7.34,18.44,366,19.151471082530225,99.86667959742181,Good,#00e400,เบตง|ยะลา,11117107.92,2172777.323
สุวรรณคูหา,หนองบัวลำภู,24.93,15.18,8.46,74.49,366,19.14653026091196,99.63946718547349,Moderate,#ffff00,สุวรรณคูหา|หนองบัวลำภู,11091814.75,2172195.098
บางแก้ว,พัทลุง,15.42,3.23,10.64,24.41,366,19.129614308519603,100.74857790022948,Moderate,#ffff00,บางแก้ว|พัทลุง,11215280.39,2170201.859
รามัน,ยะลา,15.49,2.99,8.91,24.06,366,19.102892873244336,100.0562979638874,Moderate,#ffff00,รามัน|ยะลา,11138216.14,2167053.637
ตะพานหิน,พิจิตร,25.76,15.1,8.46,60.41,366,19.102144807973957,101.19025913367408,Unhealthy for Sensitive,#ff7e00,ตะพานหิน|พิจิตร,11264448.12,2166965.51
ขามทะเลสอ,นครราชสีมา,25.04,11.06,12.47,55.71,366,19.0117437996741,98.31843733749214,Hazardous,#7e0023,ขามทะเลสอ|นครราชสีมา,10944758.38,2156318.606
ด่านขุนทด,นครราชสีมา,24.22,11.03,10.91,54.72,366,18.955428513915418,99.03045182332185,Moderate,#ffff00,ด่านขุนทด|นครราชสีมา,11024019.47,2149689.047
เมืองนครราชสีมา,นครราชสีมา,26.05,11.46,12.08,57.59,366,18.94134060786925,98.87836722538349,Unhealthy for Sensitive,#ff7e00,เมืองนครราชสีมา|นครราชสีมา,11007089.49,2148030.938
ยะหา,ยะลา,15.35,2.93,9.34,23.72,366,18.939617683524943,100.28765583137735,Moderate,#ffff00,ยะหา|ยะลา,11163970.78,2147828.164
นาทม,นครพนม,23.26,13.2,8.64,61.18,366,18.939266161407474,99.21645851318763,Moderate,#ffff00,นาทม|นครพนม,11044725.64,2147786.793
โพธิ์ประทับช้าง,พิจิตร,26.0,15.92,7.89,63.76,366,18.919432117612942,100.98597118878732,Unhealthy for Sensitive,#ff7e00,โพธิ์ประทับช้าง|พิจิตร,11241706.89,2145452.645
ครบุรี,นครราชสีมา,22.88,10.28,10.65,53.95,366,18.90968969523417,98.63614908543464,Moderate,#ffff00,ครบุรี|นครราชสีมา,10980125.89,2144306.22
ตะโหมด,พัทลุง,14.98,3.2,10.38,24.06,366,18.885785199318388,100.66477164192268,Moderate,#ffff00,ตะโหมด|พัทลุง,11205951.12,2141493.577
ปากพะยูน,พัทลุง,15.85,2.87,11.23,24.34,366,18.845508102212957,100.44494436975664,Moderate,#ffff00,ปากพะยูน|พัทลุง,11181480.06,2136755.414
ระโนด,สงขลา,15.68,3.98,10.18,25.59,366,18.831841932572928,97.9023988731588,Moderate,#ffff00,ระโนด|สงขลา,10898445.19,2135147.996
แสวงหา,อ่างทอง,24.89,11.77,9.9,56.65,366,18.792616053542,99.45179070715758,Moderate,#ffff00,แสวงหา|อ่างทอง,11070922.7,2130534.965
นาแก,นครพนม,23.51,13.02,8.13,59.34,366,18.790780116643163,98.95538230997384,Moderate,#ffff00,นาแก|นครพนม,11015662.77,2130319.082
โพทะเล,พิจิตร,25.47,14.13,9.07,58.82,366,18.78743772513351,100.86544000503515,Unhealthy for Sensitive,#ff7e00,โพทะเล|พิจิตร,11228289.42,2129926.065
โนนสัง,หนองบัวลำภู,24.85,13.3,9.91,59.2,366,18.757426429414974,99.92686708078395,Moderate,#ffff00,โนนสัง|หนองบัวลำภู,11123807.96,2126397.519
ศรีบุญเรือง,หนองบัวลำภู,24.86,14.05,9.53,64.26,366,18.75092812918309,99.6497795754406,Moderate,#ffff00,ศรีบุญเรือง|หนองบัวลำภู,11092962.72,2125633.571
ชุมพวง,นครราชสีมา,22.73,11.6,9.08,57.34,366,18.743749653956264,99.29849293442801,Moderate,#ffff00,ชุมพวง|นครราชสีมา,11053857.67,2124789.695
โนนไทย,นครราชสีมา,24.76,11.12,11.93,55.31,366,18.735313469218575,98.87904257881408,Moderate,#ffff00,โนนไทย|นครราชสีมา,11007164.67,2123798.013
โชคชัย,นครราชสีมา,24.33,10.84,11.81,55.38,366,18.73479851314795,99.16346024704433,Moderate,#ffff00,โชคชัย|นครราชสีมา,11038825.9,2123737.481
ควนขนุน,พัทลุง,14.9,3.78,9.89,25.18,366,18.717431412876927,101.10134649196627,Moderate,#ffff00,ควนขนุน|พัทลุง,11254550.41,2121696.123
ประทาย,นครราชสีมา,23.63,11.82,9.72,55.53,366,18.697515190800114,99.0197437254721,Moderate,#ffff00,ประทาย|นครราชสีมา,11022827.45,2119355.395
ห้วยแถลง,นครราชสีมา,22.85,11.3,9.55,56.92,366,18.6659500548679,98.65491228660557,Moderate,#ffff00,ห้วยแถลง|นครราชสีมา,10982214.6,2115646.149
เสนางคนิคม,อำนาจเจริญ,23.74,14.57,6.09,67.18,366,18.648044202732862,99.15951861924064,Moderate,#ffff00,เสนางคนิคม|อำนาจเจริญ,11038387.12,2113542.324
นาหว้า,นครพนม,22.18,12.45,7.49,57.11,366,18.60853558997034,98.30622042929116,Moderate,#ffff00,นาหว้า|นครพนม,10943398.4,2108901.095
จักราช,นครราชสีมา,23.81,11.04,10.96,55.79,366,18.606406208694217,98.87724145666942,Moderate,#ffff00,จักราช|นครราชสีมา,11006964.17,2108650.979
ผาขาว,เลย,25.05,14.81,9.04,69.78,366,18.57790565417262,100.21435150756263,Hazardous,#7e0023,ผาขาว|เลย,11155810.58,2105303.62
วิเศษชัยชาญ,อ่างทอง,23.82,10.91,10.04,54.08,366,18.552244463830448,99.05920168533788,Moderate,#ffff00,วิเศษชัยชาญ|อ่างทอง,11027219.89,2102290.22
สูงเนิน,นครราชสีมา,24.29,10.69,11.62,55.14,366,18.532626013500522,98.75395513994087,Moderate,#ffff00,สูงเนิน|นครราชสีมา,10993240.0,2099986.726
สะเดา,สงขลา,15.05,2.72,10.67,22.98,366,18.48084127657457,97.98240489848766,Moderate,#ffff00,สะเดา|สงขลา,10907351.42,2093907.707
พนา,อำนาจเจริญ,23.77,14.41,6.86,64.11,366,18.41894855449885,98.88662894122,Moderate,#ffff00,พนา|อำนาจเจริญ,11008009.18,2086644.518
หัวตะพาน,อำนาจเจริญ,23.7,14.59,6.17,66.63,366,18.415116716848374,98.74793723602103,Moderate,#ffff00,หัวตะพาน|อำนาจเจริญ,10992570.09,2086194.933
รัตนวาปี,หนองคาย,23.6,14.11,8.18,68.08,366,18.41173313799809,99.5354895269564,Moderate,#ffff00,รัตนวาปี|หนองคาย,11080240.01,2085797.95
โพธิ์ตาก,หนองคาย,25.71,15.64,8.14,73.61,366,18.40526182400066,99.82380660217194,Unhealthy for Sensitive,#ff7e00,โพธิ์ตาก|หนองคาย,11112335.32,2085038.716
สามโก้,อ่างทอง,23.81,11.1,9.71,53.0,366,18.380954418969154,99.08309175149833,Moderate,#ffff00,สามโก้|อ่างทอง,11029879.32,2082187.153
ศรีสงคราม,นครพนม,23.14,13.05,8.09,59.88,366,18.37177345011233,98.60392382124742,Moderate,#ffff00,ศรีสงคราม|นครพนม,10976538.59,2081110.215
โพธิ์ทอง,อ่างทอง,24.62,11.39,10.17,56.59,366,18.342961050349526,99.27581218030302,Moderate,#ffff00,โพธิ์ทอง|อ่างทอง,11051332.86,2077730.86
ท่าลี่,เลย,25.65,17.31,7.45,88.06,366,18.333322863064694,100.37820583235354,Unhealthy for Sensitive,#ff7e00,ท่าลี่|เลย,11174050.76,2076600.54
ศรีบรรพต,พัทลุง,13.68,3.5,8.98,24.74,366,18.32187579452402,100.74835475871289,Moderate,#ffff00,ศรีบรรพต|พัทลุง,11215255.55,2075258.165
ทับคล้อ,พิจิตร,25.59,14.47,8.97,59.03,366,18.311351813540558,103.6038079927768,Unhealthy for Sensitive,#ff7e00,ทับคล้อ|พิจิตร,11533123.15,2074024.117
หนองหิน,เลย,25.22,15.53,8.55,75.04,366,18.294421797002315,100.15984802432924,Unhealthy for Sensitive,#ff7e00,หนองหิน|เลย,11149743.28,2072039.051
วชิรบารมี,พิจิตร,26.44,16.73,7.59,68.51,366,18.281220920700914,103.33956900111068,Unhealthy for Sensitive,#ff7e00,วชิรบารมี|พิจิตร,11503708.2,2070491.366
รัตภูมิ,สงขลา,15.59,2.58,11.29,23.55,366,18.2804855942767,97.78320698766376,Moderate,#ffff00,รัตภูมิ|สงขลา,10885176.81,2070405.159
เมืองอำนาจเจริญ,อำนาจเจริญ,23.12,15.54,3.93,72.24,366,18.267035677017624,98.82366638228218,Moderate,#ffff00,เมืองอำนาจเจริญ|อำนาจเจริญ,11001000.22,2068828.404
ชาติตระการ,พิษณุโลก,26.33,16.62,8.38,69.07,366,18.24269035364751,103.96633651058097,Unhealthy for Sensitive,#ff7e00,ชาติตระการ|พิษณุโลก,11573479.64,2065974.674
นครไทย,พิษณุโลก,26.02,15.82,8.61,64.84,366,18.15589061063509,103.77921860470873,Unhealthy for Sensitive,#ff7e00,นครไทย|พิษณุโลก,11552649.77,2055803.359
บึงนาราง,พิจิตร,25.76,15.03,8.54,61.54,366,18.144552926618637,103.4488869643288,Unhealthy for Sensitive,#ff7e00,บึงนาราง|พิจิตร,11515877.42,2054475.167
เมืองหนองบัวลำภู,หนองบัวลำภู,24.43,13.89,9.14,66.32,366,18.13890055792779,99.34501452703587,Moderate,#ffff00,เมืองหนองบัวลำภู|หนองบัวลำภู,11059036.43,2053813.033
วังทรายพูน,พิจิตร,25.94,15.65,8.1,62.73,366,18.138431105370245,100.63349526817008,Unhealthy for Sensitive,#ff7e00,วังทรายพูน|พิจิตร,11202469.45,2053758.041
วังสะพุง,เลย,25.47,18.01,6.3,97.05,366,18.132426633555557,99.8873592644199,Unhealthy for Sensitive,#ff7e00,วังสะพุง|เลย,11119409.97,2053054.686
ภูเรือ,เลย,25.57,16.79,7.81,83.51,366,18.114953678308893,100.24611764280813,Unhealthy for Sensitive,#ff7e00,ภูเรือ|เลย,11159346.77,2051008.067
โนนสูง,นครราชสีมา,24.33,11.18,11.33,55.26,366,18.113792323766177,98.47656598032512,Moderate,#ffff00,โนนสูง|นครราชสีมา,10962361.18,2050872.044
ไชโย,อ่างทอง,25.03,11.47,10.42,59.2,366,18.105407218463707,99.57243031756454,Hazardous,#7e0023,ไชโย|อ่างทอง,11084352.24,2049889.97
นากลาง,หนองบัวลำภู,24.84,14.95,8.59,73.26,366,18.090031126623177,99.15976709324823,Moderate,#ffff00,นากลาง|หนองบัวลำภู,11038414.78,2048089.225
สากเหล็ก,พิจิตร,26.1,16.03,7.87,63.47,366,18.07403177874776,103.64789065938828,Unhealthy for Sensitive,#ff7e00,สากเหล็ก|พิจิตร,11538030.41,2046215.656
ภูกระดึง,เลย,25.09,14.45,9.42,64.89,366,18.03781517168576,100.12362283167644,Hazardous,#7e0023,ภูกระดึง|เลย,11145710.71,2041975.219
เมืองพิษณุโลก,พิษณุโลก,27.55,18.76,5.98,88.36,366,18.029556524303963,104.0696885823342,Unhealthy for Sensitive,#ff7e00,เมืองพิษณุโลก|พิษณุโลก,11584984.74,2041008.374
ดงเจริญ,พิจิตร,25.32,13.59,9.58,56.65,366,17.987382992035393,103.90101847913665,Unhealthy for Sensitive,#ff7e00,ดงเจริญ|พิจิตร,11566208.47,2036071.799
ปทุมราชวงศา,อำนาจเจริญ,23.76,14.25,6.59,64.39,366,17.97599467607061,99.05711498876438,Moderate,#ffff00,ปทุมราชวงศา|อำนาจเจริญ,11026987.6,2034738.955
ภูหลวง,เลย,25.34,15.79,8.47,76.06,366,17.9198092658403,100.01910357887454,Unhealthy for Sensitive,#ff7e00,ภูหลวง|เลย,11134075.68,2028164.491
หาดใหญ่,สงขลา,16.46,2.08,12.49,23.44,366,17.913868586665835,97.96453525152984,Moderate,#ffff00,หาดใหญ่|สงขลา,10905362.18,2027469.472
หนองวัวซอ,อุดรธานี,23.73,13.51,8.65,67.45,366,17.91292526556698,101.95717281061987,Moderate,#ffff00,หนองวัวซอ|อุดรธานี,11349820.56,2027359.112
ขามสะแกแสง,นครราชสีมา,24.05,11.41,10.55,54.22,366,17.905789583187598,98.67497229572065,Moderate,#ffff00,ขามสะแกแสง|นครราชสีมา,10984447.67,2026524.321
น้ำยืน,อุบลราชธานี,23.02,12.53,8.56,55.35,366,17.90121926399353,103.52653302557474,Moderate,#ffff00,น้ำยืน|อุบลราชธานี,11524520.94,2025989.665
ป่าโมก,อ่างทอง,23.65,10.7,10.34,56.28,366,17.89675797398983,99.33581622768413,Moderate,#ffff00,ป่าโมก|อ่างทอง,11058012.48,2025467.777
โซ่พิสัย,บึงกาฬ,22.39,14.22,7.75,70.67,366,17.87372181202147,104.21712700379159,Moderate,#ffff00,โซ่พิสัย|บึงกาฬ,11601397.51,2022773.183
เอราวัณ,เลย,25.26,16.64,7.39,86.17,366,17.863302146368397,99.6374016891407,Unhealthy for Sensitive,#ff7e00,เอราวัณ|เลย,11091584.82,2021554.485
คูเมือง,บุรีรัมย์,21.8,11.98,7.83,59.94,366,17.840891629578266,104.0978800515696,Moderate,#ffff00,คูเมือง|บุรีรัมย์,11588123.0,2018933.563
นาจะหลวย,อุบลราชธานี,23.2,12.8,8.54,55.71,366,17.829245412910595,103.78635886374455,Moderate,#ffff00,นาจะหลวย|อุบลราชธานี,11553444.62,2017571.662
กุดจับ,อุดรธานี,23.57,13.84,7.97,70.93,366,17.826282003126067,101.733178972503,Moderate,#ffff00,กุดจับ|อุดรธานี,11324885.68,2017225.137
ชานุมาน,อำนาจเจริญ,24.34,13.91,7.69,63.11,366,17.788251146840427,98.88457251787159,Moderate,#ffff00,ชานุมาน|อำนาจเจริญ,11007780.26,2012778.527
บัวใหญ่,นครราชสีมา,23.8,11.83,9.79,54.66,366,17.68048103380662,98.3357175099605,Moderate,#ffff00,บัวใหญ่|นครราชสีมา,10946682.0,2000183.061
บุณฑริก,อุบลราชธานี,23.36,12.93,8.57,56.72,366,17.642022896598895,103.97188702105848,Moderate,#ffff00,บุณฑริก|อุบลราชธานี,11574097.52,1995690.156
พิบูลมังสาหาร,อุบลราชธานี,23.94,14.59,8.21,68.08,366,17.641394851026593,103.53089416661608,Moderate,#ffff00,พิบูลมังสาหาร|อุบลราชธานี,11525006.42,1995616.792
ศรีวิไล,บึงกาฬ,21.61,14.62,7.02,76.05,366,17.638713938840656,104.23420227054366,Moderate,#ffff00,ศรีวิไล|บึงกาฬ,11603298.32,1995303.629
เดชอุดม,อุบลราชธานี,23.54,14.05,8.19,64.27,366,17.628973593924293,103.73733645121723,Moderate,#ffff00,เดชอุดม|อุบลราชธานี,11547987.47,1994165.878
ทุ่งฝน,อุดรธานี,23.97,13.57,8.82,64.73,366,17.61721089813548,101.43919846857871,Moderate,#ffff00,ทุ่งฝน|อุดรธานี,11292159.92,1992791.982
พรเจริญ,บึงกาฬ,22.12,14.21,7.63,71.67,366,17.608127292389394,104.49661453807951,Moderate,#ffff00,พรเจริญ|บึงกาฬ,11632509.92,1991731.068
นาวัง,หนองบัวลำภู,25.14,16.08,7.82,81.76,366,17.566673451591726,99.28650707291813,Unhealthy for Sensitive,#ff7e00,นาวัง|หนองบัวลำภู,11052523.41,1986890.17
ลืออำนาจ,อำนาจเจริญ,23.52,14.68,5.89,66.93,366,17.54293805164979,101.71922669883615,Moderate,#ffff00,ลืออำนาจ|อำนาจเจริญ,11323332.52,1984118.896
เมืองอุดรธานี,อุดรธานี,21.66,13.32,6.39,75.38,366,17.542528284442728,101.99583594112225,Moderate,#ffff00,เมืองอุดรธานี|อุดรธานี,11354124.52,1984071.056
เมืองอ่างทอง,อ่างทอง,24.27,10.94,10.47,57.02,366,17.50288121684181,99.05380532576311,Moderate,#ffff00,เมืองอ่างทอง|อ่างทอง,11026619.17,1979442.803
บุ่งคล้า,บึงกาฬ,22.19,14.1,7.77,70.61,366,17.50132729108859,104.09818754489136,Moderate,#ffff00,บุ่งคล้า|บึงกาฬ,11588157.23,1979261.424
จะแนะ,นราธิวาส,14.67,3.2,9.76,23.49,366,17.482126084684374,98.12037831078544,Moderate,#ffff00,จะแนะ|นราธิวาส,10922710.55,1977020.328
เมืองบุรีรัมย์,บุรีรัมย์,18.98,12.76,4.73,66.04,366,17.466343393723623,104.40837707013922,Moderate,#ffff00,เมืองบุรีรัมย์|บุรีรัมย์,11622687.37,1975178.406
ตระการพืชผล,อุบลราชธานี,23.96,14.35,7.67,65.69,366,17.461161672146822,103.4475880902595,Moderate,#ffff00,ตระการพืชผล|อุบลราชธานี,11515732.83,1974573.707
โนนสะอาด,อุดรธานี,24.81,13.17,9.81,59.29,366,17.44190984682271,100.99465816707934,Moderate,#ffff00,โนนสะอาด|อุดรธานี,11242673.92,1972327.199
หนองหาน,อุดรธานี,23.64,13.44,8.61,66.49,366,17.40271768793113,101.39120696267143,Moderate,#ffff00,หนองหาน|อุดรธานี,11286817.53,1967754.573
แม่เมาะ,ลำปาง,23.84,19.52,5.68,81.99,366,17.394357076297503,100.67288998663986,Moderate,#ffff00,แม่เมาะ|ลำปาง,11206854.85,1966779.251
โขงเจียม,อุบลราชธานี,23.81,13.54,8.34,60.74,366,17.388639940175658,103.75041385562886,Moderate,#ffff00,โขงเจียม|อุบลราชธานี,11549443.24,1966112.334
ห้วยคต,อุทัยธานี,25.17,12.55,10.17,55.51,366,17.35645641646277,104.27085191716823,Unhealthy for Sensitive,#ff7e00,ห้วยคต|อุทัยธานี,11607378.14,1962358.441
เฉลิมพระเกียรติ,น่าน,28.06,24.15,6.69,144.29,366,17.321093382117258,104.66277537719392,Unhealthy for Sensitive,#ff7e00,เฉลิมพระเกียรติ|น่าน,11651006.86,1958234.449
ศรีเมืองใหม่,อุบลราชธานี,23.89,13.78,8.16,62.31,366,17.316390836870532,103.89412849073899,Moderate,#ffff00,ศรีเมืองใหม่|อุบลราชธานี,11565441.48,1957686.104
กุดข้าวปุ้น,อุบลราชธานี,23.9,13.97,7.35,61.95,366,17.313103962050942,103.44061743314931,Moderate,#ffff00,กุดข้าวปุ้น|อุบลราชธานี,11514956.86,1957302.843
บ้านผือ,อุดรธานี,25.05,15.01,8.2,70.89,366,17.287301522152273,101.97466408718,Hazardous,#7e0023,บ้านผือ|อุดรธานี,11351767.68,1954294.427
ไชยวาน,อุดรธานี,24.26,13.3,9.49,61.05,366,17.274290305757592,101.7137747335453,Moderate,#ffff00,ไชยวาน|อุดรธานี,11322725.61,1952777.554
เขื่องใน,อุบลราชธานี,23.21,14.55,7.13,64.85,366,17.257052955461617,103.60965620493947,Moderate,#ffff00,เขื่องใน|อุบลราชธานี,11533774.17,1950768.155
กุมภวาปี,อุดรธานี,24.21,13.27,9.34,62.75,366,17.23155217857765,101.21811741777061,Moderate,#ffff00,กุมภวาปี|อุดรธานี,11267549.29,1947795.813
ตาลสุม,อุบลราชธานี,24.12,14.97,8.06,70.52,366,17.214039092711396,104.30710801186682,Moderate,#ffff00,ตาลสุม|อุบลราชธานี,11611414.15,1945754.745
ลานสัก,อุทัยธานี,25.22,12.93,9.95,55.38,366,17.174201577401515,104.10197286583558,Unhealthy for Sensitive,#ff7e00,ลานสัก|อุทัยธานี,11588578.61,1941112.589
เขมราฐ,อุบลราชธานี,24.08,13.67,7.84,60.69,366,17.169506617500915,103.72970984428659,Moderate,#ffff00,เขมราฐ|อุบลราชธานี,11547138.48,1940565.564
แจ้ห่ม,ลำปาง,26.32,19.57,7.28,86.52,366,17.1572589437617,100.36587528726913,Unhealthy for Sensitive,#ff7e00,แจ้ห่ม|ลำปาง,11172678.13,1939138.613
สุคิริน,นราธิวาส,14.77,3.34,9.93,23.7,366,17.109342663651134,99.07495355401339,Moderate,#ffff00,สุคิริน|นราธิวาส,11028973.38,1933556.891
เมืองลำปาง,ลำปาง,26.95,20.13,7.11,87.07,366,17.104941476515968,100.86497575569634,Unhealthy for Sensitive,#ff7e00,เมืองลำปาง|ลำปาง,11228237.74,1933044.273
วังสามหมอ,อุดรธานี,24.68,13.26,9.82,58.54,366,17.097843677915854,101.62289352372386,Moderate,#ffff00,วังสามหมอ|อุดรธานี,11312608.76,1932217.599
เมืองอุบลราชธานี,อุบลราชธานี,25.01,17.81,7.08,88.44,366,17.085579552927964,103.81720467498148,Hazardous,#7e0023,เมืองอุบลราชธานี|อุบลราชธานี,11556878.36,1930789.282
งาว,ลำปาง,26.37,19.51,7.36,86.91,366,17.07829246274739,100.15960691650699,Unhealthy for Sensitive,#ff7e00,งาว|ลำปาง,11149716.44,1929940.65
สุไหงปาดี,นราธิวาส,14.95,3.46,9.52,24.52,366,17.077833296253807,98.61756527782595,Moderate,#ffff00,สุไหงปาดี|นราธิวาส,10978057.15,1929887.178
น้ำโสม,อุดรธานี,25.24,15.6,8.45,75.8,366,17.073777637130235,101.8200724709467,Unhealthy for Sensitive,#ff7e00,น้ำโสม|อุดรธานี,11334558.62,1929414.884
กระสัง,บุรีรัมย์,20.16,12.8,6.1,66.9,366,17.07250547571954,104.43898860075005,Moderate,#ffff00,กระสัง|บุรีรัมย์,11626095.03,1929266.739
ปากคาด,บึงกาฬ,22.6,14.25,7.79,70.07,366,17.054740938850827,104.64703725274228,Moderate,#ffff00,ปากคาด|บึงกาฬ,11649254.9,1927198.139
บ้านดุง,อุดรธานี,24.16,13.85,8.65,64.99,366,17.049281228917906,102.01238335781336,Moderate,#ffff00,บ้านดุง|อุดรธานี,11355966.57,1926562.42
วารินชำราบ,อุบลราชธานี,24.67,17.05,7.38,83.76,366,17.025786361912544,104.29542173850417,Moderate,#ffff00,วารินชำราบ|อุบลราชธานี,11610113.24,1923826.931
บ้านธิ,ลำพูน,27.01,19.39,8.06,94.68,366,16.99183441479342,101.2775323499884,Unhealthy for Sensitive,#ff7e00,บ้านธิ|ลำพูน,11274163.33,1919874.539
เซกา,บึงกาฬ,22.81,13.57,8.3,64.88,366,16.96366501168042,104.70282981840836,Moderate,#ffff00,เซกา|บึงกาฬ,11655465.7,1916595.844
คำม่วง,กาฬสินธุ์,24.59,13.23,9.72,59.14,366,16.94927393775116,103.64610974933751,Moderate,#ffff00,คำม่วง|กาฬสินธุ์,11537832.16,1914921.027
ม่วงสามสิบ,อุบลราชธานี,23.86,14.81,7.25,67.95,366,16.94153317699738,104.15047748943314,Moderate,#ffff00,ม่วงสามสิบ|อุบลราชธานี,11593978.12,1914020.219
บึงโขงหลง,บึงกาฬ,23.06,13.44,8.48,63.61,366,16.940970976206348,104.46492610710608,Moderate,#ffff00,บึงโขงหลง|บึงกาฬ,11628982.38,1913954.796
โพธิ์ไทร,อุบลราชธานี,23.94,13.58,8.11,60.67,366,16.935969778918516,103.92874578886476,Moderate,#ffff00,โพธิ์ไทร|อุบลราชธานี,11569295.06,1913372.818
เขาสวนกวาง,ขอนแก่น,24.88,13.15,9.88,58.7,366,16.92025511674335,102.78017953969426,Moderate,#ffff00,เขาสวนกวาง|ขอนแก่น,11441437.25,1911544.239
ศรีธาตุ,อุดรธานี,24.8,13.3,9.83,59.26,366,16.894617790423617,101.83995344582567,Moderate,#ffff00,ศรีธาตุ|อุดรธานี,11336771.76,1908561.373
แว้ง,นราธิวาส,15.04,3.51,10.02,24.32,366,16.890525943227683,99.16637968188617,Moderate,#ffff00,แว้ง|นราธิวาส,11039150.89,1908085.33
สามชัย,กาฬสินธุ์,25.55,13.65,10.08,60.72,366,16.88504030156612,103.52418599723192,Unhealthy for Sensitive,#ff7e00,สามชัย|กาฬสินธุ์,11524259.67,1907447.15
ท่าคันโท,กาฬสินธุ์,25.52,13.44,10.17,59.18,366,16.882402464149905,103.24194315030454,Unhealthy for Sensitive,#ff7e00,ท่าคันโท|กาฬสินธุ์,11492840.54,1907140.28
ปากชม,เลย,25.46,16.12,8.41,78.75,366,16.84586848398333,101.58921810917349,Unhealthy for Sensitive,#ff7e00,ปากชม|เลย,11308860.03,1902890.579
หนองม่วง,ลพบุรี,25.16,11.73,10.63,57.41,366,16.837347687024238,100.28468725868946,Unhealthy for Sensitive,#ff7e00,หนองม่วง|ลพบุรี,11163640.32,1901899.542
วังเหนือ,ลำปาง,27.74,21.17,7.42,98.55,366,16.82232148588166,100.57742485358662,Unhealthy for Sensitive,#ff7e00,วังเหนือ|ลำปาง,11196227.72,1900151.983
หนองนาคำ,ขอนแก่น,24.94,13.39,10.08,58.15,366,16.809366704698324,102.33051749360246,Moderate,#ffff00,หนองนาคำ|ขอนแก่น,11391381.1,1898645.443
สทิงพระ,สงขลา,15.96,3.2,11.02,24.83,366,16.794277603919543,104.35056958329085,Moderate,#ffff00,สทิงพระ|สงขลา,11616252.27,1896890.828
อุบลรัตน์,ขอนแก่น,25.41,12.98,10.31,54.99,366,16.784114867519236,102.67503730524282,Unhealthy for Sensitive,#ff7e00,อุบลรัตน์|ขอนแก่น,11429732.87,1895709.147
สมเด็จ,กาฬสินธุ์,25.43,13.69,9.88,61.43,366,16.77638534169496,103.75694766201637,Unhealthy for Sensitive,#ff7e00,สมเด็จ|กาฬสินธุ์,11550170.58,1894810.432
สีชมพู,ขอนแก่น,24.92,13.57,9.89,58.39,366,16.76536054669808,102.124346140891,Moderate,#ffff00,สีชมพู|ขอนแก่น,11368430.21,1893528.638
นาคู,กาฬสินธุ์,23.89,12.97,8.87,58.51,366,16.761371102907212,104.00758175853602,Moderate,#ffff00,นาคู|กาฬสินธุ์,11578071.04,1893064.825
กระนวน,ขอนแก่น,25.88,13.18,10.4,57.42,366,16.7560335847839,103.07916851065362,Unhealthy for Sensitive,#ff7e00,กระนวน|ขอนแก่น,11474720.55,1892444.3
เจาะไอร้อง,นราธิวาส,14.74,3.41,9.0,24.42,366,16.749259114466792,98.71130016581044,Moderate,#ffff00,เจาะไอร้อง|นราธิวาส,10988491.67,1891656.744
ป่าซาง,ลำพูน,26.89,18.95,8.1,88.35,366,16.728491109801737,101.31154301580281,Unhealthy for Sensitive,#ff7e00,ป่าซาง|ลำพูน,11277949.38,1889242.565
เกาะคา,ลำปาง,27.49,19.97,7.5,86.73,366,16.726050634896446,100.03916251001128,Unhealthy for Sensitive,#ff7e00,เกาะคา|ลำปาง,11136308.63,1888958.889
หนองกุงศรี,กาฬสินธุ์,26.78,14.09,10.5,62.7,366,16.724180253454243,103.34161769894764,Unhealthy for Sensitive,#ff7e00,หนองกุงศรี|กาฬสินธุ์,11503936.26,1888741.482
นาทวี,สงขลา,15.53,2.78,11.19,23.73,366,16.71980545402715,104.72634645490523,Moderate,#ffff00,นาทวี|สงขลา,11658083.56,1888232.978
สหัสขันธ์,กาฬสินธุ์,27.19,14.66,10.43,65.6,366,16.71831581718588,103.58525418889859,Unhealthy for Sensitive,#ff7e00,สหัสขันธ์|กาฬสินธุ์,11531057.75,1888059.833
ภูผาม่าน,ขอนแก่น,24.98,13.8,9.75,58.68,366,16.717778471362877,101.86847765104233,Moderate,#ffff00,ภูผาม่าน|ขอนแก่น,11339947.06,1887997.376
พรานกระต่าย,กำแพงเพชร,26.81,19.02,6.8,80.54,366,16.710331726426762,99.55148654587293,Unhealthy for Sensitive,#ff7e00,พรานกระต่าย|กำแพงเพชร,11082020.79,1887131.841
น้ำพอง,ขอนแก่น,26.09,12.84,10.56,54.64,366,16.701597026016426,102.87930189393222,Unhealthy for Sensitive,#ff7e00,น้ำพอง|ขอนแก่น,11452471.5,1886116.65
เขาวง,กาฬสินธุ์,24.18,13.12,8.93,58.51,366,16.682220198854132,104.10481962697096,Moderate,#ffff00,เขาวง|กาฬสินธุ์,11588895.51,1883864.743
ห้วยผึ้ง,กาฬสินธุ์,25.27,13.64,9.72,61.05,366,16.67423732716197,103.88687702027097,Unhealthy for Sensitive,#ff7e00,ห้วยผึ้ง|กาฬสินธุ์,11564634.25,1882937.068
ภูเวียง,ขอนแก่น,25.12,13.07,10.44,54.77,366,16.6732242765544,102.46528814241778,Unhealthy for Sensitive,#ff7e00,ภูเวียง|ขอนแก่น,11406383.7,1882819.346
นาแห้ว,เลย,25.97,16.16,8.68,70.15,366,16.65438906244674,100.98861277471178,Unhealthy for Sensitive,#ff7e00,นาแห้ว|เลย,11242000.95,1880630.705
บ้านหลวง,น่าน,28.39,19.34,9.1,92.69,366,16.620249138880027,99.12816615818349,Unhealthy for Sensitive,#ff7e00,บ้านหลวง|น่าน,11034896.98,1876664.214
ชุมแพ,ขอนแก่น,24.87,13.28,10.02,55.16,366,16.620165694357937,102.09252763386442,Moderate,#ffff00,ชุมแพ|ขอนแก่น,11364888.19,1876654.52
จะนะ,สงขลา,16.11,2.36,12.0,23.83,366,16.61497149842964,104.34791434297405,Moderate,#ffff00,จะนะ|สงขลา,11615956.69,1876051.103
ลานกระบือ,กำแพงเพชร,26.97,18.16,7.34,77.87,366,16.602133071302767,99.85733298621668,Unhealthy for Sensitive,#ff7e00,ลานกระบือ|กำแพงเพชร,11116067.46,1874559.715
ห้วยเม็ก,กาฬสินธุ์,27.22,14.1,10.66,62.78,366,16.597254084275086,103.23761848086372,Unhealthy for Sensitive,#ff7e00,ห้วยเม็ก|กาฬสินธุ์,11492359.12,1873992.969
เสริมงาม,ลำปาง,26.92,19.1,7.73,82.88,366,16.596433415101775,100.34933900968754,Unhealthy for Sensitive,#ff7e00,เสริมงาม|ลำปาง,11170837.32,1873897.641
เถิน,ลำปาง,26.65,18.1,7.86,76.07,366,16.58536691810593,100.70669116533001,Unhealthy for Sensitive,#ff7e00,เถิน|ลำปาง,11210617.58,1872612.209
นามน,กาฬสินธุ์,26.92,14.6,10.22,65.27,366,16.580636831064325,103.78829895526368,Unhealthy for Sensitive,#ff7e00,นามน|กาฬสินธุ์,11553660.59,1872062.807
โกสัมพีนคร,กำแพงเพชร,26.27,18.35,6.83,75.48,366,16.576398773991627,99.28526039096683,Unhealthy for Sensitive,#ff7e00,โกสัมพีนคร|กำแพงเพชร,11052384.63,1871570.566
ซำสูง,ขอนแก่น,26.57,12.95,10.7,55.95,366,16.564226238033037,103.05083025670076,Unhealthy for Sensitive,#ff7e00,ซำสูง|ขอนแก่น,11471565.95,1870156.813
โพนนาแก้ว,สกลนคร,20.58,11.79,6.23,58.83,366,16.550063252937225,104.62825752257011,Moderate,#ffff00,โพนนาแก้ว|สกลนคร,11647164.35,1868511.996
พญาเม็งราย,เชียงราย,28.1,23.83,7.52,116.88,366,16.548520596223774,101.71922624967853,Unhealthy for Sensitive,#ff7e00,พญาเม็งราย|เชียงราย,11323332.47,1868332.847
เจริญศิลป์,สกลนคร,23.72,13.35,8.94,61.63,366,16.539721570794,103.14272566447798,Moderate,#ffff00,เจริญศิลป์|สกลนคร,11481795.7,1867311.042
กุฉินารายณ์,กาฬสินธุ์,25.04,13.58,9.44,60.01,366,16.523501078993174,104.05082899193329,Hazardous,#7e0023,กุฉินารายณ์|กาฬสินธุ์,11582885.3,1865427.526
ลำสนธิ,ลพบุรี,24.43,11.23,10.69,55.16,366,16.518718393687156,100.09734315702867,Moderate,#ffff00,ลำสนธิ|ลพบุรี,11142785.27,1864872.193
เมืองกาฬสินธุ์,กาฬสินธุ์,30.75,17.44,9.77,81.16,366,16.51461684570979,103.55595204264588,Unhealthy for Sensitive,#ff7e00,เมืองกาฬสินธุ์|กาฬสินธุ์,11527795.85,1864395.96
ท่าหลวง,ลพบุรี,24.77,10.88,11.01,57.14,366,16.50600244429143,100.50839156979025,Moderate,#ffff00,ท่าหลวง|ลพบุรี,11188542.97,1863395.77
บ้านฝาง,ขอนแก่น,26.22,12.68,10.79,54.48,366,16.49638638147168,102.61505023602061,Unhealthy for Sensitive,#ff7e00,บ้านฝาง|ขอนแก่น,11423055.14,1862279.333
หนองเรือ,ขอนแก่น,25.35,12.77,10.77,52.67,366,16.494512366808614,102.444756427947,Unhealthy for Sensitive,#ff7e00,หนองเรือ|ขอนแก่น,11404098.12,1862061.764
เมืองน่าน,น่าน,30.67,19.75,9.77,100.28,366,16.475179074174328,98.8215370157327,Unhealthy for Sensitive,#ff7e00,เมืองน่าน|น่าน,11000763.18,1859817.334
ดอนจาน,กาฬสินธุ์,28.64,15.79,10.27,71.59,366,16.474875866796147,103.71367716225328,Unhealthy for Sensitive,#ff7e00,ดอนจาน|กาฬสินธุ์,11545353.73,1859782.136
เมืองขอนแก่น,ขอนแก่น,27.38,12.74,10.9,59.84,366,16.46353426243635,102.80443180657727,Unhealthy for Sensitive,#ff7e00,เมืองขอนแก่น|ขอนแก่น,11444137.0,1858465.579
ท่าวุ้ง,ลพบุรี,25.98,12.72,9.45,64.35,366,16.45045924178303,100.14210117707077,Unhealthy for Sensitive,#ff7e00,ท่าวุ้ง|ลพบุรี,11147767.71,1856947.899
เทพา,สงขลา,15.77,2.9,11.5,24.24,366,16.444199068149455,104.34167536366279,Moderate,#ffff00,เทพา|สงขลา,11615262.17,1856221.287
ยางตลาด,กาฬสินธุ์,29.37,16.06,10.32,73.55,366,16.44317140999258,103.34924987543305,Unhealthy for Sensitive,#ff7e00,ยางตลาด|กาฬสินธุ์,11504785.87,1856102.01
ไทรงาม,กำแพงเพชร,26.33,17.05,7.6,70.26,366,16.44302695826532,99.8616263942856,Unhealthy for Sensitive,#ff7e00,ไทรงาม|กำแพงเพชร,11116545.4,1856085.244
เมืองกำแพงเพชร,กำแพงเพชร,26.04,19.99,5.29,82.97,366,16.425728815170093,99.5090165348595,Unhealthy for Sensitive,#ff7e00,เมืองกำแพงเพชร|กำแพงเพชร,11077293.05,1854077.6
วานรนิวาส,สกลนคร,23.32,13.07,8.8,59.74,366,16.412302548765805,103.07692622587291,Moderate,#ffff00,วานรนิวาส|สกลนคร,11474470.94,1852519.454
วัดเพลง,ราชบุรี,23.67,11.77,9.59,57.01,366,16.41085701302199,100.36701075778825,Moderate,#ffff00,วัดเพลง|ราชบุรี,11172804.53,1852351.703
ลี้,ลำพูน,26.54,18.06,8.03,75.79,366,16.38323075862378,101.1823961799922,Unhealthy for Sensitive,#ff7e00,ลี้|ลำพูน,11263572.82,1849145.981
แม่สรวย,เชียงราย,27.69,22.48,7.67,107.17,366,16.380214560351188,102.34651181757314,Unhealthy for Sensitive,#ff7e00,แม่สรวย|เชียงราย,11393161.58,1848796.012
บ้านคา,ราชบุรี,23.23,10.39,10.65,53.73,366,16.379195096516998,100.54081841592722,Moderate,#ffff00,บ้านคา|ราชบุรี,11192152.71,1848677.725
วังสมบูรณ์,สระแก้ว,21.18,9.49,9.98,50.05,366,16.375756319937555,104.10957620640036,Moderate,#ffff00,วังสมบูรณ์|สระแก้ว,11589425.01,1848278.733
ภูพาน,สกลนคร,22.64,12.42,8.0,57.34,366,16.352943172882846,104.55635780453363,Moderate,#ffff00,ภูพาน|สกลนคร,11639160.51,1845631.963
แม่สาย,เชียงราย,37.48,41.34,9.35,228.32,366,16.35099804895462,102.15687189154077,Unhealthy,#ff0000,แม่สาย|เชียงราย,11372050.96,1845406.305
ด่านซ้าย,เลย,25.66,15.72,8.83,70.36,366,16.3507966637607,100.80568074856899,Unhealthy for Sensitive,#ff7e00,ด่านซ้าย|เลย,11221637.05,1845382.942
คลองหาด,สระแก้ว,20.64,9.91,9.18,50.22,366,16.329773176371862,103.79820081514593,Moderate,#ffff00,คลองหาด|สระแก้ว,11554762.86,1842944.108
เมืองลพบุรี,ลพบุรี,26.39,13.04,9.69,67.96,366,16.31626302074081,100.18076808049734,Unhealthy for Sensitive,#ff7e00,เมืองลพบุรี|ลพบุรี,11152072.09,1841376.998
ทรายทองวัฒนา,กำแพงเพชร,26.04,16.2,8.0,66.57,366,16.313109447812145,99.87181400825973,Unhealthy for Sensitive,#ff7e00,ทรายทองวัฒนา|กำแพงเพชร,11117679.48,1841011.215
พระยืน,ขอนแก่น,26.23,12.59,10.9,54.93,366,16.311701982790527,102.66876410011923,Unhealthy for Sensitive,#ff7e00,พระยืน|ขอนแก่น,11429034.54,1840847.965
ตาพระยา,สระแก้ว,21.36,10.39,9.13,52.68,366,16.30483232198018,104.21652890547541,Moderate,#ffff00,ตาพระยา|สระแก้ว,11601330.93,1840051.179
เมืองสงขลา,สงขลา,16.38,2.15,12.31,23.67,366,16.29669371593998,104.8119157467886,Moderate,#ffff00,เมืองสงขลา|สงขลา,11667609.09,1839107.249
เชียงของ,เชียงราย,29.56,25.33,8.49,126.4,366,16.29419610927897,101.90298993611137,Unhealthy for Sensitive,#ff7e00,เชียงของ|เชียงราย,11343788.95,1838817.58
เมืองสระแก้ว,สระแก้ว,22.09,9.96,10.46,52.74,366,16.289487595000217,103.9636488410824,Moderate,#ffff00,เมืองสระแก้ว|สระแก้ว,11573180.45,1838271.503
ร่องคำ,กาฬสินธุ์,27.75,15.16,10.37,68.67,366,16.289375631285264,103.71517959456595,Unhealthy for Sensitive,#ff7e00,ร่องคำ|กาฬสินธุ์,11545520.98,1838258.518
กมลาไสย,กาฬสินธุ์,28.97,15.98,10.32,72.69,366,16.28862004483296,103.60604668429635,Unhealthy for Sensitive,#ff7e00,กมลาไสย|กาฬสินธุ์,11533372.36,1838170.889
นิคมน้ำอูน,สกลนคร,23.03,12.61,8.41,56.86,366,16.284881086813858,103.26721338806752,Moderate,#ffff00,นิคมน้ำอูน|สกลนคร,11495653.61,1837737.269
ฆ้องชัย,กาฬสินธุ์,28.84,15.76,10.41,71.67,366,16.26091878969361,103.47474092736341,Unhealthy for Sensitive,#ff7e00,ฆ้องชัย|กาฬสินธุ์,11518755.47,1834958.474
คลองลาน,กำแพงเพชร,25.81,16.38,7.91,67.82,366,16.249880952944007,99.23062000448414,Unhealthy for Sensitive,#ff7e00,คลองลาน|กำแพงเพชร,11046302.09,1833678.582
วาริชภูมิ,สกลนคร,23.62,12.91,8.94,57.72,366,16.24501272820203,102.99460973363333,Moderate,#ffff00,วาริชภูมิ|สกลนคร,11465307.51,1833114.11
คลองขลุง,กำแพงเพชร,25.89,16.48,7.77,67.62,366,16.22324943525315,99.68636400437552,Unhealthy for Sensitive,#ff7e00,คลองขลุง|กำแพงเพชร,11097035.28,1830590.821
บึงสามัคคี,กำแพงเพชร,25.82,15.31,8.47,63.45,366,16.22105619606079,99.96425873583318,Unhealthy for Sensitive,#ff7e00,บึงสามัคคี|กำแพงเพชร,11127970.38,1830336.547
มัญจาคีรี,ขอนแก่น,25.15,12.5,10.75,53.57,366,16.217911263351056,102.51937112426667,Unhealthy for Sensitive,#ff7e00,มัญจาคีรี|ขอนแก่น,11412404.19,1829971.943
พัฒนานิคม,ลพบุรี,25.86,10.97,11.4,60.37,366,16.209802162713633,100.41035896182345,Unhealthy for Sensitive,#ff7e00,พัฒนานิคม|ลพบุรี,11177630.03,1829031.851
บ้านแฮด,ขอนแก่น,25.97,12.55,10.93,54.46,366,16.2056933750184,102.76578951698947,Unhealthy for Sensitive,#ff7e00,บ้านแฮด|ขอนแก่น,11439835.36,1828555.532
ท่าแพ,สตูล,13.72,3.14,8.92,22.38,366,16.203433483284936,104.52265579985085,Moderate,#ffff00,ท่าแพ|สตูล,11635408.82,1828293.554
เทิง,เชียงราย,27.86,22.31,7.77,107.69,366,16.199405117049373,101.62337430206392,Unhealthy for Sensitive,#ff7e00,เทิง|เชียงราย,11312662.28,1827826.573
บ้านหมี่,ลพบุรี,25.6,12.13,10.15,59.38,366,16.193593976961314,100.59519361973803,Unhealthy for Sensitive,#ff7e00,บ้านหมี่|ลพบุรี,11198205.73,1827152.944
สระโบสถ์,ลพบุรี,25.05,11.43,10.77,57.37,366,16.19080950279522,100.13284538554083,Hazardous,#7e0023,สระโบสถ์|ลพบุรี,11146737.36,1826830.174
แก่งคอย,สระบุรี,24.67,10.43,11.4,59.81,366,16.165481088047567,103.60989273135378,Moderate,#ffff00,แก่งคอย|สระบุรี,11533800.5,1823894.37
หนองแค,สระบุรี,23.72,10.15,11.0,57.15,366,16.14974820698614,103.7439503873281,Moderate,#ffff00,หนองแค|สระบุรี,11548723.73,1822070.969
เวียงป่าเป้า,เชียงราย,27.51,20.76,7.87,95.82,366,16.132061140745044,102.21073730142784,Unhealthy for Sensitive,#ff7e00,เวียงป่าเป้า|เชียงราย,11378047.23,1820021.256
พรรณานิคม,สกลนคร,21.66,12.1,7.23,56.88,366,16.127980111513413,103.30837419438586,Moderate,#ffff00,พรรณานิคม|สกลนคร,11500235.61,1819548.341
ทุ่งหัวช้าง,ลำพูน,26.73,18.66,7.86,80.19,366,16.124741556973962,100.82903299336883,Unhealthy for Sensitive,#ff7e00,ทุ่งหัวช้าง|ลำพูน,11224236.61,1819173.06
ละงู,สตูล,14.44,3.3,9.55,23.18,366,16.085915068823265,104.43707878245603,Moderate,#ffff00,ละงู|สตูล,11625882.43,1814674.356
โคกโพธิ์ไชย,ขอนแก่น,24.4,12.39,9.94,55.77,366,16.076449953633904,102.3862428652853,Moderate,#ffff00,โคกโพธิ์ไชย|ขอนแก่น,11397584.42,1813577.796
ชัยบาดาล,ลพบุรี,24.77,11.12,10.86,56.7,366,16.062754958412206,100.24201090465525,Moderate,#ffff00,ชัยบาดาล|ลพบุรี,11158889.61,1811991.285
สิงหนคร,สงขลา,16.23,2.36,12.0,23.96,366,16.05644698520041,104.28728030708419,Moderate,#ffff00,สิงหนคร|สงขลา,11609206.94,1811260.568
วังน้ำเย็น,สระแก้ว,21.43,9.66,10.1,50.97,366,16.051573497750255,103.99630583559518,Moderate,#ffff00,วังน้ำเย็น|สระแก้ว,11576815.81,1810696.038
พังโคน,สกลนคร,22.94,12.68,8.34,57.19,366,16.051156570034866,103.39619044228942,Moderate,#ffff00,พังโคน|สกลนคร,11510011.27,1810647.743
บ้านไผ่,ขอนแก่น,25.12,12.43,10.76,54.22,366,16.048325245605895,102.77200828420686,Unhealthy for Sensitive,#ff7e00,บ้านไผ่|ขอนแก่น,11440527.63,1810319.778
โคกศรีสุพรรณ,สกลนคร,21.12,11.93,6.63,58.29,366,16.046210322341498,102.95671583050873,Moderate,#ffff00,โคกศรีสุพรรณ|สกลนคร,11461089.18,1810074.8
โคกสำโรง,ลพบุรี,25.59,11.51,10.89,60.08,366,16.03246873985772,100.42693359746768,Unhealthy for Sensitive,#ff7e00,โคกสำโรง|ลพบุรี,11179475.11,1808483.134
กระทุ่มแบน,สมุทรสาคร,25.46,10.25,11.54,56.18,366,16.030570012425805,103.77509066631515,Unhealthy for Sensitive,#ff7e00,กระทุ่มแบน|สมุทรสาคร,11552190.25,1808263.216
ปางศิลาทอง,กำแพงเพชร,25.55,14.99,8.72,62.89,366,16.027221557306333,99.31206558005577,Unhealthy for Sensitive,#ff7e00,ปางศิลาทอง|กำแพงเพชร,11055368.57,1807875.39
ชนบท,ขอนแก่น,24.64,12.32,10.3,53.7,366,16.02515056477176,102.557136119148,Moderate,#ffff00,ชนบท|ขอนแก่น,11416608.17,1807635.526
นาด้วง,เลย,25.36,17.39,6.77,92.46,366,16.021776167825216,101.1375530894927,Unhealthy for Sensitive,#ff7e00,นาด้วง|เลย,11258580.91,1807244.706
เมืองสมุทรสงคราม,สมุทรสงคราม,20.16,11.38,6.69,52.97,366,16.019213066175183,103.60979472515628,Moderate,#ffff00,เมืองสมุทรสงคราม|สมุทรสงคราม,11533789.59,1806947.854
เมืองสระบุรี,สระบุรี,23.2,10.45,10.38,59.68,366,16.01860516525,103.50636449997332,Moderate,#ffff00,เมืองสระบุรี|สระบุรี,11522275.79,1806877.449
ขาณุวรลักษบุรี,กำแพงเพชร,25.56,14.61,8.9,61.17,366,16.01581560111306,99.67127590086345,Unhealthy for Sensitive,#ff7e00,ขาณุวรลักษบุรี|กำแพงเพชร,11095355.68,1806554.374
โคกเจริญ,ลพบุรี,24.94,11.7,10.63,56.27,366,16.001402964687657,100.61582612518367,Moderate,#ffff00,โคกเจริญ|ลพบุรี,11200502.53,1804885.238
บางปะหัน,พระนครศรีอยุธยา,23.43,10.74,10.0,57.16,366,15.995372292475926,99.99008970199651,Moderate,#ffff00,บางปะหัน|พระนครศรีอยุธยา,11130845.87,1804186.858
หนองแซง,สระบุรี,24.44,10.48,11.2,59.41,366,15.994298422040918,103.8674582286057,Moderate,#ffff00,หนองแซง|สระบุรี,11562472.56,1804062.501
คำตากล้า,สกลนคร,23.18,13.33,8.59,62.14,366,15.993071162853099,103.12349363256028,Moderate,#ffff00,คำตากล้า|สกลนคร,11479654.8,1803920.382
บางกล่ำ,สงขลา,16.44,2.09,12.45,23.48,366,15.983574046877603,104.19612591958484,Moderate,#ffff00,บางกล่ำ|สงขลา,11599059.68,1802820.627
เวียงแก่น,เชียงราย,28.48,22.88,8.31,112.78,366,15.969933138504253,101.4063411497576,Unhealthy for Sensitive,#ff7e00,เวียงแก่น|เชียงราย,11288502.26,1801241.117
โนนศิลา,ขอนแก่น,24.67,12.3,10.38,54.19,366,15.966806577782942,102.68377647565286,Moderate,#ffff00,โนนศิลา|ขอนแก่น,11430705.71,1800879.101
เวียงชัย,เชียงราย,27.38,24.64,6.53,123.28,366,15.932637118602381,102.27182768148202,Unhealthy for Sensitive,#ff7e00,เวียงชัย|เชียงราย,11384847.78,1796923.08
แวงใหญ่,ขอนแก่น,24.21,12.24,9.85,55.62,366,15.928375466265198,102.45905949373228,Moderate,#ffff00,แวงใหญ่|ขอนแก่น,11405690.33,1796429.728
ทุ่งตะโก,ชุมพร,19.97,7.76,10.14,41.27,366,15.896980587389754,102.03589128065197,Moderate,#ffff00,ทุ่งตะโก|ชุมพร,11358583.46,1792795.609
เปือยน้อย,ขอนแก่น,24.59,12.32,10.28,55.19,366,15.893899164464019,102.86332311081594,Moderate,#ffff00,เปือยน้อย|ขอนแก่น,11450692.75,1792438.949
ผักไห่,พระนครศรีอยุธยา,23.53,10.66,10.16,54.08,366,15.880059316718492,100.09893164794558,Moderate,#ffff00,ผักไห่|พระนครศรีอยุธยา,11142962.1,1790837.12
สว่างแดนดิน,สกลนคร,23.9,13.29,9.23,61.07,366,15.867920158172765,103.34093893191896,Moderate,#ffff00,สว่างแดนดิน|สกลนคร,11503860.7,1789432.22
บางปะอิน,พระนครศรีอยุธยา,23.03,10.39,10.09,55.78,366,15.86525312620886,100.62348929354638,Moderate,#ffff00,บางปะอิน|พระนครศรีอยุธยา,11201355.59,1789123.568
เมืองสตูล,สตูล,13.32,3.15,8.51,22.29,366,15.848832758542283,104.39264783900889,Moderate,#ffff00,เมืองสตูล|สตูล,11620936.4,1787223.351
ควนเนียง,สงขลา,16.22,2.25,12.09,23.72,366,15.84804800755316,104.16845780883396,Moderate,#ffff00,ควนเนียง|สงขลา,11595979.68,1787132.541
บางบาล,พระนครศรีอยุธยา,23.0,10.7,9.55,56.36,366,15.847343526533441,100.29172951152778,Moderate,#ffff00,บางบาล|พระนครศรีอยุธยา,11164424.26,1787051.02
โคกสูง,สระแก้ว,19.94,10.55,7.87,50.7,366,15.842622677198273,103.86421908335423,Moderate,#ffff00,โคกสูง|สระแก้ว,11562111.98,1786504.741
มหาราช,พระนครศรีอยุธยา,24.45,10.93,10.61,58.36,366,15.83882829875708,99.40098001839418,Moderate,#ffff00,มหาราช|พระนครศรีอยุธยา,11065266.48,1786065.679
แม่จัน,เชียงราย,31.46,30.59,8.37,155.45,366,15.835617174408494,101.63261248661428,Unhealthy for Sensitive,#ff7e00,แม่จัน|เชียงราย,11313690.67,1785694.114
เชียงคาน,เลย,25.57,17.08,7.57,87.14,366,15.829736821052501,101.00377292310965,Unhealthy for Sensitive,#ff7e00,เชียงคาน|เลย,11243688.57,1785013.703
เมืองสมุทรสาคร,สมุทรสาคร,25.11,12.54,8.84,58.01,366,15.829182534793615,103.54846512374193,Unhealthy for Sensitive,#ff7e00,เมืองสมุทรสาคร|สมุทรสาคร,11526962.41,1784949.568
เมืองเชียงราย,เชียงราย,26.67,25.1,5.71,130.9,366,15.824790616975678,101.83663417085084,Unhealthy for Sensitive,#ff7e00,เมืองเชียงราย|เชียงราย,11336402.26,1784441.397
แวงน้อย,ขอนแก่น,23.95,12.16,9.61,56.96,366,15.808934985195107,102.41389004529007,Moderate,#ffff00,แวงน้อย|ขอนแก่น,11400662.09,1782606.898
พล,ขอนแก่น,24.14,12.09,9.96,54.17,366,15.808631438464625,102.59117373442092,Moderate,#ffff00,พล|ขอนแก่น,11420397.22,1782571.779
บ้านม่วง,สกลนคร,23.34,13.64,8.46,64.22,366,15.806579480357854,103.04174146198216,Moderate,#ffff00,บ้านม่วง|สกลนคร,11470554.19,1782334.378
แม่จริม,น่าน,28.68,18.62,9.56,90.47,366,15.799072815607106,98.87703439499643,Unhealthy for Sensitive,#ff7e00,แม่จริม|น่าน,11006941.12,1781465.916
อรัญประเทศ,สระแก้ว,17.68,11.34,5.5,53.75,366,15.78829191490389,103.75102183541314,Moderate,#ffff00,อรัญประเทศ|สระแก้ว,11549510.92,1780218.707
บางซ้าย,พระนครศรีอยุธยา,23.36,10.4,10.37,53.39,366,15.77237416391028,99.79556536626977,Moderate,#ffff00,บางซ้าย|พระนครศรีอยุธยา,11109191.52,1778377.353
หนองสองห้อง,ขอนแก่น,24.13,12.11,9.96,55.23,366,15.7639104888837,102.78937173050207,Moderate,#ffff00,หนองสองห้อง|ขอนแก่น,11442460.52,1777398.34
ส่องดาว,สกลนคร,24.01,13.19,9.31,59.89,366,15.727434852774136,103.23805003152621,Moderate,#ffff00,ส่องดาว|สกลนคร,11492407.16,1773179.585
นครหลวง,พระนครศรีอยุธยา,23.62,10.69,10.28,57.57,366,15.715774537453504,100.10182997237827,Moderate,#ffff00,นครหลวง|พระนครศรีอยุธยา,11143284.74,1771831.118
ธัญบุรี,ปทุมธานี,23.16,9.86,10.63,53.91,366,15.702219237844258,102.24674887470609,Moderate,#ffff00,ธัญบุรี|ปทุมธานี,11382056.02,1770263.601
บ้านแหลม,เพชรบุรี,22.73,10.23,10.23,53.32,366,15.695829324538124,102.93818466417568,Moderate,#ffff00,บ้านแหลม|เพชรบุรี,11459026.3,1769524.716
บ้านแพ้ว,สมุทรสาคร,23.74,10.52,10.33,54.36,366,15.694502429346441,104.0730855615811,Moderate,#ffff00,บ้านแพ้ว|สมุทรสาคร,11585362.89,1769371.286
บ้านแพรก,พระนครศรีอยุธยา,25.13,11.34,10.74,60.4,366,15.689663275018152,99.38952838498373,Unhealthy for Sensitive,#ff7e00,บ้านแพรก|พระนครศรีอยุธยา,11063991.69,1768811.739
เมืองพะเยา,พะเยา,28.68,22.93,6.67,108.89,366,15.67897458015371,99.55457279786305,Unhealthy for Sensitive,#ff7e00,เมืองพะเยา|พะเยา,11082364.35,1767575.862
ทับสะแก,ประจวบคีรีขันธ์,22.02,9.43,10.36,49.85,366,15.670570324354717,102.51279707335442,Moderate,#ffff00,ทับสะแก|ประจวบคีรีขันธ์,11411672.37,1766604.168
เวียงหนองล่อง,ลำพูน,26.98,19.23,8.12,90.16,366,15.659652917603976,101.0980883922623,Unhealthy for Sensitive,#ff7e00,เวียงหนองล่อง|ลำพูน,11254187.72,1765341.965
ลาดบัวหลวง,พระนครศรีอยุธยา,23.33,10.1,10.59,53.87,366,15.65611838789714,100.45406882759201,Moderate,#ffff00,ลาดบัวหลวง|พระนครศรีอยุธยา,11182495.79,1764933.339
เต่างอย,สกลนคร,21.22,11.9,6.79,57.95,366,15.654135327233075,103.09453608005056,Moderate,#ffff00,เต่างอย|สกลนคร,11476431.26,1764704.081
คลองหอยโข่ง,สงขลา,15.72,2.34,11.67,23.24,366,15.649269127402652,104.33529867261846,Moderate,#ffff00,คลองหอยโข่ง|สงขลา,11614552.32,1764141.518
อัมพวา,สมุทรสงคราม,22.24,10.99,9.25,54.34,366,15.62424059357363,103.38263944606001,Moderate,#ffff00,อัมพวา|สมุทรสงคราม,11508502.78,1761248.275
แม่ฟ้าหลวง,เชียงราย,31.44,29.98,8.62,151.86,366,15.614292433909428,101.63883323012529,Unhealthy for Sensitive,#ff7e00,แม่ฟ้าหลวง|เชียงราย,11314383.16,1760098.388
วัฒนานคร,สระแก้ว,20.45,10.36,8.57,51.02,366,15.608058292025314,103.80352737562313,Moderate,#ffff00,วัฒนานคร|สระแก้ว,11555355.81,1759377.825
บางคนที,สมุทรสงคราม,22.0,11.2,8.86,54.5,366,15.603822374832534,103.5628687110075,Moderate,#ffff00,บางคนที|สมุทรสงคราม,11528565.81,1758888.236
เชียงแสน,เชียงราย,32.02,30.5,9.0,156.63,366,15.597567036642202,101.47450333722294,Unhealthy for Sensitive,#ff7e00,เชียงแสน|เชียงราย,11296090.04,1758165.26
พลับพลาชัย,บุรีรัมย์,20.42,12.18,6.53,63.05,366,15.58920477857186,102.37949382255572,Moderate,#ffff00,พลับพลาชัย|บุรีรัมย์,11396833.12,1757198.806
วังน้อย,พระนครศรีอยุธยา,23.27,10.15,10.63,55.38,366,15.58693254324239,100.67948622593963,Moderate,#ffff00,วังน้อย|พระนครศรีอยุธยา,11207589.14,1756936.203
บางไทร,พระนครศรีอยุธยา,23.17,10.25,10.31,54.97,366,15.58680836705455,100.0178495307379,Moderate,#ffff00,บางไทร|พระนครศรีอยุธยา,11133936.08,1756921.852
วิหารแดง,สระบุรี,23.36,9.84,10.9,56.07,366,15.58153987371418,104.00924993001864,Moderate,#ffff00,วิหารแดง|สระบุรี,11578256.74,1756312.982
พาน,เชียงราย,27.68,22.29,7.47,106.2,366,15.577897320392957,101.84115476285513,Unhealthy for Sensitive,#ff7e00,พาน|เชียงราย,11336905.49,1755892.028
วิเชียรบุรี,เพชรบูรณ์,24.74,12.02,10.45,54.5,366,15.57416495889692,102.84853163101069,Moderate,#ffff00,วิเชียรบุรี|เพชรบูรณ์,11449046.17,1755460.703
บ้านกรวด,บุรีรัมย์,21.74,11.16,8.59,57.67,366,15.573583705585271,102.14440192792426,Moderate,#ffff00,บ้านกรวด|บุรีรัมย์,11370662.81,1755393.532
ห้วยราช,บุรีรัมย์,19.77,12.54,5.64,64.32,366,15.566734586596047,102.69930619095861,Moderate,#ffff00,ห้วยราช|บุรีรัมย์,11432434.47,1754602.046
บางสะพาน,ประจวบคีรีขันธ์,21.9,9.32,10.36,49.06,366,15.563599124782046,102.55013994988373,Moderate,#ffff00,บางสะพาน|ประจวบคีรีขันธ์,11415829.36,1754239.72
ขุนตาล,เชียงราย,28.22,23.1,7.92,113.0,366,15.557133748688697,101.99214027204337,Unhealthy for Sensitive,#ff7e00,ขุนตาล|เชียงราย,11353713.12,1753492.615
หนองหญ้าปล้อง,เพชรบุรี,23.05,10.24,10.62,53.38,366,15.532420356059474,102.9972806944676,Moderate,#ffff00,หนองหญ้าปล้อง|เพชรบุรี,11465604.84,1750637.081
อากาศอำนวย,สกลนคร,22.97,12.88,8.33,59.05,366,15.527905384206635,103.23650591738435,Moderate,#ffff00,อากาศอำนวย|สกลนคร,11492235.27,1750115.431
ควนโดน,สตูล,13.52,3.05,8.82,22.13,366,15.513565718286001,104.25592101883086,Moderate,#ffff00,ควนโดน|สตูล,11605716.04,1748458.733
เสนา,พระนครศรีอยุธยา,23.29,10.34,10.43,54.48,366,15.504633176863539,100.21014245129888,Moderate,#ffff00,เสนา|พระนครศรีอยุธยา,11155342.03,1747426.792
เขาฉกรรจ์,สระแก้ว,21.78,9.71,10.37,51.74,366,15.494046880049185,103.93667485855157,Moderate,#ffff00,เขาฉกรรจ์|สระแก้ว,11570177.72,1746203.857
บ้านไร่,อุทัยธานี,24.76,12.16,10.18,54.4,366,15.484376171322078,104.09258735757864,Moderate,#ffff00,บ้านไร่|อุทัยธานี,11587533.82,1745086.746
ป่าแดด,เชียงราย,27.86,21.94,7.62,103.84,366,15.467561533047778,101.65184047611321,Unhealthy for Sensitive,#ff7e00,ป่าแดด|เชียงราย,11315831.12,1743144.529
หนองเสือ,ปทุมธานี,23.19,9.81,10.82,54.29,366,15.448828519725092,102.5354385711015,Moderate,#ffff00,หนองเสือ|ปทุมธานี,11414192.81,1740980.911
เมืองเลย,เลย,25.61,20.35,3.67,117.16,366,15.4418321476462,101.13719888377616,Unhealthy for Sensitive,#ff7e00,เมืองเลย|เลย,11258541.48,1740172.897
สามโคก,ปทุมธานี,23.16,10.29,10.25,55.24,366,15.439798229168256,102.88605668587962,Moderate,#ffff00,สามโคก|ปทุมธานี,11453223.44,1739938.004
ประโคนชัย,บุรีรัมย์,21.23,11.62,7.7,60.12,366,15.434461653831454,102.29446567579949,Moderate,#ffff00,ประโคนชัย|บุรีรัมย์,11387367.83,1739321.705
สังคม,หนองคาย,25.45,15.46,8.65,71.89,366,15.416078630491436,100.84657215013364,Unhealthy for Sensitive,#ff7e00,สังคม|หนองคาย,11226189.06,1737198.847
สระใคร,หนองคาย,24.9,15.0,7.69,70.99,366,15.401984202131823,101.35108236303333,Moderate,#ffff00,สระใคร|หนองคาย,11282350.88,1735571.36
หนองหงส์,บุรีรัมย์,22.48,11.22,9.26,57.26,366,15.382242878071361,102.1697703515478,Moderate,#ffff00,หนองหงส์|บุรีรัมย์,11373486.81,1733292.01
อุทัย,พระนครศรีอยุธยา,23.26,10.48,10.2,56.69,366,15.380694438525381,100.47626017955021,Moderate,#ffff00,อุทัย|พระนครศรีอยุธยา,11184966.12,1733113.235
ควนกาหลง,สตูล,14.37,2.99,9.7,22.49,366,15.379902480112046,104.34380967094633,Moderate,#ffff00,ควนกาหลง|สตูล,11615499.76,1733021.8
เมืองประจวบคีรีขันธ์,ประจวบคีรีขันธ์,22.07,9.53,10.29,50.71,366,15.354830553463728,101.98531074026432,Moderate,#ffff00,เมืองประจวบคีรีขันธ์|ประจวบคีรีขันธ์,11352952.86,1730127.318
ตรอน,อุตรดิตถ์,26.95,17.7,7.82,77.89,366,15.345525415132462,104.18203593418497,Unhealthy for Sensitive,#ff7e00,ตรอน|อุตรดิตถ์,11597491.19,1729053.155
เมืองชุมพร,ชุมพร,20.9,8.51,10.25,44.76,366,15.321949008327358,100.16636152879133,Moderate,#ffff00,เมืองชุมพร|ชุมพร,11150468.36,1726331.765
บึงสามพัน,เพชรบูรณ์,24.93,12.58,10.22,53.89,366,15.311538716671278,103.1271831930952,Moderate,#ffff00,บึงสามพัน|เพชรบูรณ์,11480065.52,1725130.218
น้ำปาด,อุตรดิตถ์,26.38,16.94,8.45,71.89,366,15.304953580030563,104.05889316823882,Unhealthy for Sensitive,#ff7e00,น้ำปาด|อุตรดิตถ์,11583783.0,1724370.198
กุยบุรี,ประจวบคีรีขันธ์,22.06,9.63,10.15,51.43,366,15.286909918761882,102.90500934174398,Moderate,#ffff00,กุยบุรี|ประจวบคีรีขันธ์,11455333.24,1722287.821
เฝ้าไร่,หนองคาย,23.83,13.99,8.34,66.3,366,15.285898024972813,100.70029525033861,Moderate,#ffff00,เฝ้าไร่|หนองคาย,11209905.59,1722171.046
ลำลูกกา,ปทุมธานี,23.14,9.69,10.76,53.2,366,15.285679606050172,101.50599045574121,Moderate,#ffff00,ลำลูกกา|ปทุมธานี,11299595.17,1722145.84
บางกระทุ่ม,พิษณุโลก,26.38,16.7,7.36,66.22,366,15.27152169944343,103.03787484350474,Unhealthy for Sensitive,#ff7e00,บางกระทุ่ม|พิษณุโลก,11470123.76,1720512.044
โนนดินแดง,บุรีรัมย์,21.95,10.46,9.59,53.79,366,15.265166051999998,102.75295375938929,Moderate,#ffff00,โนนดินแดง|บุรีรัมย์,11438406.49,1719778.65
ภาชี,พระนครศรีอยุธยา,23.94,10.48,10.76,57.77,366,15.260280083397962,100.38739568754161,Moderate,#ffff00,ภาชี|พระนครศรีอยุธยา,11175073.77,1719214.861
ชำนิ,บุรีรัมย์,21.47,11.53,7.97,59.27,366,15.251586881069244,102.54181095023245,Moderate,#ffff00,ชำนิ|บุรีรัมย์,11414902.18,1718211.79
สร้างคอม,อุดรธานี,24.93,14.74,8.16,68.53,366,15.239441174868443,104.38916192654885,Moderate,#ffff00,สร้างคอม|อุดรธานี,11620548.35,1716810.419
พะโต๊ะ,ชุมพร,19.27,7.21,10.07,38.59,366,15.236291041651578,99.82493794044075,Moderate,#ffff00,พะโต๊ะ|ชุมพร,11112461.26,1716446.97
หนองขาหย่าง,อุทัยธานี,28.84,16.13,9.7,79.86,366,15.235194405043512,104.06635385633648,Unhealthy for Sensitive,#ff7e00,หนองขาหย่าง|อุทัยธานี,11584613.52,1716320.446
ศรีเชียงใหม่,หนองคาย,26.06,16.03,7.66,77.15,366,15.23139946122934,100.87338533422863,Unhealthy for Sensitive,#ff7e00,ศรีเชียงใหม่|หนองคาย,11229173.89,1715882.611
ท่ายาง,เพชรบุรี,22.32,9.91,9.99,52.98,366,15.22488938725557,103.32395232888544,Moderate,#ffff00,ท่ายาง|เพชรบุรี,11501969.76,1715131.541
สตึก,บุรีรัมย์,21.47,12.33,7.33,62.4,366,15.222592182016871,101.70085201902562,Moderate,#ffff00,สตึก|บุรีรัมย์,11321287.06,1714866.517
ท่าแซะ,ชุมพร,21.42,8.93,10.31,46.76,366,15.212709200078674,99.97274377284934,Moderate,#ffff00,ท่าแซะ|ชุมพร,11128914.93,1713726.37
นาโพธิ์,บุรีรัมย์,23.9,12.13,9.72,56.23,366,15.212364718852447,102.27569421012792,Moderate,#ffff00,นาโพธิ์|บุรีรัมย์,11385278.2,1713686.63
โนนนารายณ์,สุรินทร์,22.17,13.08,7.28,61.67,366,15.199789312376396,101.13421018882589,Moderate,#ffff00,โนนนารายณ์|สุรินทร์,11258208.78,1712235.952
สังขละบุรี,กาญจนบุรี,24.37,12.05,10.1,53.16,366,15.198689590278526,98.5256732836468,Moderate,#ffff00,สังขละบุรี|กาญจนบุรี,10967827.78,1712109.094
ปะคำ,บุรีรัมย์,22.3,10.64,9.7,54.96,366,15.191250317046169,102.02422279393194,Moderate,#ffff00,ปะคำ|บุรีรัมย์,11357284.53,1711250.957
ซับใหญ่,ชัยภูมิ,24.14,11.77,10.07,53.38,366,15.190771418450199,100.13134789396221,Moderate,#ffff00,ซับใหญ่|ชัยภูมิ,11146570.66,1711195.716
ทัพทัน,อุทัยธานี,26.49,13.9,9.91,63.13,366,15.184852651498861,104.0220950300978,Unhealthy for Sensitive,#ff7e00,ทัพทัน|อุทัยธานี,11579686.65,1710512.996
ปะทิว,ชุมพร,21.45,8.95,10.31,47.05,366,15.149797324380778,100.25458938475808,Moderate,#ffff00,ปะทิว|ชุมพร,11160289.84,1706469.814
ท่าปลา,อุตรดิตถ์,26.66,17.72,8.13,74.83,366,15.127286217413697,104.16053107476688,Unhealthy for Sensitive,#ff7e00,ท่าปลา|อุตรดิตถ์,11595097.28,1703873.8
หนองแสง,อุดรธานี,23.59,13.32,8.74,66.69,366,15.12591981203362,104.57087448969348,Moderate,#ffff00,หนองแสง|อุดรธานี,11640776.5,1703716.233
หนองไผ่,เพชรบูรณ์,25.09,13.19,9.96,53.91,366,15.121408765495067,103.18900848488335,Hazardous,#7e0023,หนองไผ่|เพชรบูรณ์,11486947.88,1703196.049
เพ็ญ,อุดรธานี,24.47,14.5,7.88,69.79,366,15.08759817695312,104.3470956184241,Moderate,#ffff00,เพ็ญ|อุดรธานี,11615865.55,1699297.588
ท่าบ่อ,หนองคาย,26.12,16.16,7.36,78.12,366,15.061794344340589,100.54959980715559,Unhealthy for Sensitive,#ff7e00,ท่าบ่อ|หนองคาย,11193130.25,1696322.747
เขวาสินรินทร์,สุรินทร์,20.65,13.3,5.93,68.82,366,15.055269180923958,100.76783059339871,Moderate,#ffff00,เขวาสินรินทร์|สุรินทร์,11217423.59,1695570.539
โพนพิสัย,หนองคาย,24.74,14.56,8.28,68.93,366,15.054462751475914,101.19358388837215,Moderate,#ffff00,โพนพิสัย|หนองคาย,11264818.23,1695477.577
ละแม,ชุมพร,18.69,6.76,9.98,36.54,366,15.051146887479089,99.96168865580532,Moderate,#ffff00,ละแม|ชุมพร,11127684.28,1695095.341
บ้านใหม่ไชยพจน์,บุรีรัมย์,23.54,11.93,9.54,56.27,366,15.043083731054947,102.63475900385959,Moderate,#ffff00,บ้านใหม่ไชยพจน์|บุรีรัมย์,11425249.11,1694165.886
แคนดง,บุรีรัมย์,21.94,12.06,7.89,60.11,366,15.029120434179822,101.93004943825726,Moderate,#ffff00,แคนดง|บุรีรัมย์,11346801.2,1692556.394
ฟากท่า,อุตรดิตถ์,26.52,17.15,8.74,74.32,366,15.020624569169136,104.03593636182704,Unhealthy for Sensitive,#ff7e00,ฟากท่า|อุตรดิตถ์,11581227.46,1691577.162
หลังสวน,ชุมพร,19.44,7.34,10.08,39.31,366,15.020317855830509,100.17408425545739,Moderate,#ffff00,หลังสวน|ชุมพร,11151328.05,1691541.811
ชะอำ,เพชรบุรี,21.85,10.01,9.26,53.37,366,15.015707185737945,102.86908508471133,Moderate,#ffff00,ชะอำ|เพชรบุรี,11451334.17,1691010.403
ชนแดน,เพชรบูรณ์,25.37,13.76,9.52,56.5,366,15.002391318165305,103.22535405178424,Unhealthy for Sensitive,#ff7e00,ชนแดน|เพชรบูรณ์,11490993.85,1689475.732
สวี,ชุมพร,20.41,8.11,10.2,42.89,366,14.989101070210541,99.84062557957344,Moderate,#ffff00,สวี|ชุมพร,11114207.6,1687944.109
บางสะพานน้อย,ประจวบคีรีขันธ์,21.73,9.18,10.34,48.2,366,14.980011367993626,102.29082830738254,Moderate,#ffff00,บางสะพานน้อย|ประจวบคีรีขันธ์,11386962.92,1686896.629
นางรอง,บุรีรัมย์,22.13,11.07,9.05,57.07,366,14.970068042506036,102.09246223651175,Moderate,#ffff00,นางรอง|บุรีรัมย์,11364880.91,1685750.83
ทองแสนขัน,อุตรดิตถ์,26.7,17.34,8.05,73.67,366,14.963322939782381,104.21237231082426,Unhealthy for Sensitive,#ff7e00,ทองแสนขัน|อุตรดิตถ์,11600868.22,1684973.602
พุทไธสง,บุรีรัมย์,23.27,12.01,9.18,57.33,366,14.951459082785572,102.4396795991188,Moderate,#ffff00,พุทไธสง|บุรีรัมย์,11403532.97,1683606.607
เฉลิมพระเกียรติ,บุรีรัมย์,21.81,11.18,8.62,57.74,366,14.94455694167322,101.60021618319696,Moderate,#ffff00,เฉลิมพระเกียรติ|บุรีรัมย์,11310084.33,1682811.353
พรหมพิราม,พิษณุโลก,27.83,19.22,7.16,87.18,366,14.944272572732658,103.31683892947662,Unhealthy for Sensitive,#ff7e00,พรหมพิราม|พิษณุโลก,11501177.9,1682778.589
บางระกำ,พิษณุโลก,27.4,18.42,7.12,81.51,366,14.942054596636405,103.05910832187548,Unhealthy for Sensitive,#ff7e00,บางระกำ|พิษณุโลก,11472487.46,1682523.043
ลับแล,อุตรดิตถ์,26.9,17.63,7.54,80.82,366,14.919701514929477,104.5280243116518,Unhealthy for Sensitive,#ff7e00,ลับแล|อุตรดิตถ์,11636006.44,1679947.761
ศรีณรงค์,สุรินทร์,21.55,12.64,7.24,62.56,366,14.913287651632128,101.02067095225617,Moderate,#ffff00,ศรีณรงค์|สุรินทร์,11245569.65,1679208.874
หนองฉาง,อุทัยธานี,26.41,13.68,10.12,61.81,366,14.907809735441038,104.37996398652322,Unhealthy for Sensitive,#ff7e00,หนองฉาง|อุทัยธานี,11619524.44,1678577.827
บ้านโคก,อุตรดิตถ์,26.64,17.11,9.04,76.06,366,14.90654711964439,104.69367652465235,Unhealthy for Sensitive,#ff7e00,บ้านโคก|อุตรดิตถ์,11654446.76,1678432.378
แก่งกระจาน,เพชรบุรี,22.73,9.99,10.48,52.76,366,14.868882454175099,102.65936547645913,Moderate,#ffff00,แก่งกระจาน|เพชรบุรี,11427988.29,1674093.93
บ้านด่าน,บุรีรัมย์,20.43,12.33,6.34,62.98,366,14.859466579679925,101.82825594352198,Moderate,#ffff00,บ้านด่าน|บุรีรัมย์,11335469.6,1673009.47
ประจักษ์ศิลปาคม,อุดรธานี,23.4,13.34,8.5,67.47,366,14.853865577992643,104.03358807584283,Moderate,#ffff00,ประจักษ์ศิลปาคม|อุดรธานี,11580966.05,1672364.405
ทองผาภูมิ,กาญจนบุรี,24.07,11.39,10.33,53.01,366,14.83243423815193,98.6900960623495,Moderate,#ffff00,ทองผาภูมิ|กาญจนบุรี,10986131.24,1669896.321
เมืองหนองคาย,หนองคาย,26.95,17.23,6.31,85.99,366,14.828999568294082,100.50678789734502,Unhealthy for Sensitive,#ff7e00,เมืองหนองคาย|หนองคาย,11188364.45,1669500.799
พนมดงรัก,สุรินทร์,21.57,11.53,8.16,59.58,366,14.82639197658083,100.68271836433189,Moderate,#ffff00,พนมดงรัก|สุรินทร์,11207948.94,1669200.524
พิชัย,อุตรดิตถ์,27.35,18.47,7.66,80.98,366,14.79949304961253,104.48316163787912,Unhealthy for Sensitive,#ff7e00,พิชัย|อุตรดิตถ์,11631012.35,1666103.212
หล่มเก่า,เพชรบูรณ์,25.55,15.05,9.04,64.18,366,14.788079516644226,102.82884837532575,Unhealthy for Sensitive,#ff7e00,หล่มเก่า|เพชรบูรณ์,11446855.04,1664789.102
สว่างอารมณ์,อุทัยธานี,25.78,13.43,9.82,58.72,366,14.787767998708993,104.7127998604207,Unhealthy for Sensitive,#ff7e00,สว่างอารมณ์|อุทัยธานี,11656575.56,1664753.236
กู่แก้ว,อุดรธานี,24.26,13.31,9.42,62.01,366,14.77005923331357,104.34521517503987,Moderate,#ffff00,กู่แก้ว|อุดรธานี,11615656.22,1662714.457
ลำปลายมาศ,บุรีรัมย์,21.08,11.87,7.28,60.51,366,14.759810219626553,102.20378685641155,Moderate,#ffff00,ลำปลายมาศ|บุรีรัมย์,11377273.51,1661534.582
เมืองเพชรบูรณ์,เพชรบูรณ์,26.15,15.75,7.99,70.33,366,14.729904254126833,103.16830321589968,Unhealthy for Sensitive,#ff7e00,เมืองเพชรบูรณ์|เพชรบูรณ์,11484642.98,1658092.1
พิบูลย์รักษ์,อุดรธานี,23.75,13.71,8.26,67.9,366,14.725956634621863,104.18826179809308,Moderate,#ffff00,พิบูลย์รักษ์|อุดรธานี,11598184.25,1657637.724
วังทอง,พิษณุโลก,26.47,16.5,7.88,69.74,366,14.7255411441536,102.55647873202308,Unhealthy for Sensitive,#ff7e00,วังทอง|พิษณุโลก,11416534.99,1657589.901
คลองหลวง,ปทุมธานี,23.2,10.28,10.28,55.68,366,14.717362876361928,102.37389291659076,Moderate,#ffff00,คลองหลวง|ปทุมธานี,11396209.63,1656648.6
หนองปรือ,กาญจนบุรี,23.95,11.03,10.4,53.76,366,14.674819796672882,99.41589304025736,Moderate,#ffff00,หนองปรือ|กาญจนบุรี,11066926.59,1651752.552
ศรีสวัสดิ์,กาญจนบุรี,23.94,11.07,10.43,53.58,366,14.668093379146333,99.12180375035219,Moderate,#ffff00,ศรีสวัสดิ์|กาญจนบุรี,11034188.72,1650978.533
โนนสุวรรณ,บุรีรัมย์,22.64,10.73,9.95,55.37,366,14.663955936016459,101.93784286233617,Moderate,#ffff00,โนนสุวรรณ|บุรีรัมย์,11347668.76,1650502.443
เมืองยะลา,ยะลา,15.64,2.92,8.36,23.97,366,14.64420425810586,100.54725466527486,Moderate,#ffff00,เมืองยะลา|ยะลา,11192869.19,1648229.768
วัดโบสถ์,พิษณุโลก,26.96,17.57,7.71,76.32,366,14.63500555284089,102.76100329315568,Unhealthy for Sensitive,#ff7e00,วัดโบสถ์|พิษณุโลก,11439302.56,1647171.413
เมืองปทุมธานี,ปทุมธานี,22.87,10.31,9.92,54.18,366,14.6193484455473,101.45725882787136,Moderate,#ffff00,เมืองปทุมธานี|ปทุมธานี,11294170.39,1645370.09
เมืองเพชรบุรี,เพชรบุรี,22.76,10.06,10.4,53.09,366,14.609392625659762,103.06121999161384,Moderate,#ffff00,เมืองเพชรบุรี|เพชรบุรี,11472722.53,1644224.757
เลาขวัญ,กาญจนบุรี,23.78,10.92,10.19,53.17,366,14.598385147696138,99.68957386454873,Moderate,#ffff00,เลาขวัญ|กาญจนบุรี,11097392.6,1642958.5
ไทยเจริญ,ยโสธร,24.21,14.29,6.92,65.7,366,14.574079524733952,100.53701360154132,Moderate,#ffff00,ไทยเจริญ|ยโสธร,11191729.16,1640162.701
นายูง,อุดรธานี,25.39,15.62,8.64,74.31,366,14.571242820667777,104.67002783580874,Unhealthy for Sensitive,#ff7e00,นายูง|อุดรธานี,11651814.2,1639836.424
น้ำหนาว,เพชรบูรณ์,25.25,14.51,9.39,62.82,366,14.563163634388554,102.89251620159314,Unhealthy for Sensitive,#ff7e00,น้ำหนาว|เพชรบูรณ์,11453942.51,1638907.181
หล่มสัก,เพชรบูรณ์,25.54,14.62,9.13,59.67,366,14.558934520635377,102.57302938264922,Unhealthy for Sensitive,#ff7e00,หล่มสัก|เพชรบูรณ์,11418377.4,1638420.775
ปาย,แม่ฮ่องสอน,27.62,24.61,7.36,104.15,366,14.538189956393984,100.7075359410232,Unhealthy for Sensitive,#ff7e00,ปาย|แม่ฮ่องสอน,11210711.62,1636035.001
เมืองอุตรดิตถ์,อุตรดิตถ์,26.88,17.59,7.6,80.33,366,14.537400271596372,104.40560594715079,Unhealthy for Sensitive,#ff7e00,เมืองอุตรดิตถ์|อุตรดิตถ์,11622378.89,1635944.186
เมืองอุทัยธานี,อุทัยธานี,29.81,17.19,9.5,87.33,366,14.488789042442605,104.146314606575,Unhealthy for Sensitive,#ff7e00,เมืองอุทัยธานี|อุทัยธานี,11593514.71,1630354.442
เมืองยโสธร,ยโสธร,25.56,16.39,4.8,79.72,366,14.474097192242525,100.54640944042404,Unhealthy for Sensitive,#ff7e00,เมืองยโสธร|ยโสธร,11192775.1,1628665.286
แม่สะเรียง,แม่ฮ่องสอน,26.47,18.68,8.31,78.79,366,14.468287212096326,100.62544860901258,Unhealthy for Sensitive,#ff7e00,แม่สะเรียง|แม่ฮ่องสอน,11201573.7,1627997.33
ทรายมูล,ยโสธร,24.94,15.04,6.73,71.03,366,14.452474200910448,100.34138748211862,Moderate,#ffff00,ทรายมูล|ยโสธร,11169952.16,1626179.444
กุดชุม,ยโสธร,24.59,14.46,7.19,66.77,366,14.439356127763883,100.72602111361371,Moderate,#ffff00,กุดชุม|ยโสธร,11212769.38,1624671.47
ลาดหลุมแก้ว,ปทุมธานี,23.23,9.99,10.5,53.57,366,14.432849590599647,101.87085028137072,Moderate,#ffff00,ลาดหลุมแก้ว|ปทุมธานี,11340211.18,1623923.551
บ้านลาด,เพชรบุรี,22.78,10.09,10.43,53.18,366,14.404749311521945,102.66711335595313,Moderate,#ffff00,บ้านลาด|เพชรบุรี,11428850.78,1620693.707
บ่อพลอย,กาญจนบุรี,23.63,10.84,10.41,53.91,366,14.403671356172717,99.44081688764679,Moderate,#ffff00,บ่อพลอย|กาญจนบุรี,11069701.1,1620569.815
เขาย้อย,เพชรบุรี,22.97,10.55,10.31,54.13,366,14.394194822855978,103.10973494583718,Moderate,#ffff00,เขาย้อย|เพชรบุรี,11478123.19,1619480.68
สบเมย,แม่ฮ่องสอน,26.26,17.58,8.43,73.75,366,14.385675009571157,100.465798848909,Unhealthy for Sensitive,#ff7e00,สบเมย|แม่ฮ่องสอน,11183801.57,1618501.54
หนองกี่,บุรีรัมย์,22.91,10.9,10.06,55.91,366,14.38041896133002,102.21357310311674,Moderate,#ffff00,หนองกี่|บุรีรัมย์,11378362.91,1617897.507
เลิงนกทา,ยโสธร,24.54,14.04,7.72,64.4,366,14.356757656745708,100.69626244353361,Moderate,#ffff00,เลิงนกทา|ยโสธร,11209456.66,1615178.49
ละหานทราย,บุรีรัมย์,21.96,10.75,9.22,55.42,366,14.355514580590446,102.48114322751942,Moderate,#ffff00,ละหานทราย|บุรีรัมย์,11408148.68,1615035.651
ขุนยวม,แม่ฮ่องสอน,27.29,23.99,7.36,100.29,366,14.35220402849554,100.56009572293526,Unhealthy for Sensitive,#ff7e00,ขุนยวม|แม่ฮ่องสอน,11194298.65,1614655.247
ห้วยกระเจา,กาญจนบุรี,23.54,10.74,10.31,53.43,366,14.341067546947047,99.67478858311897,Moderate,#ffff00,ห้วยกระเจา|กาญจนบุรี,11095746.71,1613375.634
เนินมะปราง,พิษณุโลก,25.95,15.38,8.48,62.71,366,14.333637011648896,102.8849996382848,Unhealthy for Sensitive,#ff7e00,เนินมะปราง|พิษณุโลก,11453105.77,1612521.88
ค้อวัง,ยโสธร,22.55,14.15,6.74,63.25,366,14.313291298360596,100.29543928415661,Moderate,#ffff00,ค้อวัง|ยโสธร,11164837.23,1610184.342
มหาชนะชัย,ยโสธร,23.78,14.41,6.85,66.31,366,14.295169134471436,100.37586356508173,Moderate,#ffff00,มหาชนะชัย|ยโสธร,11173790.02,1608102.448
นาน้อย,น่าน,27.27,17.98,9.08,81.43,366,14.278702782718684,101.231374305576,Unhealthy for Sensitive,#ff7e00,นาน้อย|น่าน,11269025.04,1606210.921
ท่าวังผา,น่าน,28.65,19.64,9.46,98.23,366,14.26949571795962,101.06340937987649,Unhealthy for Sensitive,#ff7e00,ท่าวังผา|น่าน,11250327.27,1605153.345
ไทรโยค,กาญจนบุรี,23.64,10.77,10.53,53.47,366,14.260557973410775,98.92405841534271,Moderate,#ffff00,ไทรโยค|กาญจนบุรี,11012175.81,1604126.746
ป่าติ้ว,ยโสธร,24.21,14.87,6.18,69.61,366,14.245532285850084,100.72433856908654,Moderate,#ffff00,ป่าติ้ว|ยโสธร,11212582.08,1602400.971
ปางมะผ้า,แม่ฮ่องสอน,27.75,27.19,6.6,116.27,366,14.238049224252052,100.59464600674082,Unhealthy for Sensitive,#ff7e00,ปางมะผ้า|แม่ฮ่องสอน,11198144.77,1601541.547
ปัว,น่าน,28.2,19.86,9.07,102.27,366,14.228196626605415,101.3427413259572,Unhealthy for Sensitive,#ff7e00,ปัว|น่าน,11281422.36,1600410.027
นาเชือก,มหาสารคาม,24.32,12.37,9.95,56.41,366,14.22793422322136,101.55561195473152,Moderate,#ffff00,นาเชือก|มหาสารคาม,11305119.01,1600379.892
ศรีเทพ,เพชรบูรณ์,24.64,11.53,10.61,55.29,366,14.223939349856243,102.67918806084462,Moderate,#ffff00,ศรีเทพ|เพชรบูรณ์,11430194.93,1599921.116
แม่ลาน้อย,แม่ฮ่องสอน,26.78,19.86,8.09,84.37,366,14.214266142804995,100.48462008124729,Unhealthy for Sensitive,#ff7e00,แม่ลาน้อย|แม่ฮ่องสอน,11185896.74,1598810.267
เชียงยืน,มหาสารคาม,26.7,12.98,10.79,56.4,366,14.185298107496585,101.85386116305442,Unhealthy for Sensitive,#ff7e00,เชียงยืน|มหาสารคาม,11338319.96,1595483.928
คำเขื่อนแก้ว,ยโสธร,24.38,14.89,6.56,68.98,366,14.168838403479942,100.35137998201306,Moderate,#ffff00,คำเขื่อนแก้ว|ยโสธร,11171064.52,1593594.084
ร้องกวาง,แพร่,26.88,18.63,8.1,84.27,366,14.161450760637251,100.8381405628769,Unhealthy for Sensitive,#ff7e00,ร้องกวาง|แพร่,11225250.46,1592745.906
พนมทวน,กาญจนบุรี,23.47,10.91,10.35,54.51,366,14.157744445609293,99.68544556682905,Moderate,#ffff00,พนมทวน|กาญจนบุรี,11096933.04,1592320.393
โกสุมพิสัย,มหาสารคาม,26.27,12.74,10.85,55.11,366,14.099654318838716,101.38590869912572,Unhealthy for Sensitive,#ff7e00,โกสุมพิสัย|มหาสารคาม,11286227.73,1585652.113
เขาค้อ,เพชรบูรณ์,25.78,14.94,8.84,60.65,366,14.094267834514623,100.67674277106192,Unhealthy for Sensitive,#ff7e00,เขาค้อ|เพชรบูรณ์,11207283.74,1585033.874
เด่นชัย,แพร่,26.58,18.37,7.64,78.67,366,14.082299709639468,100.52283962366238,Unhealthy for Sensitive,#ff7e00,เด่นชัย|แพร่,11190151.32,1583660.273
เวียงสา,น่าน,29.24,19.03,9.48,92.81,366,14.075487013295856,101.00737435891523,Unhealthy for Sensitive,#ff7e00,เวียงสา|น่าน,11244089.48,1582878.401
เมืองกาญจนบุรี,กาญจนบุรี,23.49,11.1,10.33,54.91,366,14.072982093530742,99.3297799981325,Moderate,#ffff00,เมืองกาญจนบุรี|กาญจนบุรี,11057340.53,1582590.925
ลอง,แพร่,25.23,18.71,6.73,80.87,366,14.048437985801451,100.40677441434522,Unhealthy for Sensitive,#ff7e00,ลอง|แพร่,11177231.0,1579774.298
บ่อเกลือ,น่าน,27.88,19.23,9.15,97.19,366,14.047269650660397,100.18602331474098,Unhealthy for Sensitive,#ff7e00,บ่อเกลือ|น่าน,11152657.1,1579640.23
เชียงกลาง,น่าน,28.0,20.73,8.37,109.3,366,14.030954897746545,99.96183463203897,Unhealthy for Sensitive,#ff7e00,เชียงกลาง|น่าน,11127700.53,1577768.162
เมืองแพร่,แพร่,27.45,19.42,7.62,90.99,366,14.029993101657647,100.76200178484618,Unhealthy for Sensitive,#ff7e00,เมืองแพร่|แพร่,11216774.73,1577657.803
ปง,พะเยา,27.85,20.09,8.58,96.02,366,14.00682077105803,100.30914029903846,Unhealthy for Sensitive,#ff7e00,ปง|พะเยา,11166362.42,1574999.089
วังโป่ง,เพชรบูรณ์,25.67,14.6,8.96,58.86,366,13.99297030522583,100.53524526790454,Unhealthy for Sensitive,#ff7e00,วังโป่ง|เพชรบูรณ์,11191532.31,1573410.062
สูงเม่น,แพร่,27.27,19.25,7.73,89.15,366,13.977854829336227,100.79017196400935,Unhealthy for Sensitive,#ff7e00,สูงเม่น|แพร่,11219910.62,1571676.013
สันติสุข,น่าน,29.54,19.31,9.69,96.75,366,13.949384867003547,100.09237403620304,Unhealthy for Sensitive,#ff7e00,สันติสุข|น่าน,11142232.11,1568410.245
บรบือ,มหาสารคาม,25.19,12.77,10.37,56.54,366,13.94873772050948,101.24734985475726,Unhealthy for Sensitive,#ff7e00,บรบือ|มหาสารคาม,11270803.43,1568336.016
ท่ามะกา,กาญจนบุรี,23.41,10.64,10.51,54.37,366,13.945726467650063,99.777703714318,Moderate,#ffff00,ท่ามะกา|กาญจนบุรี,11107203.17,1567990.622
ดอกคำใต้,พะเยา,28.11,21.68,7.25,102.15,366,13.931074372918419,100.39446560849068,Unhealthy for Sensitive,#ff7e00,ดอกคำใต้|พะเยา,11175860.79,1566310.075
ดอนเมือง,กรุงเทพมหานคร,22.59,10.19,9.74,52.68,366,13.924877794944994,100.59342474711207,Moderate,#ffff00,ดอนเมือง|กรุงเทพมหานคร,11198008.82,1565599.38
แม่ใจ,พะเยา,28.12,22.01,7.26,103.8,366,13.924267182875939,100.49687489835323,Unhealthy for Sensitive,#ff7e00,แม่ใจ|พะเยา,11187260.94,1565529.349
ท่าม่วง,กาญจนบุรี,23.45,11.34,10.21,55.63,366,13.917729440735794,99.60300124432453,Moderate,#ffff00,ท่าม่วง|กาญจนบุรี,11087755.38,1564779.548
สายไหม,กรุงเทพมหานคร,22.95,9.74,10.43,52.45,366,13.905708291767207,100.65347757301309,Moderate,#ffff00,สายไหม|กรุงเทพมหานคร,11204693.87,1563400.921
กันทรวิชัย,มหาสารคาม,27.38,14.23,10.81,63.92,366,13.889793894993533,101.78891539346384,Unhealthy for Sensitive,#ff7e00,กันทรวิชัย|มหาสารคาม,11331090.23,1561575.913
พยัคฆภูมิพิสัย,มหาสารคาม,23.15,12.25,8.81,58.69,366,13.886627580879146,101.54009122257862,Moderate,#ffff00,พยัคฆภูมิพิสัย|มหาสารคาม,11303391.25,1561212.826
พนมสารคาม,ฉะเชิงเทรา,22.43,9.63,10.84,53.71,366,13.882764297631043,101.0294019479971,Moderate,#ffff00,พนมสารคาม|ฉะเชิงเทรา,11246541.58,1560769.823
หลักสี่,กรุงเทพมหานคร,22.15,10.17,9.35,52.06,366,13.879844059860181,100.56782698359649,Moderate,#ffff00,หลักสี่|กรุงเทพมหานคร,11195159.29,1560434.964
วาปีปทุม,มหาสารคาม,24.73,12.89,9.73,58.16,366,13.879653195189823,101.42047317631278,Moderate,#ffff00,วาปีปทุม|มหาสารคาม,11290075.43,1560413.078
คลองสามวา,กรุงเทพมหานคร,23.13,9.49,10.88,52.21,366,13.874536854186795,100.73886585436674,Moderate,#ffff00,คลองสามวา|กรุงเทพมหานคร,11214199.25,1559826.406
บางเขน,กรุงเทพมหานคร,22.9,9.62,10.43,51.83,366,13.866804971419828,100.63036508856257,Moderate,#ffff00,บางเขน|กรุงเทพมหานคร,11202121.0,1558939.844
จุน,พะเยา,27.93,21.36,7.76,101.17,366,13.857338178849876,100.49104492199082,Unhealthy for Sensitive,#ff7e00,จุน|พะเยา,11186611.95,1557854.392
เชียงม่วน,พะเยา,27.56,19.68,8.48,91.9,366,13.856338286245583,100.36977451459137,Unhealthy for Sensitive,#ff7e00,เชียงม่วน|พะเยา,11173112.19,1557739.748
หนองจอก,กรุงเทพมหานคร,23.13,9.42,11.04,52.29,366,13.852357956879471,100.85734744196665,Moderate,#ffff00,หนองจอก|กรุงเทพมหานคร,11227388.56,1557283.383
ด่านมะขามเตี้ย,กาญจนบุรี,23.44,10.85,10.46,54.61,366,13.839335999597777,99.32550419704314,Moderate,#ffff00,ด่านมะขามเตี้ย|กาญจนบุรี,11056864.55,1555790.404
ภูเพียง,น่าน,31.3,19.9,9.85,102.24,366,13.830747581792942,100.28755656753846,Unhealthy for Sensitive,#ff7e00,ภูเพียง|น่าน,11163959.73,1554805.78
จตุจักร,กรุงเทพมหานคร,22.6,9.6,10.02,51.31,366,13.826487089983312,100.56517434839402,Moderate,#ffff00,จตุจักร|กรุงเทพมหานคร,11194864.0,1554317.347
ลาดพร้าว,กรุงเทพมหานคร,23.11,9.66,10.29,51.68,366,13.824865287304158,100.60848042144238,Moderate,#ffff00,ลาดพร้าว|กรุงเทพมหานคร,11199684.81,1554131.422
นาหมื่น,น่าน,26.82,17.97,8.41,79.33,366,13.821600616809773,100.17884900955589,Unhealthy for Sensitive,#ff7e00,นาหมื่น|น่าน,11151858.46,1553757.161
คันนายาว,กรุงเทพมหานคร,23.01,9.27,10.94,51.28,366,13.821174051078577,100.67732398105073,Moderate,#ffff00,คันนายาว|กรุงเทพมหานคร,11207348.44,1553708.26
บางซื่อ,กรุงเทพมหานคร,21.96,9.48,9.67,50.68,366,13.820245671910483,100.52857680405594,Moderate,#ffff00,บางซื่อ|กรุงเทพมหานคร,11190789.98,1553601.832
ทุ่งช้าง,น่าน,27.95,22.57,7.36,128.43,366,13.820236189911506,100.0203340013192,Unhealthy for Sensitive,#ff7e00,ทุ่งช้าง|น่าน,11134212.65,1553600.745
สนม,สุรินทร์,22.04,12.83,7.36,62.5,366,13.82006331564346,99.82516386673471,Moderate,#ffff00,สนม|สุรินทร์,11112486.41,1553580.927
เชียงคำ,พะเยา,27.79,20.92,8.18,100.54,366,13.81324083812476,100.42181400883194,Unhealthy for Sensitive,#ff7e00,เชียงคำ|พะเยา,11178905.2,1552798.822
มีนบุรี,กรุงเทพมหานคร,23.18,9.34,11.1,51.85,366,13.809358809364706,100.75472605986552,Moderate,#ffff00,มีนบุรี|กรุงเทพมหานคร,11215964.8,1552353.81
บึงกุ่ม,กรุงเทพมหานคร,22.86,9.14,10.91,50.74,366,13.808647651313217,100.65119279791946,Moderate,#ffff00,บึงกุ่ม|กรุงเทพมหานคร,11204439.53,1552272.288
ท่าตะเกียบ,ฉะเชิงเทรา,21.65,9.32,10.44,50.73,366,13.787830910741189,101.28330743928694,Moderate,#ffff00,ท่าตะเกียบ|ฉะเชิงเทรา,11274806.21,1549886.118
บางพลัด,กรุงเทพมหานคร,23.35,9.31,11.04,51.15,366,13.787509446142867,100.49432476092468,Moderate,#ffff00,บางพลัด|กรุงเทพมหานคร,11186977.06,1549849.271
พญาไท,กรุงเทพมหานคร,18.53,8.37,6.85,43.94,366,13.78191742506126,100.54477297947096,Moderate,#ffff00,พญาไท|กรุงเทพมหานคร,11192592.93,1549208.309
ดุสิต,กรุงเทพมหานคร,22.42,8.97,10.4,49.2,366,13.780116484530193,100.51801477227137,Moderate,#ffff00,ดุสิต|กรุงเทพมหานคร,11189614.22,1549001.887
วังทองหลาง,กรุงเทพมหานคร,21.61,8.07,11.29,47.54,366,13.778882457705318,100.60940029629333,Moderate,#ffff00,วังทองหลาง|กรุงเทพมหานคร,11199787.21,1548860.445
หนองใหญ่,ชลบุรี,20.29,8.78,9.64,47.91,366,13.777759550622472,101.15343485455828,Moderate,#ffff00,หนองใหญ่|ชลบุรี,11260348.86,1548731.74
ทวีวัฒนา,กรุงเทพมหานคร,24.51,9.75,11.5,54.22,366,13.775431236347425,100.36769500454017,Moderate,#ffff00,ทวีวัฒนา|กรุงเทพมหานคร,11172880.7,1548464.876
ดินแดง,กรุงเทพมหานคร,25.45,9.24,13.29,53.05,366,13.775079052189762,100.5630663617483,Unhealthy for Sensitive,#ff7e00,ดินแดง|กรุงเทพมหานคร,11194629.34,1548424.51
ตลิ่งชัน,กรุงเทพมหานคร,24.04,9.55,11.4,52.83,366,13.771707572655838,100.43500046871907,Moderate,#ffff00,ตลิ่งชัน|กรุงเทพมหานคร,11180373.11,1548038.087
บางกะปิ,กรุงเทพมหานคร,22.12,8.38,11.35,48.64,366,13.76937004557676,100.64008926168165,Moderate,#ffff00,บางกะปิ|กรุงเทพมหานคร,11203203.49,1547770.174
ห้วยขวาง,กรุงเทพมหานคร,23.97,9.15,11.96,51.41,366,13.767486966609198,100.58297832850457,Moderate,#ffff00,ห้วยขวาง|กรุงเทพมหานคร,11196845.93,1547554.349
บางกอกน้อย,กรุงเทพมหานคร,24.15,9.53,11.52,52.64,366,13.762850858855295,100.47158750276834,Moderate,#ffff00,บางกอกน้อย|กรุงเทพมหานคร,11184445.96,1547022.999
สะพานสูง,กรุงเทพมหานคร,23.07,9.1,11.24,51.13,366,13.762595505983782,100.69155814605374,Moderate,#ffff00,สะพานสูง|กรุงเทพมหานคร,11208932.98,1546993.733
ราชเทวี,กรุงเทพมหานคร,27.55,9.35,15.03,54.87,366,13.75725074395173,100.53849213866746,Unhealthy for Sensitive,#ff7e00,ราชเทวี|กรุงเทพมหานคร,11191893.75,1546381.177
พระนคร,กรุงเทพมหานคร,24.3,9.49,11.75,52.33,366,13.755426028361663,100.4979798261527,Moderate,#ffff00,พระนคร|กรุงเทพมหานคร,11187383.94,1546172.052
ป้อมปราบศัตรูพ่าย,กรุงเทพมหานคร,24.48,9.34,12.13,51.43,366,13.750899529250125,100.51125845318796,Moderate,#ffff00,ป้อมปราบศัตรูพ่าย|กรุงเทพมหานคร,11188862.11,1545653.291
ลาดกระบัง,กรุงเทพมหานคร,23.25,9.26,11.33,51.82,366,13.745264355736674,100.79171535949901,Moderate,#ffff00,ลาดกระบัง|กรุงเทพมหานคร,11220082.43,1545007.484
บ้านโพธิ์,ฉะเชิงเทรา,22.18,9.3,10.71,51.13,366,13.744987003135883,101.20725265373531,Moderate,#ffff00,บ้านโพธิ์|ฉะเชิงเทรา,11266339.83,1544975.699
ปทุมวัน,กรุงเทพมหานคร,25.51,9.11,13.25,50.73,366,13.739495310392547,100.53562094335636,Unhealthy for Sensitive,#ff7e00,ปทุมวัน|กรุงเทพมหานคร,11191574.13,1544346.351
แปลงยาว,ฉะเชิงเทรา,21.35,9.88,9.23,53.77,366,13.73896556537547,101.41199676312335,Moderate,#ffff00,แปลงยาว|ฉะเชิงเทรา,11289131.84,1544285.643
สัมพันธวงศ์,กรุงเทพมหานคร,24.52,9.45,12.01,51.78,366,13.738579756879174,100.5086845104044,Moderate,#ffff00,สัมพันธวงศ์|กรุงเทพมหานคร,11188575.58,1544241.43
บางกอกใหญ่,กรุงเทพมหานคร,24.48,9.74,11.56,53.7,366,13.735205796863236,100.47609192509749,Moderate,#ffff00,บางกอกใหญ่|กรุงเทพมหานคร,11184947.39,1543854.783
วัฒนา,กรุงเทพมหานคร,23.9,9.02,12.1,50.62,366,13.731667880426604,100.58411290070842,Moderate,#ffff00,วัฒนา|กรุงเทพมหานคร,11196972.23,1543449.353
บางรัก,กรุงเทพมหานคร,24.95,9.12,12.88,49.88,366,13.727024230641483,100.5242347072986,Moderate,#ffff00,บางรัก|กรุงเทพมหานคร,11190306.62,1542917.22
สวนหลวง,กรุงเทพมหานคร,23.05,8.92,11.43,50.71,366,13.72611207543494,100.62798167845074,Moderate,#ffff00,สวนหลวง|กรุงเทพมหานคร,11201855.68,1542812.694
สองแคว,น่าน,27.86,20.56,8.39,104.37,366,13.723890481047624,100.2163885273009,Unhealthy for Sensitive,#ff7e00,สองแคว|น่าน,11156037.34,1542558.118
ภาษีเจริญ,กรุงเทพมหานคร,24.37,9.57,11.63,53.41,366,13.723479383946488,100.4414033905697,Moderate,#ffff00,ภาษีเจริญ|กรุงเทพมหานคร,11181085.88,1542511.01
คลองสาน,กรุงเทพมหานคร,24.36,9.54,11.65,52.54,366,13.722874020598804,100.50231859914348,Moderate,#ffff00,คลองสาน|กรุงเทพมหานคร,11187866.93,1542441.641
บางปะกง,ฉะเชิงเทรา,22.13,9.15,10.67,49.68,366,13.718683226970947,101.01407785705992,Moderate,#ffff00,บางปะกง|ฉะเชิงเทรา,11244835.71,1541961.42
บางแค,กรุงเทพมหานคร,25.01,9.74,11.92,55.19,366,13.716280172262458,100.39497540241442,Hazardous,#7e0023,บางแค|กรุงเทพมหานคร,11175917.54,1541686.059
คลองเตย,กรุงเทพมหานคร,23.45,8.96,11.68,49.52,366,13.716217329347709,100.57211356446926,Moderate,#ffff00,คลองเตย|กรุงเทพมหานคร,11195636.47,1541678.858
ธนบุรี,กรุงเทพมหานคร,24.26,9.58,11.42,52.99,366,13.715290235133187,100.48478689839554,Moderate,#ffff00,ธนบุรี|กรุงเทพมหานคร,11185915.31,1541572.625
สาทร,กรุงเทพมหานคร,23.75,8.93,11.97,47.72,366,13.713937702368897,100.53077013065365,Moderate,#ffff00,สาทร|กรุงเทพมหานคร,11191034.14,1541417.643
สังขะ,สุรินทร์,21.69,12.22,7.74,61.19,366,13.710234765672782,99.75273692745799,Moderate,#ffff00,สังขะ|สุรินทร์,11104423.88,1540993.341
ประเวศ,กรุงเทพมหานคร,23.37,9.21,11.4,52.14,366,13.698930455966144,100.67690303050861,Moderate,#ffff00,ประเวศ|กรุงเทพมหานคร,11207301.58,1539698.075
บางคอแหลม,กรุงเทพมหานคร,23.67,9.22,11.47,50.97,366,13.696604605162728,100.50913815962288,Moderate,#ffff00,บางคอแหลม|กรุงเทพมหานคร,11188626.08,1539431.583
หนองแขม,กรุงเทพมหานคร,25.98,10.05,12.17,57.05,366,13.695465052755571,100.35535556613445,Unhealthy for Sensitive,#ff7e00,หนองแขม|กรุงเทพมหานคร,11171507.08,1539301.016
พระโขนง,กรุงเทพมหานคร,23.03,9.3,10.87,52.61,366,13.692582820283619,100.61364402752702,Moderate,#ffff00,พระโขนง|กรุงเทพมหานคร,11200259.62,1538970.78
ยานนาวา,กรุงเทพมหานคร,22.95,8.96,11.18,49.73,366,13.690492473562538,100.5392311826517,Moderate,#ffff00,ยานนาวา|กรุงเทพมหานคร,11191976.02,1538731.278
จอมทอง,กรุงเทพมหานคร,24.29,9.48,11.65,53.38,366,13.687020626892245,100.46282632363385,Moderate,#ffff00,จอมทอง|กรุงเทพมหานคร,11183470.67,1538333.495
ศีขรภูมิ,สุรินทร์,21.29,12.89,6.75,64.94,366,13.679370658237167,99.97806781804373,Moderate,#ffff00,ศีขรภูมิ|สุรินทร์,11129507.6,1537457.029
ราษฎร์บูรณะ,กรุงเทพมหานคร,23.11,9.17,10.94,51.33,366,13.672934126726012,100.49984068626377,Moderate,#ffff00,ราษฎร์บูรณะ|กรุงเทพมหานคร,11187591.09,1536719.61
บางนา,กรุงเทพมหานคร,22.61,9.49,10.2,53.9,366,13.669435311229972,100.6186851034069,Moderate,#ffff00,บางนา|กรุงเทพมหานคร,11200820.79,1536318.767
บางบอน,กรุงเทพมหานคร,27.74,10.22,13.85,62.31,366,13.656348711804428,100.39152874633231,Unhealthy for Sensitive,#ff7e00,บางบอน|กรุงเทพมหานคร,11175533.86,1534819.549
ปราสาท,สุรินทร์,20.88,12.49,6.9,65.14,366,13.640128249380936,99.51922498974822,Moderate,#ffff00,ปราสาท|สุรินทร์,11078429.45,1532961.427
ทุ่งครุ,กรุงเทพมหานคร,22.9,9.21,10.66,51.63,366,13.628793022500608,100.49636052302155,Moderate,#ffff00,ทุ่งครุ|กรุงเทพมหานคร,11187203.68,1531663.005
คลองเขื่อน,ฉะเชิงเทรา,22.47,9.38,10.76,52.34,366,13.619276219305142,101.6457742428311,Moderate,#ffff00,คลองเขื่อน|ฉะเชิงเทรา,11315155.83,1530572.927
สนามชัยเขต,ฉะเชิงเทรา,22.45,9.61,10.99,53.2,366,13.609721813220178,101.08081163339199,Moderate,#ffff00,สนามชัยเขต|ฉะเชิงเทรา,11252264.48,1529478.586
บางขุนเทียน,กรุงเทพมหานคร,26.28,9.94,12.9,58.95,366,13.58879209755733,100.42822178158511,Unhealthy for Sensitive,#ff7e00,บางขุนเทียน|กรุงเทพมหานคร,11179618.51,1527081.496
รัตนบุรี,สุรินทร์,22.81,13.23,7.48,61.77,366,13.568617112613593,99.9678021404714,Moderate,#ffff00,รัตนบุรี|สุรินทร์,11128364.83,1524771.046
เมืองชลบุรี,ชลบุรี,18.31,9.5,6.17,49.1,366,13.557245173205706,101.34318922595789,Moderate,#ffff00,เมืองชลบุรี|ชลบุรี,11281472.22,1523468.812
กาบเชิง,สุรินทร์,21.52,11.94,7.86,61.26,366,13.550893364833016,99.29294808333678,Moderate,#ffff00,กาบเชิง|สุรินทร์,11053240.42,1522741.475
จอมพระ,สุรินทร์,21.35,12.8,6.9,65.08,366,13.542151110157256,99.76701969131784,Moderate,#ffff00,จอมพระ|สุรินทร์,11106013.83,1521740.443
ราชสาส์น,ฉะเชิงเทรา,22.35,9.48,10.7,52.98,366,13.531801514936046,100.96139876233704,Moderate,#ffff00,ราชสาส์น|ฉะเชิงเทรา,11238971.5,1520555.41
สัตหีบ,ชลบุรี,19.9,8.5,9.5,46.15,366,13.468480776453944,101.21942554448735,Moderate,#ffff00,สัตหีบ|ชลบุรี,11267694.91,1513306.279
เกาะสีชัง,ชลบุรี,20.32,8.79,9.45,44.42,366,13.463419646893799,101.08582971240061,Moderate,#ffff00,เกาะสีชัง|ชลบุรี,11252823.09,1512726.95
สำโรงทาบ,สุรินทร์,21.73,13.06,7.02,61.9,366,13.450033047986674,99.86447414356778,Moderate,#ffff00,สำโรงทาบ|สุรินทร์,11116862.41,1511194.694
เนินสง่า,ชัยภูมิ,23.72,12.03,9.43,60.73,366,13.398064290472355,101.3926226177277,Moderate,#ffff00,เนินสง่า|ชัยภูมิ,11286975.12,1505247.06
บ้านบึง,ชลบุรี,20.44,8.88,9.53,47.39,366,13.392035488788313,101.74176767510293,Moderate,#ffff00,บ้านบึง|ชลบุรี,11325841.77,1504557.169
ลำดวน,สุรินทร์,20.97,12.84,6.59,66.11,366,13.364541784558162,99.65814953826884,Moderate,#ffff00,ลำดวน|สุรินทร์,11093894.46,1501411.214
บางละมุง,ชลบุรี,19.76,8.48,9.31,45.7,366,13.34241194153006,100.9975146300198,Moderate,#ffff00,บางละมุง|ชลบุรี,11242991.9,1498879.277
บัวเชด,สุรินทร์,21.99,12.05,8.06,59.14,366,13.321627313394483,99.3866596151239,Moderate,#ffff00,บัวเชด|สุรินทร์,11063672.34,1496501.461
พานทอง,ชลบุรี,21.12,9.24,9.75,48.54,366,13.25022728376298,101.17981505068633,Moderate,#ffff00,พานทอง|ชลบุรี,11263285.49,1488334.664
ภักดีชุมพล,ชัยภูมิ,24.73,12.71,10.03,53.13,366,13.24596502419607,101.50754588865567,Moderate,#ffff00,ภักดีชุมพล|ชัยภูมิ,11299768.32,1487847.219
แม่ทะ,ลำปาง,26.63,19.58,7.14,84.76,366,13.243878894861966,99.8046681747068,Unhealthy for Sensitive,#ff7e00,แม่ทะ|ลำปาง,11110204.84,1487608.646
เขาคิชฌกูฏ,จันทบุรี,19.79,8.67,8.93,45.62,366,13.183634195990273,102.23193915910056,Moderate,#ffff00,เขาคิชฌกูฏ|จันทบุรี,11380407.41,1480719.849
แม่ทา,ลำพูน,26.85,18.86,7.98,85.3,366,13.176082897976029,99.98376646071159,Unhealthy for Sensitive,#ff7e00,แม่ทา|ลำพูน,11130141.97,1479856.501
เกาะจันทร์,ชลบุรี,21.42,9.27,10.17,50.67,366,13.173823965461622,100.92031368399712,Moderate,#ffff00,เกาะจันทร์|ชลบุรี,11234397.93,1479598.24
เมืองชัยนาท,ชัยนาท,26.71,13.65,10.47,61.14,366,13.151382036442554,100.80888962059538,Unhealthy for Sensitive,#ff7e00,เมืองชัยนาท|ชัยนาท,11221994.26,1477032.611
สบปราบ,ลำปาง,26.7,18.8,7.63,79.99,366,13.128337050060512,99.4745021836653,Unhealthy for Sensitive,#ff7e00,สบปราบ|ลำปาง,11073450.93,1474398.283
บ่อทอง,ชลบุรี,21.05,9.04,10.07,49.24,366,13.126591692167596,101.03901499951553,Moderate,#ffff00,บ่อทอง|ชลบุรี,11247611.7,1474198.777
พนัสนิคม,ชลบุรี,21.44,9.39,9.93,51.07,366,13.125997104465592,101.37531001607756,Moderate,#ffff00,พนัสนิคม|ชลบุรี,11285047.89,1474130.812
เมืองฉะเชิงเทรา,ฉะเชิงเทรา,22.73,9.31,11.02,51.7,366,13.093878956356521,101.88399667639618,Moderate,#ffff00,เมืองฉะเชิงเทรา|ฉะเชิงเทรา,11341674.63,1470459.756
แม่พริก,ลำปาง,26.51,17.76,8.0,74.7,366,13.081609141146652,99.96928984041342,Unhealthy for Sensitive,#ff7e00,แม่พริก|ลำปาง,11128530.44,1469057.461
เมืองลำพูน,ลำพูน,26.48,17.9,6.96,79.35,366,13.046905953869764,99.85010496177759,Unhealthy for Sensitive,#ff7e00,เมืองลำพูน|ลำพูน,11115262.84,1465091.674
ชุมพลบุรี,สุรินทร์,22.46,12.32,8.12,60.47,366,12.994173703452596,101.67844066965434,Moderate,#ffff00,ชุมพลบุรี|สุรินทร์,11318792.24,1459066.639
เมืองสุรินทร์,สุรินทร์,19.76,14.29,4.23,74.52,366,12.978859681806414,101.2508417859297,Moderate,#ffff00,เมืองสุรินทร์|สุรินทร์,11271192.15,1457317.143
ชัยบุรี,สุราษฎร์ธานี,16.43,4.99,9.94,28.89,366,12.965933612407447,101.51780734414616,Moderate,#ffff00,ชัยบุรี|สุราษฎร์ธานี,11300910.62,1455840.534
บางน้ำเปรี้ยว,ฉะเชิงเทรา,22.84,9.37,10.91,52.45,366,12.95423054727808,102.09621117568697,Moderate,#ffff00,บางน้ำเปรี้ยว|ฉะเชิงเทรา,11365298.24,1454503.701
สอยดาว,จันทบุรี,20.72,9.25,9.62,48.59,366,12.938629737529903,102.36942712181882,Moderate,#ffff00,สอยดาว|จันทบุรี,11395712.5,1452721.729
ศรีราชา,ชลบุรี,19.43,8.4,8.98,44.42,366,12.920954524347351,100.98403388204558,Moderate,#ffff00,ศรีราชา|ชลบุรี,11241491.23,1450702.947
บ้านโฮ่ง,ลำพูน,26.85,18.92,8.05,85.81,366,12.859665182621864,99.4637762991729,Unhealthy for Sensitive,#ff7e00,บ้านโฮ่ง|ลำพูน,11072256.93,1443703.864
ท่าตูม,สุรินทร์,22.41,12.68,7.75,61.79,366,12.842738845733447,101.14858341303488,Moderate,#ffff00,ท่าตูม|สุรินทร์,11259808.8,1441771.222
วิภาวดี,สุราษฎร์ธานี,17.03,5.55,9.78,30.44,366,12.84002307004178,101.34198772926537,Moderate,#ffff00,วิภาวดี|สุราษฎร์ธานี,11281338.47,1441461.148
เมืองปาน,ลำปาง,26.86,19.74,7.69,89.71,366,12.816734260814327,99.79055510260413,Unhealthy for Sensitive,#ff7e00,เมืองปาน|ลำปาง,11108633.78,1438802.283
บ้านนาสาร,สุราษฎร์ธานี,15.87,4.77,9.61,27.61,366,12.778932106175056,101.6543492012072,Moderate,#ffff00,บ้านนาสาร|สุราษฎร์ธานี,11316110.39,1434486.964
บ้านเขว้า,ชัยภูมิ,23.51,12.79,8.07,68.43,366,12.76098449529574,100.84411894092423,Moderate,#ffff00,บ้านเขว้า|ชัยภูมิ,11225915.97,1432438.374
ห้างฉัตร,ลำปาง,27.35,19.78,7.62,86.91,366,12.757913818380267,99.90047188279065,Unhealthy for Sensitive,#ff7e00,ห้างฉัตร|ลำปาง,11120869.66,1432087.893
บางคล้า,ฉะเชิงเทรา,22.23,9.45,10.6,52.55,366,12.73905922387096,101.87194299208234,Moderate,#ffff00,บางคล้า|ฉะเชิงเทรา,11340332.82,1429935.96
แก่งหางแมว,จันทบุรี,20.78,8.98,9.92,48.29,366,12.736476007267845,102.22240201522366,Moderate,#ffff00,แก่งหางแมว|จันทบุรี,11379345.74,1429641.142
ท่าฉาง,สุราษฎร์ธานี,17.01,5.55,9.75,30.35,366,12.733356805910558,101.04794119916771,Moderate,#ffff00,ท่าฉาง|สุราษฎร์ธานี,11248605.36,1429285.157
หนองบัวระเหว,ชัยภูมิ,24.19,12.23,9.77,54.51,366,12.727160479232444,100.79821233495987,Moderate,#ffff00,หนองบัวระเหว|ชัยภูมิ,11220805.67,1428578.002
มะขาม,จันทบุรี,17.6,8.06,6.76,39.78,366,12.72620744831778,101.97810364657137,Moderate,#ffff00,มะขาม|จันทบุรี,11352150.57,1428469.239
เกาะสมุย,สุราษฎร์ธานี,18.34,6.47,9.95,35.62,366,12.718472740518763,101.34716687620443,Moderate,#ffff00,เกาะสมุย|สุราษฎร์ธานี,11281915.01,1427586.544
มโนรมย์,ชัยนาท,28.05,15.21,9.94,73.04,366,12.715758660472224,100.92390128574733,Unhealthy for Sensitive,#ff7e00,มโนรมย์|ชัยนาท,11234797.3,1427276.816
วัดสิงห์,ชัยนาท,27.28,14.35,10.16,66.97,366,12.698880691815068,100.78628944535139,Unhealthy for Sensitive,#ff7e00,วัดสิงห์|ชัยนาท,11219478.42,1425350.794
คอนสวรรค์,ชัยภูมิ,23.82,12.5,9.1,62.57,366,12.67563816111332,100.8227839529264,Moderate,#ffff00,คอนสวรรค์|ชัยภูมิ,11223540.97,1422698.692
คีรีรัฐนิคม,สุราษฎร์ธานี,16.51,5.2,9.72,28.76,366,12.648666808897962,101.17406394640587,Moderate,#ffff00,คีรีรัฐนิคม|สุราษฎร์ธานี,11262645.28,1419621.414
ไชยา,สุราษฎร์ธานี,17.48,5.88,9.81,32.08,366,12.64765733428842,101.17007623502812,Moderate,#ffff00,ไชยา|สุราษฎร์ธานี,11262201.37,1419506.245
บ้านแท่น,ชัยภูมิ,24.98,12.69,10.5,52.71,366,12.645652581559279,100.89744796675514,Moderate,#ffff00,บ้านแท่น|ชัยภูมิ,11231852.53,1419277.528
พนม,สุราษฎร์ธานี,17.26,5.61,10.0,31.39,366,12.64553544279485,101.17068933520954,Moderate,#ffff00,พนม|สุราษฎร์ธานี,11262269.62,1419264.164
บ้านตาขุน,สุราษฎร์ธานี,17.62,5.93,9.94,32.59,366,12.644609734376012,101.16999350019047,Moderate,#ffff00,บ้านตาขุน|สุราษฎร์ธานี,11262192.16,1419158.553
เนินขาม,ชัยนาท,24.9,11.88,10.34,55.99,366,12.644145857751216,100.8868467684242,Moderate,#ffff00,เนินขาม|ชัยนาท,11230672.41,1419105.631
ท่าชนะ,สุราษฎร์ธานี,17.91,6.19,9.87,33.67,366,12.643666132597705,101.16854263117509,Moderate,#ffff00,ท่าชนะ|สุราษฎร์ธานี,11262030.65,1419050.901
หันคา,ชัยนาท,25.46,12.38,10.41,57.59,366,12.637601287650057,100.87020853205784,Unhealthy for Sensitive,#ff7e00,หันคา|ชัยนาท,11228820.25,1418358.995
จัตุรัส,ชัยภูมิ,23.81,11.98,9.58,59.07,366,12.624028341216963,100.90054895111594,Moderate,#ffff00,จัตุรัส|ชัยภูมิ,11232197.73,1416810.589
เกษตรสมบูรณ์,ชัยภูมิ,24.47,12.8,9.82,53.41,366,12.616590249434674,100.88081529994358,Moderate,#ffff00,เกษตรสมบูรณ์|ชัยภูมิ,11230000.99,1415962.084
แก้งคร้อ,ชัยภูมิ,24.22,12.52,9.63,57.64,366,12.61624102842784,100.91771449855406,Moderate,#ffff00,แก้งคร้อ|ชัยภูมิ,11234108.59,1415922.247
บำเหน็จณรงค์,ชัยภูมิ,24.16,11.47,10.37,53.94,366,12.612302109989834,100.87585453345008,Moderate,#ffff00,บำเหน็จณรงค์|ชัยภูมิ,11229448.76,1415472.923
บ้านนาเดิม,สุราษฎร์ธานี,15.58,4.68,9.14,27.76,366,12.612082695958632,101.68890235962168,Moderate,#ffff00,บ้านนาเดิม|สุราษฎร์ธานี,11319956.83,1415447.894
คอนสาร,ชัยภูมิ,24.99,13.6,9.89,55.86,366,12.611219213264318,100.88897631463675,Moderate,#ffff00,คอนสาร|ชัยภูมิ,11230909.47,1415349.395
เทพสถิต,ชัยภูมิ,24.35,11.72,10.33,53.91,366,12.603227615069704,100.91686118886568,Moderate,#ffff00,เทพสถิต|ชัยภูมิ,11234013.6,1414437.795
เมืองจันทบุรี,จันทบุรี,15.68,7.88,4.8,41.09,366,12.602991264754895,102.11903071952334,Moderate,#ffff00,เมืองจันทบุรี|จันทบุรี,11367838.5,1414410.835
เวียงสระ,สุราษฎร์ธานี,16.09,4.82,9.73,27.84,366,12.598564109559332,101.69149202292272,Moderate,#ffff00,เวียงสระ|สุราษฎร์ธานี,11320245.11,1413905.843
หนองมะโมง,ชัยนาท,26.36,13.47,10.29,60.62,366,12.585153796779789,100.96298545662339,Unhealthy for Sensitive,#ff7e00,หนองมะโมง|ชัยนาท,11239148.13,1412376.223
พุนพิน,สุราษฎร์ธานี,15.55,4.69,9.02,27.97,366,12.583983383606267,101.5098743218721,Moderate,#ffff00,พุนพิน|สุราษฎร์ธานี,11300027.52,1412242.726
หนองบัวแดง,ชัยภูมิ,24.73,13.02,9.87,53.51,366,12.57317400449665,100.93363731662814,Moderate,#ffff00,หนองบัวแดง|ชัยภูมิ,11235881.11,1411009.84
สรรพยา,ชัยนาท,25.81,12.63,10.52,58.75,366,12.569734893574342,100.95198675377921,Unhealthy for Sensitive,#ff7e00,สรรพยา|ชัยนาท,11237923.76,1410617.596
เคียนซา,สุราษฎร์ธานี,16.33,5.02,9.75,28.18,366,12.568834057468278,101.70019175729179,Moderate,#ffff00,เคียนซา|สุราษฎร์ธานี,11321213.56,1410514.853
เกาะพะงัน,สุราษฎร์ธานี,19.35,7.27,10.07,39.35,366,12.560385116252803,101.45214121552925,Moderate,#ffff00,เกาะพะงัน|สุราษฎร์ธานี,11293600.7,1409551.244
ตาคลี,นครสวรรค์,25.67,12.5,10.52,58.28,366,12.558251322512108,102.57128512386204,Unhealthy for Sensitive,#ff7e00,ตาคลี|นครสวรรค์,11418183.23,1409307.888
พระแสง,สุราษฎร์ธานี,16.45,5.04,9.87,28.87,366,12.556978969555198,101.5685930597447,Moderate,#ffff00,พระแสง|สุราษฎร์ธานี,11306564.06,1409162.779
ภูเขียว,ชัยภูมิ,24.65,12.76,10.11,52.59,366,12.549381135409778,100.97121645007718,Moderate,#ffff00,ภูเขียว|ชัยภูมิ,11240064.4,1408296.278
ขลุง,จันทบุรี,17.69,8.02,6.99,39.78,366,12.54049808563921,102.29804914529936,Moderate,#ffff00,ขลุง|จันทบุรี,11387766.74,1407283.236
สรรคบุรี,ชัยนาท,25.41,12.24,10.32,57.66,366,12.519253038384305,100.95585966046363,Unhealthy for Sensitive,#ff7e00,สรรคบุรี|ชัยนาท,11238354.89,1404860.547
เมืองชัยภูมิ,ชัยภูมิ,23.0,13.74,6.01,80.19,366,12.519191554974919,100.97073360561197,Moderate,#ffff00,เมืองชัยภูมิ|ชัยภูมิ,11240010.65,1404853.536
เมืองมหาสารคาม,มหาสารคาม,26.38,13.69,10.48,60.91,366,12.515323157075775,99.70488457058822,Unhealthy for Sensitive,#ff7e00,เมืองมหาสารคาม|มหาสารคาม,11099096.98,1404412.423
แหลมสิงห์,จันทบุรี,17.08,7.93,6.31,39.11,366,12.511673841553478,101.9496018094053,Moderate,#ffff00,แหลมสิงห์|จันทบุรี,11348977.76,1403996.298
นายายอาม,จันทบุรี,19.17,8.35,8.61,43.94,366,12.46732346973665,102.12268075418578,Moderate,#ffff00,นายายอาม|จันทบุรี,11368244.82,1398939.573
เก้าเลี้ยว,นครสวรรค์,24.97,13.12,9.39,56.06,366,12.436865303586584,102.41647791196056,Moderate,#ffff00,เก้าเลี้ยว|นครสวรรค์,11400950.17,1395467.306
ถลาง,ภูเก็ต,15.69,4.19,10.59,29.31,366,12.391879610472225,99.7307178723713,Moderate,#ffff00,ถลาง|ภูเก็ต,11101972.73,1390339.628
ท่าใหม่,จันทบุรี,17.94,8.08,7.2,40.73,366,12.2921275893408,102.2392485709044,Moderate,#ffff00,ท่าใหม่|จันทบุรี,11381221.09,1378972.58
โป่งน้ำร้อน,จันทบุรี,19.89,8.83,8.88,45.93,366,12.288114336254704,102.25088498776876,Moderate,#ffff00,โป่งน้ำร้อน|จันทบุรี,11382516.45,1378515.348
หนองบัว,นครสวรรค์,25.18,13.06,9.95,54.96,366,12.26538766393133,102.59743876487543,Unhealthy for Sensitive,#ff7e00,หนองบัว|นครสวรรค์,11421094.64,1375926.218
แกดำ,มหาสารคาม,25.98,13.61,10.15,60.55,366,12.26007401323689,99.72713763680643,Unhealthy for Sensitive,#ff7e00,แกดำ|มหาสารคาม,11101574.18,1375320.894
ท่าตะโก,นครสวรรค์,25.2,12.72,10.06,55.65,366,12.220525631535729,102.36520045857552,Unhealthy for Sensitive,#ff7e00,ท่าตะโก|นครสวรรค์,11395241.99,1370815.978
ศรีสาคร,นราธิวาส,14.84,3.14,9.8,23.65,366,12.160856635677794,102.24734993746269,Moderate,#ffff00,ศรีสาคร|นราธิวาส,11382122.93,1364020.417
วังชิ้น,แพร่,26.36,18.59,7.45,78.39,366,12.113135628169914,99.73683333333099,Unhealthy for Sensitive,#ff7e00,วังชิ้น|แพร่,11102653.5,1358586.682
รือเสาะ,นราธิวาส,15.14,3.14,9.44,24.11,366,12.046674549569156,102.33830570745272,Moderate,#ffff00,รือเสาะ|นราธิวาส,11392248.08,1351020.733
สอง,แพร่,26.59,18.91,7.9,84.87,366,11.873377807630423,99.72044563709738,Unhealthy for Sensitive,#ff7e00,สอง|แพร่,11100829.23,1331301.36
ปากเกร็ด,นนทบุรี,22.35,10.45,9.31,52.45,366,11.858253841461151,102.52306562553568,Moderate,#ffff00,ปากเกร็ด|นนทบุรี,11412815.46,1329581.007
บาเจาะ,นราธิวาส,14.95,3.31,9.34,24.42,366,11.856555944776359,102.52478428233724,Moderate,#ffff00,บาเจาะ|นราธิวาส,11413006.78,1329387.877
บรรพตพิสัย,นครสวรรค์,25.36,13.88,9.19,58.64,366,11.851968432350231,102.83508573766952,Unhealthy for Sensitive,#ff7e00,บรรพตพิสัย|นครสวรรค์,11447549.38,1328866.069
ตากฟ้า,นครสวรรค์,25.44,12.4,10.45,57.22,366,11.84156938811551,102.52631177764636,Unhealthy for Sensitive,#ff7e00,ตากฟ้า|นครสวรรค์,11413176.82,1327683.259
บางกรวย,นนทบุรี,23.66,9.6,11.05,52.63,366,11.835202654215353,102.45976673735548,Moderate,#ffff00,บางกรวย|นนทบุรี,11405769.06,1326959.115
บางใหญ่,นนทบุรี,23.69,9.75,10.95,53.17,366,11.822720201010133,102.38503508038582,Moderate,#ffff00,บางใหญ่|นนทบุรี,11397449.97,1325539.426
เมืองนราธิวาส,นราธิวาส,14.5,3.42,8.42,24.39,366,11.81942482537182,102.40173368353923,Moderate,#ffff00,เมืองนราธิวาส|นราธิวาส,11399308.85,1325164.638
พยุหะคีรี,นครสวรรค์,26.11,13.55,9.85,60.41,366,11.818024084394908,102.48080635928788,Unhealthy for Sensitive,#ff7e00,พยุหะคีรี|นครสวรรค์,11408111.18,1325005.331
ระแงะ,นราธิวาส,14.76,3.35,9.12,24.3,366,11.817346436105455,102.3966314323885,Moderate,#ffff00,ระแงะ|นราธิวาส,11398740.87,1324928.262
ตากใบ,นราธิวาส,14.9,3.48,9.22,24.65,366,11.815159334133972,102.3973178350971,Moderate,#ffff00,ตากใบ|นราธิวาส,11398817.28,1324679.524
บางบัวทอง,นนทบุรี,23.26,9.87,10.56,52.95,366,11.810335237909191,102.37584738115441,Moderate,#ffff00,บางบัวทอง|นนทบุรี,11396427.2,1324130.889
ไทรน้อย,นนทบุรี,23.42,9.95,10.7,53.42,366,11.80821229562938,102.37750324571762,Moderate,#ffff00,ไทรน้อย|นนทบุรี,11396611.53,1323889.454
เมืองนนทบุรี,นนทบุรี,22.04,9.91,9.5,51.97,366,11.807227885314134,102.4541556804278,Moderate,#ffff00,เมืองนนทบุรี|นนทบุรี,11405144.44,1323777.501
ยี่งอ,นราธิวาส,14.65,3.38,8.76,24.35,366,11.80519612151882,102.37626123500581,Moderate,#ffff00,ยี่งอ|นราธิวาส,11396473.27,1323546.438
ชุมตาบง,นครสวรรค์,25.38,13.36,9.76,56.85,366,11.798519780511432,102.45061497073544,Unhealthy for Sensitive,#ff7e00,ชุมตาบง|นครสวรรค์,11404750.29,1322787.181
ลาดยาว,นครสวรรค์,25.38,13.4,9.58,56.83,366,11.796139107891127,102.38605538688552,Unhealthy for Sensitive,#ff7e00,ลาดยาว|นครสวรรค์,11397563.55,1322516.447
แม่เปิน,นครสวรรค์,25.21,13.4,9.64,57.52,366,11.774259130594015,102.39196603196044,Unhealthy for Sensitive,#ff7e00,แม่เปิน|นครสวรรค์,11398221.52,1320028.33
แม่วงก์,นครสวรรค์,25.34,13.89,9.39,59.21,366,11.718524295944349,102.5194739813667,Unhealthy for Sensitive,#ff7e00,แม่วงก์|นครสวรรค์,11412415.64,1313691.247
ไพศาลี,นครสวรรค์,25.06,12.28,10.35,55.45,366,11.657329336838119,102.56687547379535,Hazardous,#7e0023,ไพศาลี|นครสวรรค์,11417692.35,1306734.817
หนองม่วงไข่,แพร่,26.7,19.05,7.58,86.56,366,11.545974344298623,99.5645808386119,Unhealthy for Sensitive,#ff7e00,หนองม่วงไข่|แพร่,11083478.44,1294080.295
เมืองภูเก็ต,ภูเก็ต,15.45,4.03,9.93,29.07,366,11.290506607393736,99.44478582423508,Moderate,#ffff00,เมืองภูเก็ต|ภูเก็ต,11070142.92,1265067.516
กะทู้,ภูเก็ต,15.5,4.06,10.06,29.12,366,11.064775347663785,99.33626044459213,Moderate,#ffff00,กะทู้|ภูเก็ต,11058061.93,1239453.331
ไชยปราการ,เชียงใหม่,27.64,21.49,8.13,99.36,366,10.86484828328293,99.48888196557583,Unhealthy for Sensitive,#ff7e00,ไชยปราการ|เชียงใหม่,11075051.68,1216783.687
อมก๋อย,เชียงใหม่,26.26,17.38,8.32,71.52,366,10.849407249763189,99.48148478836876,Unhealthy for Sensitive,#ff7e00,อมก๋อย|เชียงใหม่,11074228.23,1215033.47
แม่วาง,เชียงใหม่,27.41,20.25,8.25,99.68,366,10.83972286262747,99.49706193472149,Unhealthy for Sensitive,#ff7e00,แม่วาง|เชียงใหม่,11075962.27,1213935.806
เวียงแหง,เชียงใหม่,27.47,21.96,7.96,96.3,366,10.82271911739067,99.49154223645822,Unhealthy for Sensitive,#ff7e00,เวียงแหง|เชียงใหม่,11075347.82,1212008.625
ดอยเต่า,เชียงใหม่,26.54,18.11,8.14,77.34,366,10.811633770681478,99.33915230115475,Unhealthy for Sensitive,#ff7e00,ดอยเต่า|เชียงใหม่,11058383.85,1210752.286
ดอยหล่อ,เชียงใหม่,27.13,19.56,8.16,94.5,366,10.799956716184038,99.53784607744122,Unhealthy for Sensitive,#ff7e00,ดอยหล่อ|เชียงใหม่,11080502.34,1209428.937
แม่ออน,เชียงใหม่,27.13,19.88,7.94,95.54,366,10.781885452371439,99.52953468476947,Unhealthy for Sensitive,#ff7e00,แม่ออน|เชียงใหม่,11079577.12,1207381.04
ฮอด,เชียงใหม่,26.65,18.5,8.19,81.21,366,10.770915087495833,99.09490585512592,Unhealthy for Sensitive,#ff7e00,ฮอด|เชียงใหม่,11031194.46,1206137.901
สารภี,เชียงใหม่,27.23,20.72,7.86,111.19,366,10.701817911036466,99.40975350444805,Unhealthy for Sensitive,#ff7e00,สารภี|เชียงใหม่,11066243.14,1198308.991
เชียงดาว,เชียงใหม่,27.49,21.11,8.14,95.23,366,10.557476355399825,99.3794356331036,Unhealthy for Sensitive,#ff7e00,เชียงดาว|เชียงใหม่,11062868.17,1181960.417
พร้าว,เชียงใหม่,27.5,20.64,8.12,96.19,366,10.50575606290369,99.4247517764317,Unhealthy for Sensitive,#ff7e00,พร้าว|เชียงใหม่,11067912.74,1176104.289
แม่แจ่ม,เชียงใหม่,27.12,20.58,8.03,91.51,366,10.495576488209725,99.4203170633686,Unhealthy for Sensitive,#ff7e00,แม่แจ่ม|เชียงใหม่,11067419.07,1174951.803
สันป่าตอง,เชียงใหม่,27.13,19.58,8.15,97.13,366,10.486292002005511,99.4176761062648,Unhealthy for Sensitive,#ff7e00,สันป่าตอง|เชียงใหม่,11067125.08,1173900.688
สันทราย,เชียงใหม่,28.44,21.45,8.91,112.3,366,10.47731661765617,99.36935366100687,Unhealthy for Sensitive,#ff7e00,สันทราย|เชียงใหม่,11061745.85,1172884.597
สันกำแพง,เชียงใหม่,27.32,20.3,8.06,104.17,366,10.466487265339929,99.35925309378376,Unhealthy for Sensitive,#ff7e00,สันกำแพง|เชียงใหม่,11060621.46,1171658.66
แม่ลาว,เชียงราย,27.26,24.15,6.58,119.18,366,10.462013572253294,99.10090094183754,Unhealthy for Sensitive,#ff7e00,แม่ลาว|เชียงราย,11031861.83,1171152.228
เดิมบางนางบวช,สุพรรณบุรี,24.65,11.6,10.26,55.46,366,10.461959579986477,98.84632530734575,Moderate,#ffff00,เดิมบางนางบวช|สุพรรณบุรี,11003522.6,1171146.116
หางดง,เชียงใหม่,27.78,21.34,8.24,115.14,366,10.459059964147311,99.40329695317497,Unhealthy for Sensitive,#ff7e00,หางดง|เชียงใหม่,11065524.4,1170817.877
ฝาง,เชียงใหม่,27.9,22.21,8.21,104.31,366,10.44829569222122,99.25333758953576,Unhealthy for Sensitive,#ff7e00,ฝาง|เชียงใหม่,11048831.0,1169599.379
เวียงเชียงรุ้ง,เชียงราย,28.67,25.72,7.41,127.76,366,10.441599338517843,99.29491674128194,Unhealthy for Sensitive,#ff7e00,เวียงเชียงรุ้ง|เชียงราย,11053459.57,1168841.384
สะเมิง,เชียงใหม่,27.68,20.95,8.34,102.51,366,10.424971302897179,99.31494243475316,Unhealthy for Sensitive,#ff7e00,สะเมิง|เชียงใหม่,11055688.82,1166959.241
ดอยหลวง,เชียงราย,30.38,27.93,8.29,140.73,366,10.398538880404423,99.34896819226435,Unhealthy for Sensitive,#ff7e00,ดอยหลวง|เชียงราย,11059476.55,1163967.537
ดอยสะเก็ด,เชียงใหม่,27.64,20.66,8.27,104.32,366,10.390378598120016,99.29341628526286,Unhealthy for Sensitive,#ff7e00,ดอยสะเก็ด|เชียงใหม่,11053292.54,1163043.982
จอมทอง,เชียงใหม่,26.94,19.21,8.14,88.5,366,10.37624564493978,99.32199124529306,Unhealthy for Sensitive,#ff7e00,จอมทอง|เชียงใหม่,11056473.49,1161444.516
แม่แตง,เชียงใหม่,27.72,20.96,8.36,101.63,366,10.362938667266942,99.30964210508226,Unhealthy for Sensitive,#ff7e00,แม่แตง|เชียงใหม่,11055098.79,1159938.594
แม่อาย,เชียงใหม่,28.36,23.59,8.05,113.85,366,10.34868324038509,99.29478109567403,Unhealthy for Sensitive,#ff7e00,แม่อาย|เชียงใหม่,11053444.47,1158325.409
เมืองเชียงใหม่,เชียงใหม่,27.24,22.29,7.36,128.94,366,10.32457806592667,99.28148045991429,Unhealthy for Sensitive,#ff7e00,เมืองเชียงใหม่|เชียงใหม่,11051963.85,1155597.765
แม่ริม,เชียงใหม่,28.51,21.46,9.0,111.79,366,10.319245608934208,99.30002770609093,Unhealthy for Sensitive,#ff7e00,แม่ริม|เชียงใหม่,11054028.52,1154994.394
เมืองตราด,ตราด,16.27,7.65,6.24,40.25,366,10.295983520686635,99.24730827701181,Moderate,#ffff00,เมืองตราด|ตราด,11048159.82,1152362.393
เกาะกูด,ตราด,19.86,8.66,9.15,44.57,366,10.291483586133479,99.24138586400665,Moderate,#ffff00,เกาะกูด|ตราด,11047500.54,1151853.268
นาโยง,ตรัง,12.49,3.32,7.74,24.76,366,10.271542153603457,99.23340020045696,Moderate,#ffff00,นาโยง|ตรัง,11046611.58,1149597.171
หาดสำราญ,ตรัง,13.72,3.45,9.29,24.74,366,10.255816859056658,99.22630081476655,Moderate,#ffff00,หาดสำราญ|ตรัง,11045821.28,1147818.172
ห้วยยอด,ตรัง,13.01,3.44,8.2,24.82,366,10.25519532668739,99.25653002239247,Moderate,#ffff00,ห้วยยอด|ตรัง,11049186.38,1147747.86
วังวิเศษ,ตรัง,13.32,3.53,8.5,24.98,366,10.248184103921332,99.22364799990103,Moderate,#ffff00,วังวิเศษ|ตรัง,11045525.97,1146954.712
บ่อไร่,ตราด,18.69,8.32,8.14,41.96,366,10.246992632869565,99.2487942701548,Moderate,#ffff00,บ่อไร่|ตราด,11048325.24,1146819.928
สิเกา,ตรัง,12.99,3.44,8.2,24.94,366,10.239841546699113,99.01680605482997,Moderate,#ffff00,สิเกา|ตรัง,11022500.43,1146010.979
เขาสมิง,ตราด,17.74,7.97,7.53,40.8,366,10.222286721711239,99.24294929192713,Moderate,#ffff00,เขาสมิง|ตราด,11047674.58,1144025.21
คลองใหญ่,ตราด,19.6,8.62,8.87,43.91,366,10.207961022673055,99.24892587334392,Moderate,#ffff00,คลองใหญ่|ตราด,11048339.89,1142404.795
รัษฎา,ตรัง,14.23,3.77,9.38,25.0,366,10.200450239249635,99.24873336437854,Moderate,#ffff00,รัษฎา|ตรัง,11048318.46,1141555.261
แหลมงอบ,ตราด,17.18,7.82,7.14,40.68,366,10.19671424073092,99.22112139833291,Moderate,#ffff00,แหลมงอบ|ตราด,11045244.71,1141132.695
อุ้มผาง,ตาก,25.08,13.66,9.48,59.74,366,10.164836745291757,99.17667401571607,Hazardous,#7e0023,อุ้มผาง|ตาก,11040296.85,1137527.342
สามเงา,ตาก,26.34,17.42,8.07,74.23,366,10.154795888251126,99.2179558251032,Unhealthy for Sensitive,#ff7e00,สามเงา|ตาก,11044892.32,1136391.793
แม่ระมาด,ตาก,26.14,17.63,7.65,81.23,366,10.1507388840407,99.20414925817546,Unhealthy for Sensitive,#ff7e00,แม่ระมาด|ตาก,11043355.38,1135932.985
เมืองตาก,ตาก,26.5,17.64,7.74,77.37,366,10.14420423037208,99.17830859020707,Unhealthy for Sensitive,#ff7e00,เมืองตาก|ตาก,11040478.81,1135193.991
ท่าสองยาง,ตาก,26.04,16.86,8.42,70.2,366,10.132433596174403,99.16291955107482,Unhealthy for Sensitive,#ff7e00,ท่าสองยาง|ตาก,11038765.71,1133862.906
พบพระ,ตาก,25.92,16.91,7.82,77.73,366,10.131106879576944,99.1652889474682,Unhealthy for Sensitive,#ff7e00,พบพระ|ตาก,11039029.47,1133712.877
แม่สอด,ตาก,26.25,19.14,6.73,94.14,366,10.117854162672906,99.21582115849354,Unhealthy for Sensitive,#ff7e00,แม่สอด|ตาก,11044654.69,1132214.255
เกาะช้าง,ตราด,18.21,8.09,7.95,41.37,366,10.091393405403151,99.04917154603304,Moderate,#ffff00,เกาะช้าง|ตราด,11026103.34,1129222.248
ศรีสัชนาลัย,สุโขทัย,26.79,18.21,7.73,77.0,366,10.081658532268694,98.78154931934387,Unhealthy for Sensitive,#ff7e00,ศรีสัชนาลัย|สุโขทัย,10996311.77,1128121.555
บ้านตาก,ตาก,26.48,17.57,7.88,77.28,366,10.070980154582452,99.18451828444006,Unhealthy for Sensitive,#ff7e00,บ้านตาก|ตาก,11041170.07,1126914.221
กันตัง,ตรัง,12.78,3.37,8.05,24.85,366,10.052034467764654,99.18720604377015,Moderate,#ffff00,กันตัง|ตรัง,11041469.27,1124772.255
เมืองตรัง,ตรัง,11.88,3.3,7.06,24.98,366,9.939597266360996,99.0458221774962,Good,#00e400,เมืองตรัง|ตรัง,11025730.49,1112062.878
วังม่วง,สระบุรี,25.37,10.72,11.37,59.34,366,9.931192149799623,98.48275923538843,Unhealthy for Sensitive,#ff7e00,วังม่วง|สระบุรี,10963050.61,1111112.979
เมืองสุโขทัย,สุโขทัย,32.23,28.36,4.71,141.98,366,9.925593405953396,98.51388199722744,Unhealthy for Sensitive,#ff7e00,เมืองสุโขทัย|สุโขทัย,10966515.18,1110480.254
อินทร์บุรี,สิงห์บุรี,25.74,12.8,8.9,63.42,366,9.919670609881058,98.53537059713886,Unhealthy for Sensitive,#ff7e00,อินทร์บุรี|สิงห์บุรี,10968907.28,1109810.919
มวกเหล็ก,สระบุรี,24.53,10.47,11.18,57.29,366,9.914970523539322,98.51406480438776,Moderate,#ffff00,มวกเหล็ก|สระบุรี,10966535.53,1109279.771
คีรีมาศ,สุโขทัย,29.31,22.58,6.44,106.81,366,9.91448951012529,98.52606018803966,Unhealthy for Sensitive,#ff7e00,คีรีมาศ|สุโขทัย,10967870.85,1109225.413
พระพุทธบาท,สระบุรี,29.69,11.76,12.7,73.3,366,9.904967904443865,98.48058144964513,Unhealthy for Sensitive,#ff7e00,พระพุทธบาท|สระบุรี,10962808.18,1108149.419
เฉลิมพระเกียรติ,สระบุรี,30.8,11.97,13.17,76.85,366,9.9026361709067,98.5121877746016,Unhealthy for Sensitive,#ff7e00,เฉลิมพระเกียรติ|สระบุรี,10966326.58,1107885.925
บ้านหมอ,สระบุรี,26.13,11.05,11.47,62.36,366,9.879563431236193,98.62258308733998,Unhealthy for Sensitive,#ff7e00,บ้านหมอ|สระบุรี,10978615.73,1105278.726
กงไกรลาศ,สุโขทัย,29.7,23.04,6.32,110.76,366,9.877382746194531,98.44221611065942,Unhealthy for Sensitive,#ff7e00,กงไกรลาศ|สุโขทัย,10958537.37,1105032.32
บางระจัน,สิงห์บุรี,25.59,12.74,8.75,63.54,366,9.865704039238837,98.47183401473448,Unhealthy for Sensitive,#ff7e00,บางระจัน|สิงห์บุรี,10961834.42,1103712.715
ดอนพุด,สระบุรี,25.14,11.09,10.93,60.43,366,9.833126481738358,98.44997854286105,Unhealthy for Sensitive,#ff7e00,ดอนพุด|สระบุรี,10959401.48,1100031.946
ปะเหลียน,ตรัง,14.16,3.38,9.71,24.4,366,9.812986459325119,98.79929194452052,Moderate,#ffff00,ปะเหลียน|ตรัง,10998286.87,1097756.611
พรหมบุรี,สิงห์บุรี,25.74,12.61,9.21,63.69,366,9.782601873439743,98.44687899580471,Unhealthy for Sensitive,#ff7e00,พรหมบุรี|สิงห์บุรี,10959056.44,1094324.15
บ้านด่านลานหอย,สุโขทัย,28.08,20.25,7.26,92.88,366,9.779032548116323,98.47693410992855,Unhealthy for Sensitive,#ff7e00,บ้านด่านลานหอย|สุโขทัย,10962402.16,1093920.954
เมืองสิงห์บุรี,สิงห์บุรี,26.41,14.8,5.42,79.86,366,9.769441179710636,98.46355208680409,Unhealthy for Sensitive,#ff7e00,เมืองสิงห์บุรี|สิงห์บุรี,10960912.48,1092837.521
ย่านตาขาว,ตรัง,12.88,3.33,8.24,24.74,366,9.757222266935008,99.02175685002382,Moderate,#ffff00,ย่านตาขาว|ตรัง,11023051.55,1091457.328
หนองโดน,สระบุรี,26.42,11.61,11.38,64.27,366,9.736013827976157,98.40505199887164,Unhealthy for Sensitive,#ff7e00,หนองโดน|สระบุรี,10954400.28,1089061.839
ค่ายบางระจัน,สิงห์บุรี,25.47,12.58,8.94,62.63,366,9.735511145849923,98.48565953611474,Unhealthy for Sensitive,#ff7e00,ค่ายบางระจัน|สิงห์บุรี,10963373.47,1089005.063
ท่าช้าง,สิงห์บุรี,25.62,12.65,8.9,63.88,366,9.716259301630597,98.42357148710599,Unhealthy for Sensitive,#ff7e00,ท่าช้าง|สิงห์บุรี,10956461.86,1086830.706
เสาไห้,สระบุรี,26.14,10.87,11.79,63.06,366,9.703001875041599,98.50628153127157,Unhealthy for Sensitive,#ff7e00,เสาไห้|สระบุรี,10965669.1,1085333.448
เมืองสุพรรณบุรี,สุพรรณบุรี,22.24,12.2,6.36,56.44,366,9.595208541132996,98.46869718759388,Moderate,#ffff00,เมืองสุพรรณบุรี|สุพรรณบุรี,10961485.23,1073161.751
สวรรคโลก,สุโขทัย,28.26,20.38,7.28,93.5,366,9.581485629109741,98.46659989090004,Unhealthy for Sensitive,#ff7e00,สวรรคโลก|สุโขทัย,10961251.76,1071612.48
ศรีนคร,สุโขทัย,27.31,18.5,7.68,80.49,366,9.577395710948615,98.48093861980209,Unhealthy for Sensitive,#ff7e00,ศรีนคร|สุโขทัย,10962847.94,1071150.754
ทุ่งเสลี่ยม,สุโขทัย,27.33,18.93,7.63,83.61,366,9.574659215454735,98.51818097485112,Unhealthy for Sensitive,#ff7e00,ทุ่งเสลี่ยม|สุโขทัย,10966993.74,1070841.824
สามชุก,สุพรรณบุรี,24.15,11.33,9.91,53.7,366,9.568557715768007,98.38356663289524,Moderate,#ffff00,สามชุก|สุพรรณบุรี,10952008.54,1070153.019
ศรีสำโรง,สุโขทัย,29.7,23.23,6.43,111.45,366,9.564455692145543,98.62071162710856,Unhealthy for Sensitive,#ff7e00,ศรีสำโรง|สุโขทัย,10978407.4,1069689.944
ดอนเจดีย์,สุพรรณบุรี,23.59,11.16,9.41,51.33,366,9.543529459811987,98.48186837612117,Moderate,#ffff00,ดอนเจดีย์|สุพรรณบุรี,10962951.44,1067327.681
อู่ทอง,สุพรรณบุรี,23.28,10.89,9.43,50.68,366,9.514695484513073,98.35764376907835,Moderate,#ffff00,อู่ทอง|สุพรรณบุรี,10949122.82,1064072.988
เมืองสุราษฎร์ธานี,สุราษฎร์ธานี,14.94,4.45,7.94,27.82,366,9.500944033319156,98.36845346638675,Moderate,#ffff00,เมืองสุราษฎร์ธานี|สุราษฎร์ธานี,10950326.15,1062520.862
กาญจนดิษฐ์,สุราษฎร์ธานี,15.61,4.71,9.15,27.78,366,9.500022032335288,98.37351098143634,Moderate,#ffff00,กาญจนดิษฐ์|สุราษฎร์ธานี,10950889.15,1062416.798
บ้านฉาง,ระยอง,19.22,8.29,8.81,44.86,366,9.494779717065077,97.87395345019257,Moderate,#ffff00,บ้านฉาง|ระยอง,10895278.66,1061825.116
บางปลาม้า,สุพรรณบุรี,23.06,10.92,9.03,49.45,366,9.48685558681296,98.34244975419429,Moderate,#ffff00,บางปลาม้า|สุพรรณบุรี,10947431.43,1060930.764
ศรีประจันต์,สุพรรณบุรี,23.59,11.26,9.2,51.16,366,9.484273439269879,98.37674841988877,Moderate,#ffff00,ศรีประจันต์|สุพรรณบุรี,10951249.54,1060639.336
ละอุ่น,ระนอง,20.12,7.89,10.17,41.7,366,9.476593688638882,97.90393310583258,Moderate,#ffff00,ละอุ่น|ระนอง,10898615.98,1059772.592
เมืองระยอง,ระยอง,19.12,8.32,8.69,44.13,366,9.471507787422786,97.87608398455194,Moderate,#ffff00,เมืองระยอง|ระยอง,10895515.83,1059198.603
หนองหญ้าไซ,สุพรรณบุรี,24.14,11.25,10.11,53.82,366,9.457367961015525,98.32702181801024,Moderate,#ffff00,หนองหญ้าไซ|สุพรรณบุรี,10945714.0,1057602.843
สองพี่น้อง,สุพรรณบุรี,23.38,10.4,10.43,52.79,366,9.435954280763179,98.35223582123643,Moderate,#ffff00,สองพี่น้อง|สุพรรณบุรี,10948520.81,1055186.312
สุวรรณภูมิ,ร้อยเอ็ด,23.97,13.57,7.87,63.18,366,9.427854597928105,97.87326507119036,Moderate,#ffff00,สุวรรณภูมิ|ร้อยเอ็ด,10895202.03,1054272.303
ทุ่งเขาหลวง,ร้อยเอ็ด,25.07,14.13,8.34,64.98,366,9.42214891600606,97.83154659074363,Hazardous,#7e0023,ทุ่งเขาหลวง|ร้อยเอ็ด,10890557.95,1053628.458
ด่านช้าง,สุพรรณบุรี,24.31,11.38,10.35,54.3,366,9.41361530960848,98.52347295018987,Moderate,#ffff00,ด่านช้าง|สุพรรณบุรี,10967582.84,1052665.522
แกลง,ระยอง,20.02,8.6,9.55,46.4,366,9.40585278615339,97.90166791401212,Moderate,#ffff00,แกลง|ระยอง,10898363.82,1051789.616
ดอนสัก,สุราษฎร์ธานี,16.44,5.15,9.66,28.76,366,9.400629579822741,98.39209469921352,Moderate,#ffff00,ดอนสัก|สุราษฎร์ธานี,10952957.88,1051200.252
สุขสำราญ,ระนอง,18.77,6.8,10.06,36.65,366,9.396592247617475,97.8939698910164,Moderate,#ffff00,สุขสำราญ|ระนอง,10897506.88,1050744.703
หนองฮี,ร้อยเอ็ด,24.35,14.52,6.99,68.01,366,9.370525933277936,97.86591649284016,Moderate,#ffff00,หนองฮี|ร้อยเอ็ด,10894383.99,1047803.66
ทุ่งยางแดง,ปัตตานี,15.53,3.03,9.14,24.2,366,9.324093159890198,99.77511225438636,Moderate,#ffff00,ทุ่งยางแดง|ปัตตานี,11106914.69,1042565.231
มายอ,ปัตตานี,15.59,3.03,9.24,24.23,366,9.190351467369007,99.80828533102985,Moderate,#ffff00,มายอ|ปัตตานี,11110607.5,1027480.711
เสลภูมิ,ร้อยเอ็ด,25.03,14.35,7.94,66.52,366,9.157072981246671,98.38669339890467,Hazardous,#7e0023,เสลภูมิ|ร้อยเอ็ด,10952356.61,1023728.17
โพนทราย,ร้อยเอ็ด,23.65,13.74,7.44,64.15,366,9.069554264416935,97.81225715647926,Moderate,#ffff00,โพนทราย|ร้อยเอ็ด,10888410.66,1013861.078
ปะนาเระ,ปัตตานี,15.6,3.26,10.2,24.69,366,8.949019141441841,99.80888585479728,Moderate,#ffff00,ปะนาเระ|ปัตตานี,11110674.35,1000275.562
หนองพอก,ร้อยเอ็ด,24.82,13.77,8.59,61.65,366,8.844550155137854,98.32624450579488,Moderate,#ffff00,หนองพอก|ร้อยเอ็ด,10945627.47,988504.503
เมืองระนอง,ระนอง,19.74,7.58,10.13,40.21,366,8.82772217411373,97.80174929310633,Moderate,#ffff00,เมืองระนอง|ระนอง,10887240.93,986608.721
แม่ลาน,ปัตตานี,15.62,2.94,8.82,24.05,366,8.755296140903678,99.67607775538319,Moderate,#ffff00,แม่ลาน|ปัตตานี,11095890.22,978450.44
โพนทอง,ร้อยเอ็ด,25.55,13.99,9.26,62.79,366,8.73995768023795,98.46592651376307,Unhealthy for Sensitive,#ff7e00,โพนทอง|ร้อยเอ็ด,10961176.8,976722.875
ประจันตคาม,ปราจีนบุรี,22.9,9.62,11.08,54.29,366,8.699917114421734,99.87921864148366,Moderate,#ffff00,ประจันตคาม|ปราจีนบุรี,11118503.76,972213.456
จังหาร,ร้อยเอ็ด,27.07,14.62,10.2,66.07,366,8.672749671093321,97.6378026215042,Unhealthy for Sensitive,#ff7e00,จังหาร|ร้อยเอ็ด,10868990.47,969154.099
เมืองสรวง,ร้อยเอ็ด,24.51,13.67,8.37,62.73,366,8.643265962062346,97.6363216589268,Moderate,#ffff00,เมืองสรวง|ร้อยเอ็ด,10868825.61,965834.155
กบินทร์บุรี,ปราจีนบุรี,23.37,10.04,11.68,55.94,366,8.597663165342489,99.59985714083011,Moderate,#ffff00,กบินทร์บุรี|ปราจีนบุรี,11087405.38,960699.67
เชียงขวัญ,ร้อยเอ็ด,26.21,14.25,9.62,64.39,366,8.592746024990987,97.62993733220256,Unhealthy for Sensitive,#ff7e00,เชียงขวัญ|ร้อยเอ็ด,10868114.91,960146.079
กะเปอร์,ระนอง,18.74,6.79,10.03,36.59,366,8.56866355134105,97.63646089779584,Moderate,#ffff00,กะเปอร์|ระนอง,10868841.11,957434.883
ศรีสมเด็จ,ร้อยเอ็ด,25.79,13.69,9.84,61.11,366,8.564863372806983,97.62631146222127,Unhealthy for Sensitive,#ff7e00,ศรีสมเด็จ|ร้อยเอ็ด,10867711.28,957007.076
ปลายพระยา,กระบี่,16.82,5.24,10.06,30.0,366,8.547609354721931,98.8312271427025,Moderate,#ffff00,ปลายพระยา|กระบี่,11001841.88,955064.75
หัวหิน,ประจวบคีรีขันธ์,21.88,9.96,9.36,53.04,366,8.546154885960174,99.8069869061182,Moderate,#ffff00,หัวหิน|ประจวบคีรีขันธ์,11110462.96,954901.021
วังจันทร์,ระยอง,20.2,8.7,9.61,47.34,366,8.531306193439887,98.63157145040981,Moderate,#ffff00,วังจันทร์|ระยอง,10979616.31,953229.545
กระบุรี,ระนอง,20.96,8.56,10.26,44.84,366,8.518818611897442,97.64746517019478,Moderate,#ffff00,กระบุรี|ระนอง,10870066.1,951823.903
อาจสามารถ,ร้อยเอ็ด,24.79,14.29,7.75,66.38,366,8.507117560624055,97.63244453016054,Moderate,#ffff00,อาจสามารถ|ร้อยเอ็ด,10868394.01,950506.837
บ้านค่าย,ระยอง,19.44,8.44,9.12,45.81,366,8.492832478692854,98.31197144374009,Moderate,#ffff00,บ้านค่าย|ระยอง,10944038.6,948898.968
เมยวดี,ร้อยเอ็ด,25.03,13.71,9.12,60.92,366,8.482383787626544,97.63830199497065,Hazardous,#7e0023,เมยวดี|ร้อยเอ็ด,10869046.06,947722.945
เมืองปราจีนบุรี,ปราจีนบุรี,22.23,9.17,10.58,53.22,366,8.479295272471598,99.52953207965516,Moderate,#ffff00,เมืองปราจีนบุรี|ปราจีนบุรี,11079576.83,947375.332
ปทุมรัตต์,ร้อยเอ็ด,23.63,12.54,8.96,58.89,366,8.467565471583079,98.51353084578288,Moderate,#ffff00,ปทุมรัตต์|ร้อยเอ็ด,10966476.09,946055.166
ยะหริ่ง,ปัตตานี,15.68,3.17,10.11,24.57,366,8.461138748206382,99.38141219622324,Moderate,#ffff00,ยะหริ่ง|ปัตตานี,11063088.2,945331.868
ปราณบุรี,ประจวบคีรีขันธ์,21.97,9.84,9.65,52.53,366,8.434125929340352,99.97157533415927,Moderate,#ffff00,ปราณบุรี|ประจวบคีรีขันธ์,11128784.86,942291.832
สามร้อยยอด,ประจวบคีรีขันธ์,22.01,9.73,9.89,52.02,366,8.376884574322066,99.77565483681796,Moderate,#ffff00,สามร้อยยอด|ประจวบคีรีขันธ์,11106975.09,935850.563
อ่าวลึก,กระบี่,16.67,5.06,10.23,29.54,366,8.363999978682358,98.7496540063605,Moderate,#ffff00,อ่าวลึก|กระบี่,10992761.2,934400.813
พระนครศรีอยุธยา,พระนครศรีอยุธยา,22.17,11.2,7.79,57.99,366,8.355331532231693,99.629025527937,Moderate,#ffff00,พระนครศรีอยุธยา|พระนครศรีอยุธยา,11090652.39,933425.483
กะพ้อ,ปัตตานี,15.35,3.15,9.48,24.35,366,8.324287009024388,99.93520883651227,Moderate,#ffff00,กะพ้อ|ปัตตานี,11124736.56,929932.687
โคกโพธิ์,ปัตตานี,15.62,2.97,9.59,24.15,366,8.3102251679738,100.16755583896158,Moderate,#ffff00,โคกโพธิ์|ปัตตานี,11150601.31,928350.691
เมืองปัตตานี,ปัตตานี,15.72,3.12,10.25,24.51,366,8.29177561254824,99.3727181212405,Moderate,#ffff00,เมืองปัตตานี|ปัตตานี,11062120.38,926275.151
เขาพนม,กระบี่,16.15,4.79,9.96,28.13,366,8.273288174712146,99.12021166617414,Moderate,#ffff00,เขาพนม|กระบี่,11034011.49,924195.447
ศรีมโหสถ,ปราจีนบุรี,23.22,9.81,11.51,55.53,366,8.269380543072211,99.55112030273159,Moderate,#ffff00,ศรีมโหสถ|ปราจีนบุรี,11081980.02,923755.879
โพธิ์ชัย,ร้อยเอ็ด,27.0,14.7,10.07,66.3,366,8.268528628218258,98.41240659593427,Unhealthy for Sensitive,#ff7e00,โพธิ์ชัย|ร้อยเอ็ด,10955218.99,923660.048
หนองจิก,ปัตตานี,15.69,3.04,10.07,24.35,366,8.195975838744623,99.88645861351604,Moderate,#ffff00,หนองจิก|ปัตตานี,11119309.71,915499.419
ท่าเรือ,พระนครศรีอยุธยา,24.94,10.73,11.09,59.8,366,8.175335205258703,100.03803485483512,Moderate,#ffff00,ท่าเรือ|พระนครศรีอยุธยา,11136183.1,913178.064
ธวัชบุรี,ร้อยเอ็ด,25.37,13.94,8.97,63.29,366,8.131076632538413,98.61022667077539,Unhealthy for Sensitive,#ff7e00,ธวัชบุรี|ร้อยเอ็ด,10977240.22,908200.915
นาดี,ปราจีนบุรี,23.02,9.93,11.18,54.33,366,8.121053380599827,100.15216635067168,Moderate,#ffff00,นาดี|ปราจีนบุรี,11148888.16,907073.815
กุดบาก,สกลนคร,22.52,12.37,7.96,56.86,366,8.116442138222107,98.42532454938295,Moderate,#ffff00,กุดบาก|สกลนคร,10956657.01,906555.297
ศรีมหาโพธิ,ปราจีนบุรี,24.71,10.73,12.94,60.72,366,8.114982979772241,99.65708557364633,Moderate,#ffff00,ศรีมหาโพธิ|ปราจีนบุรี,11093776.02,906391.221
กุสุมาลย์,สกลนคร,21.4,12.17,6.76,58.34,366,8.107066261845974,98.40295964291187,Moderate,#ffff00,กุสุมาลย์|สกลนคร,10954167.36,905501.031
ยะรัง,ปัตตานี,15.62,2.97,8.95,24.11,366,8.074637282413601,99.8629562602322,Moderate,#ffff00,ยะรัง|ปัตตานี,11116693.44,901854.759
ศิลาลาด,ศรีสะเกษ,23.67,14.12,7.08,65.65,366,8.060688239537948,98.44655793792217,Moderate,#ffff00,ศิลาลาด|ศรีสะเกษ,10959020.7,900286.437
พยุห์,ศรีสะเกษ,20.8,14.19,5.71,63.29,366,8.055480730397727,98.34482238452271,Moderate,#ffff00,พยุห์|ศรีสะเกษ,10947695.55,899700.959
เหนือคลอง,กระบี่,15.83,4.54,10.06,27.06,366,8.054591446953152,99.04220663814067,Moderate,#ffff00,เหนือคลอง|กระบี่,11025328.01,899600.978
โพธิ์ศรีสุวรรณ,ศรีสะเกษ,21.94,13.61,6.74,62.62,366,8.052462223291807,98.46519169186065,Moderate,#ffff00,โพธิ์ศรีสุวรรณ|ศรีสะเกษ,10961095.0,899361.593
ลำทับ,กระบี่,15.27,4.28,9.78,25.7,366,8.045493526022767,99.33468363177391,Moderate,#ffff00,ลำทับ|กระบี่,11057886.4,898578.123
เมืองสกลนคร,สกลนคร,18.69,11.07,5.02,59.7,366,8.028124451700414,98.46057704624614,Moderate,#ffff00,เมืองสกลนคร|สกลนคร,10960581.3,896625.428
สายบุรี,ปัตตานี,15.39,3.24,9.85,24.55,366,8.009504620098404,100.24404217517571,Moderate,#ffff00,สายบุรี|ปัตตานี,11159115.73,894532.211
จตุรพักตรพิมาน,ร้อยเอ็ด,24.61,13.18,9.21,59.56,366,8.008147054447461,98.57903527764864,Moderate,#ffff00,จตุรพักตรพิมาน|ร้อยเอ็ด,10973768.01,894379.599
ไม้แก่น,ปัตตานี,15.03,3.34,9.46,24.52,366,8.00482593121299,99.47962563505672,Moderate,#ffff00,ไม้แก่น|ปัตตานี,11074021.27,894006.254
วังหิน,ศรีสะเกษ,20.56,14.21,5.33,64.03,366,7.965432489734637,98.45153532324841,Moderate,#ffff00,วังหิน|ศรีสะเกษ,10959574.78,889578.061
บ้านสร้าง,ปราจีนบุรี,22.45,9.26,10.71,52.88,366,7.9577269072397,99.98441890710245,Moderate,#ffff00,บ้านสร้าง|ปราจีนบุรี,11130214.6,888711.931
ปรางค์กู่,ศรีสะเกษ,21.59,13.0,7.06,61.17,366,7.956547272107434,98.44845491030763,Moderate,#ffff00,ปรางค์กู่|ศรีสะเกษ,10959231.87,888579.338
ปากพนัง,นครศรีธรรมราช,14.82,4.03,8.67,27.57,366,7.939318890645373,99.66560771108371,Moderate,#ffff00,ปากพนัง|นครศรีธรรมราช,11094724.7,886642.882
กันทรลักษ์,ศรีสะเกษ,22.63,12.89,8.03,56.87,366,7.9364349378386345,98.42731539571564,Moderate,#ffff00,กันทรลักษ์|ศรีสะเกษ,10956878.63,886318.736
เมืองจันทร์,ศรีสะเกษ,21.87,13.45,6.83,62.13,366,7.924384078224152,98.45561798655169,Moderate,#ffff00,เมืองจันทร์|ศรีสะเกษ,10960029.26,884964.287
เบญจลักษ์,ศรีสะเกษ,22.77,13.73,7.71,60.54,366,7.917448963500254,98.3139288727442,Moderate,#ffff00,เบญจลักษ์|ศรีสะเกษ,10944256.5,884184.837
คลองท่อม,กระบี่,15.05,4.17,9.8,25.51,366,7.901497338559309,99.19979206972137,Moderate,#ffff00,คลองท่อม|กระบี่,11042870.34,882392.055
พนมไพร,ร้อยเอ็ด,25.25,15.85,5.43,76.37,366,7.891714259673731,98.58122689744732,Unhealthy for Sensitive,#ff7e00,พนมไพร|ร้อยเอ็ด,10974011.98,881292.582
เมืองศรีสะเกษ,ศรีสะเกษ,19.51,15.06,3.34,66.64,366,7.866593133121285,98.35784768664784,Moderate,#ffff00,เมืองศรีสะเกษ|ศรีสะเกษ,10949145.52,878469.459
โนนคูณ,ศรีสะเกษ,22.84,14.3,7.52,64.12,366,7.834042997134098,98.42309870377197,Moderate,#ffff00,โนนคูณ|ศรีสะเกษ,10956409.23,874811.715
ขุนหาญ,ศรีสะเกษ,22.27,12.6,7.91,57.87,366,7.828799266228881,98.41456821200244,Moderate,#ffff00,ขุนหาญ|ศรีสะเกษ,10955459.62,874222.49
โพธาราม,ราชบุรี,23.63,10.95,10.49,55.35,366,7.825720507554696,99.86349021883709,Moderate,#ffff00,โพธาราม|ราชบุรี,11116752.88,873876.541
ภูสิงห์,ศรีสะเกษ,22.11,12.23,8.02,58.47,366,7.820520991962344,98.28549324141457,Moderate,#ffff00,ภูสิงห์|ศรีสะเกษ,10941091.06,873292.296
เหล่าเสือโก้ก,อุบลราชธานี,24.38,15.96,7.93,76.87,366,7.792350273959102,100.29458381851154,Moderate,#ffff00,เหล่าเสือโก้ก|อุบลราชธานี,11164742.0,870127.012
ทุ่งสง,นครศรีธรรมราช,14.96,4.07,9.62,25.78,366,7.791680257318396,99.60642319673632,Moderate,#ffff00,ทุ่งสง|นครศรีธรรมราช,11088136.31,870051.731
กันทรารมย์,ศรีสะเกษ,22.27,14.71,6.87,64.7,366,7.78754948639798,98.37222549226477,Moderate,#ffff00,กันทรารมย์|ศรีสะเกษ,10950746.05,869587.613
น้ำเกลี้ยง,ศรีสะเกษ,21.64,14.09,6.59,61.09,366,7.7665162322194,98.29967826857151,Moderate,#ffff00,น้ำเกลี้ยง|ศรีสะเกษ,10942670.13,867224.466
จอมบึง,ราชบุรี,23.5,10.75,10.56,54.74,366,7.764355373726662,100.05987819945224,Moderate,#ffff00,จอมบึง|ราชบุรี,11138614.69,866981.694
บึงบูรพ์,ศรีสะเกษ,22.4,13.61,7.0,62.77,366,7.761585294466179,98.39477087027642,Moderate,#ffff00,บึงบูรพ์|ศรีสะเกษ,10953255.79,866670.478
อุทุมพรพิสัย,ศรีสะเกษ,20.73,14.21,5.5,64.17,366,7.7571486489460275,98.3314294917833,Moderate,#ffff00,อุทุมพรพิสัย|ศรีสะเกษ,10946204.66,866172.029
นาบอน,นครศรีธรรมราช,15.34,4.3,9.67,26.95,366,7.74783497600648,99.41288691799059,Moderate,#ffff00,นาบอน|นครศรีธรรมราช,11066591.95,865125.672
ห้วยทับทัน,ศรีสะเกษ,21.46,13.38,6.64,61.86,366,7.746789900109621,98.30104164167821,Moderate,#ffff00,ห้วยทับทัน|ศรีสะเกษ,10942821.9,865008.263
ขุขันธ์,ศรีสะเกษ,21.72,12.98,7.26,59.95,366,7.743361370003404,98.37174821735431,Moderate,#ffff00,ขุขันธ์|ศรีสะเกษ,10950692.92,864623.087
ศรีรัตนะ,ศรีสะเกษ,21.84,13.61,7.04,60.16,366,7.7364915416380375,98.2961750186265,Moderate,#ffff00,ศรีรัตนะ|ศรีสะเกษ,10942280.15,863851.31
ดำเนินสะดวก,ราชบุรี,23.04,10.93,10.04,54.89,366,7.6874802903462,99.86403199278492,Moderate,#ffff00,ดำเนินสะดวก|ราชบุรี,11116813.19,858345.604
ปลวกแดง,ระยอง,19.16,9.01,8.53,48.64,366,7.6154973512814665,100.10338935787998,Moderate,#ffff00,ปลวกแดง|ระยอง,11143458.33,850260.512
เมืองกระบี่,กระบี่,16.23,4.73,10.27,28.48,366,7.614876605213525,98.86391261380977,Moderate,#ffff00,เมืองกระบี่|กระบี่,11005480.41,850190.796
สว่างวีระวงศ์,อุบลราชธานี,24.41,16.07,7.97,77.73,366,7.609685403394154,100.2946219969111,Moderate,#ffff00,สว่างวีระวงศ์|อุบลราชธานี,11164746.25,849607.776
สีคิ้ว,นครราชสีมา,24.09,10.62,11.09,55.2,366,7.609509112275227,99.61945056498662,Moderate,#ffff00,สีคิ้ว|นครราชสีมา,11089586.51,849587.977
ยางชุมน้อย,ศรีสะเกษ,21.03,14.46,5.69,63.89,366,7.601947144313236,98.36537745519088,Moderate,#ffff00,ยางชุมน้อย|ศรีสะเกษ,10949983.73,848738.711
ลานสกา,นครศรีธรรมราช,14.61,3.96,8.29,27.37,366,7.6002695629836525,99.35651781357515,Moderate,#ffff00,ลานสกา|นครศรีธรรมราช,11060316.97,848550.308
เกาะลันตา,กระบี่,15.06,4.13,9.89,25.58,366,7.575593242509564,99.14163882132013,Moderate,#ffff00,เกาะลันตา|กระบี่,11036396.75,845779.086
ปากท่อ,ราชบุรี,23.41,10.85,10.33,55.0,366,7.562918379109349,99.90368865999156,Moderate,#ffff00,ปากท่อ|ราชบุรี,11121227.75,844355.724
ทุ่งใหญ่,นครศรีธรรมราช,15.74,4.55,9.78,27.13,366,7.559356539411645,99.74425979561634,Moderate,#ffff00,ทุ่งใหญ่|นครศรีธรรมราช,11103480.21,843955.744
เชียรใหญ่,นครศรีธรรมราช,15.23,4.13,9.62,27.14,366,7.559127064312323,99.28819231239112,Moderate,#ffff00,เชียรใหญ่|นครศรีธรรมราช,11052711.01,843929.975
ชะอวด,นครศรีธรรมราช,14.99,3.97,9.73,25.38,366,7.548741899458762,99.28294121039781,Moderate,#ffff00,ชะอวด|นครศรีธรรมราช,11052126.46,842763.783
พิปูน,นครศรีธรรมราช,15.64,4.51,9.64,27.85,366,7.547407055263046,99.27899527068078,Moderate,#ffff00,พิปูน|นครศรีธรรมราช,11051687.2,842613.89
ไพรบึง,ศรีสะเกษ,21.6,13.41,6.91,60.63,366,7.511716451819744,98.3280211937638,Moderate,#ffff00,ไพรบึง|ศรีสะเกษ,10945825.25,838606.274
ฉวาง,นครศรีธรรมราช,15.63,4.49,9.67,27.7,366,7.493960102684301,99.3015743355156,Moderate,#ffff00,ฉวาง|นครศรีธรรมราช,11054200.69,836612.577
ราษีไศล,ศรีสะเกษ,22.41,13.93,6.78,63.6,366,7.488926011188399,98.31851162816614,Moderate,#ffff00,ราษีไศล|ศรีสะเกษ,10944766.65,836047.36
ดอนมดแดง,อุบลราชธานี,24.41,16.0,8.04,77.29,366,7.485438619801168,100.41108776501345,Moderate,#ffff00,ดอนมดแดง|อุบลราชธานี,11177711.16,835655.807
นิคมพัฒนา,ระยอง,19.26,8.34,9.1,45.53,366,7.477460559275438,100.12801918667691,Moderate,#ffff00,นิคมพัฒนา|ระยอง,11146200.11,834760.068
ท่าศาลา,นครศรีธรรมราช,15.24,4.29,9.16,28.07,366,7.470614991554503,99.3197085363246,Moderate,#ffff00,ท่าศาลา|นครศรีธรรมราช,11056219.38,833991.493
บางแพ,ราชบุรี,23.36,10.65,10.42,54.51,366,7.425324629723858,100.18823191269851,Moderate,#ffff00,บางแพ|ราชบุรี,11152902.96,828906.894
บัวลาย,นครราชสีมา,23.88,11.92,9.83,54.16,366,7.423091335250464,99.7382959702766,Moderate,#ffff00,บัวลาย|นครราชสีมา,11102816.32,828656.183
เขาชะเมา,ระยอง,20.51,8.81,9.81,47.73,366,7.422197982216897,99.95067863418858,Moderate,#ffff00,เขาชะเมา|ระยอง,11126458.65,828555.895
ปากช่อง,นครราชสีมา,23.65,10.09,11.07,55.28,366,7.408814296590867,99.48759072718643,Moderate,#ffff00,ปากช่อง|นครราชสีมา,11074907.94,827053.464
วังน้ำเขียว,นครราชสีมา,23.26,10.1,11.07,54.26,366,7.379552119849891,99.24750168429247,Moderate,#ffff00,วังน้ำเขียว|นครราชสีมา,11048181.35,823768.698
แก้งสนามนาง,นครราชสีมา,23.61,12.36,8.99,63.56,366,7.373423359076207,99.29497953352029,Moderate,#ffff00,แก้งสนามนาง|นครราชสีมา,11053466.56,823080.754
สวนผึ้ง,ราชบุรี,23.36,10.51,10.64,53.95,366,7.369602809618205,100.31829125717474,Moderate,#ffff00,สวนผึ้ง|ราชบุรี,11167381.1,822651.908
โนนแดง,นครราชสีมา,23.63,11.6,9.94,55.11,366,7.313789227144861,99.25251302593647,Moderate,#ffff00,โนนแดง|นครราชสีมา,11048739.21,816387.41
เทพารักษ์,นครราชสีมา,24.28,11.13,10.72,54.86,366,7.313557048625969,99.40798535047432,Moderate,#ffff00,เทพารักษ์|นครราชสีมา,11066046.31,816361.352
พระทองคำ,นครราชสีมา,24.16,11.32,10.72,54.21,366,7.302891559724565,99.39442267614619,Moderate,#ffff00,พระทองคำ|นครราชสีมา,11064536.52,815164.351
เมืองยาง,นครราชสีมา,23.02,11.84,9.1,57.29,366,7.290934879949057,99.45035519933357,Moderate,#ffff00,เมืองยาง|นครราชสีมา,11070762.9,813822.472
เมืองราชบุรี,ราชบุรี,24.72,12.68,9.28,59.41,366,7.284699138910143,100.03343143816167,Moderate,#ffff00,เมืองราชบุรี|ราชบุรี,11135670.65,813122.659
ลำทะเมนชัย,นครราชสีมา,22.3,11.8,8.45,58.56,366,7.271670091308823,99.47495601254681,Moderate,#ffff00,ลำทะเมนชัย|นครราชสีมา,11073501.45,811660.491
สีดา,นครราชสีมา,23.75,11.77,9.86,54.75,366,7.2552536720807135,99.76955518620727,Moderate,#ffff00,สีดา|นครราชสีมา,11106296.08,809818.24
ร่อนพิบูลย์,นครศรีธรรมราช,14.72,3.97,8.67,27.03,366,7.238573575986961,99.5843876126484,Moderate,#ffff00,ร่อนพิบูลย์|นครศรีธรรมราช,11085683.32,807946.468
บ้านโป่ง,ราชบุรี,23.39,10.64,10.49,54.47,366,7.231856858006156,100.13543010810783,Moderate,#ffff00,บ้านโป่ง|ราชบุรี,11147025.09,807192.765
พรหมคีรี,นครศรีธรรมราช,14.75,4.04,8.45,27.6,366,7.15178264680131,99.65095618879973,Moderate,#ffff00,พรหมคีรี|นครศรีธรรมราช,11093093.7,798208.259
พระพรหม,นครศรีธรรมราช,14.29,3.85,7.68,27.29,366,7.144243676001352,99.63108644286183,Moderate,#ffff00,พระพรหม|นครศรีธรรมราช,11090881.81,797362.451
นบพิตำ,นครศรีธรรมราช,15.83,4.65,9.64,27.97,366,7.143603469921862,99.63886477524395,Moderate,#ffff00,นบพิตำ|นครศรีธรรมราช,11091747.69,797290.626
ถ้ำพรรณรา,นครศรีธรรมราช,15.97,4.71,9.76,27.75,366,7.132969411146026,99.58137286655489,Moderate,#ffff00,ถ้ำพรรณรา|นครศรีธรรมราช,11085347.72,796097.601
เมืองนครศรีธรรมราช,นครศรีธรรมราช,14.11,3.81,7.24,27.25,366,7.127028964741994,99.69920254675311,Moderate,#ffff00,เมืองนครศรีธรรมราช|นครศรีธรรมราช,11098464.46,795431.16
สำโรง,อุบลราชธานี,23.62,15.18,7.84,71.17,366,7.120735149255624,100.59819174699878,Moderate,#ffff00,สำโรง|อุบลราชธานี,11198539.48,794725.085
หัวไทร,นครศรีธรรมราช,15.59,4.19,9.91,26.81,366,7.119616101019995,99.424735337262,Moderate,#ffff00,หัวไทร|นครศรีธรรมราช,11067910.91,794599.545
ขนอม,นครศรีธรรมราช,16.9,5.42,9.75,30.42,366,7.108413817849435,99.42844924214114,Moderate,#ffff00,ขนอม|นครศรีธรรมราช,11068324.34,793342.838
เฉลิมพระเกียรติ,นครราชสีมา,24.88,11.12,12.32,55.89,366,7.101162768060993,99.58143269435283,Moderate,#ffff00,เฉลิมพระเกียรติ|นครราชสีมา,11085354.38,792529.409
น้ำขุ่น,อุบลราชธานี,22.95,12.9,8.29,55.94,366,7.076759691354107,100.19501940332226,Moderate,#ffff00,น้ำขุ่น|อุบลราชธานี,11153658.54,789791.945
จุฬาภรณ์,นครศรีธรรมราช,14.89,4.0,9.37,26.07,366,7.075337078286738,99.3939860050866,Moderate,#ffff00,จุฬาภรณ์|นครศรีธรรมราช,11064487.91,789632.365
ช้างกลาง,นครศรีธรรมราช,15.19,4.23,9.39,27.35,366,7.074681861777433,99.45146830180212,Moderate,#ffff00,ช้างกลาง|นครศรีธรรมราช,11070886.81,789558.867
เมืองนครสวรรค์,นครสวรรค์,24.13,12.37,8.58,56.52,366,7.066767707542137,99.39826378246957,Moderate,#ffff00,เมืองนครสวรรค์|นครสวรรค์,11064964.11,788671.116
สิชล,นครศรีธรรมราช,16.31,4.98,9.69,28.75,366,7.0363919653880505,99.47346804311022,Moderate,#ffff00,สิชล|นครศรีธรรมราช,11073335.81,785263.932
ชุมแสง,นครสวรรค์,25.04,13.05,9.58,55.96,366,7.032667590888046,99.44851005973999,Hazardous,#7e0023,ชุมแสง|นครสวรรค์,11070557.5,784846.192
เฉลิมพระเกียรติ,นครศรีธรรมราช,14.8,3.99,8.77,27.18,366,7.0156084526639635,99.44498614854345,Moderate,#ffff00,เฉลิมพระเกียรติ|นครศรีธรรมราช,11070165.22,782932.817
โกรกพระ,นครสวรรค์,25.49,13.24,9.52,58.78,366,6.983911064715625,99.47340426272504,Unhealthy for Sensitive,#ff7e00,โกรกพระ|นครสวรรค์,11073328.71,779377.783
บางขัน,นครศรีธรรมราช,14.71,4.0,9.63,25.32,366,6.975655301830544,99.47496760081398,Moderate,#ffff00,บางขัน|นครศรีธรรมราช,11073502.74,778451.894
สิรินธร,อุบลราชธานี,23.7,13.64,8.39,61.6,366,6.897340903256268,100.70355523650468,Moderate,#ffff00,สิรินธร|อุบลราชธานี,11210268.49,769669.694
นาดูน,มหาสารคาม,24.04,12.49,9.51,57.73,366,6.852294769660224,101.26322128919709,Moderate,#ffff00,นาดูน|มหาสารคาม,11272570.23,764618.866
คำชะอี,มุกดาหาร,24.75,13.52,8.98,60.63,366,6.835388023044457,101.39047492554641,Moderate,#ffff00,คำชะอี|มุกดาหาร,11286736.04,762723.309
ชื่นชม,มหาสารคาม,26.78,13.4,10.69,59.01,366,6.807214221907697,101.51559236815011,Unhealthy for Sensitive,#ff7e00,ชื่นชม|มหาสารคาม,11300664.05,759564.657
กุดรัง,มหาสารคาม,25.26,12.57,10.76,55.14,366,6.801779420877459,101.16396014524773,Unhealthy for Sensitive,#ff7e00,กุดรัง|มหาสารคาม,11261520.53,758955.366
นาเยีย,อุบลราชธานี,24.07,15.33,8.14,72.89,366,6.788944472321461,100.90987714685777,Moderate,#ffff00,นาเยีย|อุบลราชธานี,11233236.14,757516.478
เมืองมุกดาหาร,มุกดาหาร,26.64,15.06,9.97,71.16,366,6.706611668362198,101.40015319475447,Unhealthy for Sensitive,#ff7e00,เมืองมุกดาหาร|มุกดาหาร,11287813.42,748287.301
ยางสีสุราช,มหาสารคาม,23.71,12.23,9.42,57.25,366,6.700952763817003,101.12332997376771,Moderate,#ffff00,ยางสีสุราช|มหาสารคาม,11256997.6,747653.018
ดอนตาล,มุกดาหาร,25.3,14.14,8.86,65.77,366,6.697345395695603,101.57817053797787,Unhealthy for Sensitive,#ff7e00,ดอนตาล|มุกดาหาร,11307630.22,747248.687
เมืองแม่ฮ่องสอน,แม่ฮ่องสอน,28.61,36.98,3.64,166.95,366,6.671296077676434,101.23277217398963,Unhealthy for Sensitive,#ff7e00,เมืองแม่ฮ่องสอน|แม่ฮ่องสอน,11269180.65,744329.044
ทุ่งศรีอุดม,อุบลราชธานี,23.18,13.6,8.11,60.82,366,6.6398178631550415,100.67574204783541,Moderate,#ffff00,ทุ่งศรีอุดม|อุบลราชธานี,11207172.34,740801.13
นิคมคำสร้อย,มุกดาหาร,25.41,14.15,9.02,65.81,366,6.6386467490234295,101.45071603833101,Unhealthy for Sensitive,#ff7e00,นิคมคำสร้อย|มุกดาหาร,11293442.05,740669.882
ดงหลวง,มุกดาหาร,23.78,13.03,8.42,58.88,366,6.614483779204328,101.67464196381238,Moderate,#ffff00,ดงหลวง|มุกดาหาร,11318369.37,737961.982
หนองสูง,มุกดาหาร,24.92,13.68,8.9,61.45,366,6.607428520393015,101.54118150783894,Moderate,#ffff00,หนองสูง|มุกดาหาร,11303512.62,737171.337
ทุ่งหว้า,สตูล,14.55,3.37,9.76,23.85,366,6.552846803365847,101.24066746702177,Moderate,#ffff00,ทุ่งหว้า|สตูล,11270059.55,731055.037
เมืองพังงา,พังงา,17.01,5.3,10.32,30.71,366,6.545834604753488,101.64772044289414,Moderate,#ffff00,เมืองพังงา|พังงา,11315372.48,730269.315
นาตาล,อุบลราชธานี,24.05,13.53,8.08,60.13,366,6.529607863273694,100.90891585967223,Moderate,#ffff00,นาตาล|อุบลราชธานี,11233129.13,728451.139
พระประแดง,สมุทรปราการ,23.01,9.24,10.53,52.17,366,6.49022168218815,101.43288906134919,Moderate,#ffff00,พระประแดง|สมุทรปราการ,11291457.56,724038.236
บางพลี,สมุทรปราการ,23.63,9.12,12.02,52.08,366,6.42321653483004,101.12758286781731,Moderate,#ffff00,บางพลี|สมุทรปราการ,11257471.03,716531.643
เกาะยาว,พังงา,15.87,4.33,10.63,29.24,366,6.4170707876656765,101.69985120596758,Moderate,#ffff00,เกาะยาว|พังงา,11321175.65,715843.184
บางเสาธง,สมุทรปราการ,23.15,8.89,11.81,50.31,366,6.39633423710343,101.24639808971375,Moderate,#ffff00,บางเสาธง|สมุทรปราการ,11270697.48,713520.295
ภูซาง,พะเยา,27.85,21.37,8.13,103.33,366,6.39541782901697,101.81321158796423,Unhealthy for Sensitive,#ff7e00,ภูซาง|พะเยา,11333794.87,713417.642
ตะกั่วทุ่ง,พังงา,16.45,4.79,10.6,30.14,366,6.378395888470031,101.51706326959632,Moderate,#ffff00,ตะกั่วทุ่ง|พังงา,11300827.79,711510.934
พระสมุทรเจดีย์,สมุทรปราการ,23.89,9.48,11.49,53.42,366,6.351106859809457,100.98530607615095,Moderate,#ffff00,พระสมุทรเจดีย์|สมุทรปราการ,11241632.85,708454.293
กะปง,พังงา,17.58,5.81,10.17,32.5,366,6.246933932363036,101.70795562679784,Moderate,#ffff00,กะปง|พังงา,11322077.83,696787.379
เมืองสมุทรปราการ,สมุทรปราการ,25.49,9.63,13.19,57.69,366,6.246247015027857,101.27795392935123,Unhealthy for Sensitive,#ff7e00,เมืองสมุทรปราการ|สมุทรปราการ,11274210.26,696710.455
ภูกามยาว,พะเยา,28.38,22.35,7.02,105.9,366,6.2387986940410585,101.99949001820346,Unhealthy for Sensitive,#ff7e00,ภูกามยาว|พะเยา,11354531.29,695876.366
เขาชัยสน,พัทลุง,15.13,3.38,10.35,24.59,366,6.226971099485686,101.84057876309494,Moderate,#ffff00,เขาชัยสน|พัทลุง,11336841.37,694551.895
ตะกั่วป่า,พังงา,17.98,6.12,10.18,33.85,366,6.188406788001039,101.51342733848385,Moderate,#ffff00,ตะกั่วป่า|พังงา,11300423.04,690233.615
เมืองพัทลุง,พัทลุง,14.99,3.61,10.1,24.96,366,6.103722702146196,101.89135441756228,Moderate,#ffff00,เมืองพัทลุง|พัทลุง,11342493.69,680752.127
ท้ายเหมือง,พังงา,17.19,5.42,10.38,31.33,366,6.078711381464443,101.99272759057612,Moderate,#ffff00,ท้ายเหมือง|พังงา,11353778.5,677952.071
บางบ่อ,สมุทรปราการ,22.92,8.85,11.63,49.81,366,6.073706844509851,101.25507967811406,Moderate,#ffff00,บางบ่อ|สมุทรปราการ,11271663.91,677391.821
กงหรา,พัทลุง,14.31,3.39,9.82,24.49,366,6.038538481711709,101.61196120637918,Moderate,#ffff00,กงหรา|พัทลุง,11311391.78,673454.925
ทับปุด,พังงา,17.01,5.34,10.21,30.58,366,5.911397271200486,101.73625076161704,Moderate,#ffff00,ทับปุด|พังงา,11325227.63,659224.319
คุระบุรี,พังงา,18.46,6.54,10.1,35.54,366,5.898216949998003,101.86640838178536,Moderate,#ffff00,คุระบุรี|พังงา,11339716.71,657749.266
มะนัง,สตูล,14.66,3.14,9.93,23.25,366,5.862265426480507,101.22900257356287,Moderate,#ffff00,มะนัง|สตูล,11268761.02,653725.991
